<?xml version="1.0" encoding="UTF-8"?>
<gpx version="1.1" creator="tkk2gpx (Aus_Kart.ztracks converter)"
     xmlns="http://www.topografix.com/GPX/1/1"
     xmlns:xsi="http://www.w3.org/2001/XMLSchema-instance"
     xsi:schemaLocation="http://www.topografix.com/GPX/1/1 http://www.topografix.com/GPX/1/1/gpx.xsd">
  <metadata>
    <name>AlbanyK</name>
    <desc>Kart track, WA AU. One lap starting and ending at the Start/Finish line. Declared length 916 m.</desc>
  </metadata>
  <wpt lat="-34.9566277" lon="117.8155399">
    <name>Start/Finish</name>
    <desc>Start/Finish line location</desc>
    <sym>Flag, Checkered</sym>
  </wpt>
  <trk>
    <name>AlbanyK - 1 lap</name>
    <trkseg>
      <trkpt lat="-34.9566054" lon="117.8156733"></trkpt>
      <trkpt lat="-34.9565782" lon="117.8156623"></trkpt>
      <trkpt lat="-34.9565525" lon="117.8156475"></trkpt>
      <trkpt lat="-34.9565288" lon="117.8156289"></trkpt>
      <trkpt lat="-34.9565056" lon="117.8156107"></trkpt>
      <trkpt lat="-34.9564832" lon="117.8155977"></trkpt>
      <trkpt lat="-34.9564595" lon="117.8155886"></trkpt>
      <trkpt lat="-34.9564405" lon="117.8155851"></trkpt>
      <trkpt lat="-34.9564204" lon="117.8155840"></trkpt>
      <trkpt lat="-34.9564015" lon="117.8155864"></trkpt>
      <trkpt lat="-34.9563849" lon="117.8155925"></trkpt>
      <trkpt lat="-34.9563694" lon="117.8156018"></trkpt>
      <trkpt lat="-34.9563557" lon="117.8156133"></trkpt>
      <trkpt lat="-34.9563463" lon="117.8156238"></trkpt>
      <trkpt lat="-34.9563379" lon="117.8156359"></trkpt>
      <trkpt lat="-34.9563309" lon="117.8156489"></trkpt>
      <trkpt lat="-34.9563257" lon="117.8156624"></trkpt>
      <trkpt lat="-34.9563220" lon="117.8156819"></trkpt>
      <trkpt lat="-34.9563215" lon="117.8157026"></trkpt>
      <trkpt lat="-34.9563227" lon="117.8157233"></trkpt>
      <trkpt lat="-34.9563289" lon="117.8157545"></trkpt>
      <trkpt lat="-34.9563358" lon="117.8157864"></trkpt>
      <trkpt lat="-34.9563384" lon="117.8158216"></trkpt>
      <trkpt lat="-34.9563377" lon="117.8158573"></trkpt>
      <trkpt lat="-34.9563334" lon="117.8158930"></trkpt>
      <trkpt lat="-34.9563250" lon="117.8159268"></trkpt>
      <trkpt lat="-34.9563179" lon="117.8159455"></trkpt>
      <trkpt lat="-34.9563091" lon="117.8159631"></trkpt>
      <trkpt lat="-34.9562980" lon="117.8159782"></trkpt>
      <trkpt lat="-34.9562845" lon="117.8159905"></trkpt>
      <trkpt lat="-34.9562688" lon="117.8160006"></trkpt>
      <trkpt lat="-34.9562522" lon="117.8160075"></trkpt>
      <trkpt lat="-34.9562343" lon="117.8160111"></trkpt>
      <trkpt lat="-34.9562154" lon="117.8160116"></trkpt>
      <trkpt lat="-34.9561972" lon="117.8160087"></trkpt>
      <trkpt lat="-34.9561793" lon="117.8160016"></trkpt>
      <trkpt lat="-34.9561622" lon="117.8159908"></trkpt>
      <trkpt lat="-34.9561468" lon="117.8159777"></trkpt>
      <trkpt lat="-34.9561277" lon="117.8159530"></trkpt>
      <trkpt lat="-34.9561101" lon="117.8159209"></trkpt>
      <trkpt lat="-34.9560738" lon="117.8158341"></trkpt>
      <trkpt lat="-34.9560377" lon="117.8157474"></trkpt>
      <trkpt lat="-34.9560201" lon="117.8157164"></trkpt>
      <trkpt lat="-34.9560019" lon="117.8156915"></trkpt>
      <trkpt lat="-34.9559812" lon="117.8156694"></trkpt>
      <trkpt lat="-34.9559584" lon="117.8156506"></trkpt>
      <trkpt lat="-34.9559350" lon="117.8156363"></trkpt>
      <trkpt lat="-34.9559104" lon="117.8156260"></trkpt>
      <trkpt lat="-34.9558870" lon="117.8156201"></trkpt>
      <trkpt lat="-34.9558630" lon="117.8156190"></trkpt>
      <trkpt lat="-34.9558442" lon="117.8156219"></trkpt>
      <trkpt lat="-34.9558251" lon="117.8156279"></trkpt>
      <trkpt lat="-34.9558079" lon="117.8156368"></trkpt>
      <trkpt lat="-34.9557967" lon="117.8156460"></trkpt>
      <trkpt lat="-34.9557865" lon="117.8156571"></trkpt>
      <trkpt lat="-34.9557777" lon="117.8156695"></trkpt>
      <trkpt lat="-34.9557704" lon="117.8156826"></trkpt>
      <trkpt lat="-34.9557629" lon="117.8157023"></trkpt>
      <trkpt lat="-34.9557583" lon="117.8157238"></trkpt>
      <trkpt lat="-34.9557567" lon="117.8157455"></trkpt>
      <trkpt lat="-34.9557584" lon="117.8157681"></trkpt>
      <trkpt lat="-34.9557633" lon="117.8157910"></trkpt>
      <trkpt lat="-34.9557705" lon="117.8158131"></trkpt>
      <trkpt lat="-34.9557869" lon="117.8158447"></trkpt>
      <trkpt lat="-34.9558062" lon="117.8158741"></trkpt>
      <trkpt lat="-34.9558391" lon="117.8159192"></trkpt>
      <trkpt lat="-34.9558869" lon="117.8160020"></trkpt>
      <trkpt lat="-34.9559305" lon="117.8160901"></trkpt>
      <trkpt lat="-34.9559429" lon="117.8161263"></trkpt>
      <trkpt lat="-34.9559506" lon="117.8161597"></trkpt>
      <trkpt lat="-34.9559568" lon="117.8161971"></trkpt>
      <trkpt lat="-34.9559598" lon="117.8162352"></trkpt>
      <trkpt lat="-34.9559595" lon="117.8162739"></trkpt>
      <trkpt lat="-34.9559555" lon="117.8163124"></trkpt>
      <trkpt lat="-34.9559473" lon="117.8163499"></trkpt>
      <trkpt lat="-34.9559352" lon="117.8163859"></trkpt>
      <trkpt lat="-34.9559196" lon="117.8164188"></trkpt>
      <trkpt lat="-34.9559002" lon="117.8164490"></trkpt>
      <trkpt lat="-34.9558777" lon="117.8164748"></trkpt>
      <trkpt lat="-34.9558521" lon="117.8164971"></trkpt>
      <trkpt lat="-34.9558247" lon="117.8165149"></trkpt>
      <trkpt lat="-34.9557954" lon="117.8165289"></trkpt>
      <trkpt lat="-34.9557644" lon="117.8165392"></trkpt>
      <trkpt lat="-34.9557324" lon="117.8165448"></trkpt>
      <trkpt lat="-34.9557004" lon="117.8165448"></trkpt>
      <trkpt lat="-34.9556688" lon="117.8165398"></trkpt>
      <trkpt lat="-34.9556381" lon="117.8165296"></trkpt>
      <trkpt lat="-34.9556090" lon="117.8165147"></trkpt>
      <trkpt lat="-34.9555818" lon="117.8164951"></trkpt>
      <trkpt lat="-34.9555573" lon="117.8164717"></trkpt>
      <trkpt lat="-34.9555353" lon="117.8164441"></trkpt>
      <trkpt lat="-34.9555165" lon="117.8164134"></trkpt>
      <trkpt lat="-34.9555007" lon="117.8163790"></trkpt>
      <trkpt lat="-34.9554886" lon="117.8163426"></trkpt>
      <trkpt lat="-34.9554802" lon="117.8163043"></trkpt>
      <trkpt lat="-34.9554753" lon="117.8162649"></trkpt>
      <trkpt lat="-34.9554753" lon="117.8161834"></trkpt>
      <trkpt lat="-34.9555179" lon="117.8157400"></trkpt>
      <trkpt lat="-34.9556045" lon="117.8152308"></trkpt>
      <trkpt lat="-34.9556130" lon="117.8150989"></trkpt>
      <trkpt lat="-34.9556097" lon="117.8149758"></trkpt>
      <trkpt lat="-34.9556034" lon="117.8149197"></trkpt>
      <trkpt lat="-34.9555863" lon="117.8148425"></trkpt>
      <trkpt lat="-34.9555647" lon="117.8147750"></trkpt>
      <trkpt lat="-34.9555574" lon="117.8147425"></trkpt>
      <trkpt lat="-34.9555535" lon="117.8147104"></trkpt>
      <trkpt lat="-34.9555543" lon="117.8146803"></trkpt>
      <trkpt lat="-34.9555589" lon="117.8146510"></trkpt>
      <trkpt lat="-34.9555670" lon="117.8146233"></trkpt>
      <trkpt lat="-34.9555788" lon="117.8145977"></trkpt>
      <trkpt lat="-34.9555884" lon="117.8145831"></trkpt>
      <trkpt lat="-34.9555996" lon="117.8145697"></trkpt>
      <trkpt lat="-34.9556125" lon="117.8145582"></trkpt>
      <trkpt lat="-34.9556284" lon="117.8145478"></trkpt>
      <trkpt lat="-34.9556462" lon="117.8145395"></trkpt>
      <trkpt lat="-34.9556640" lon="117.8145350"></trkpt>
      <trkpt lat="-34.9556804" lon="117.8145351"></trkpt>
      <trkpt lat="-34.9556967" lon="117.8145385"></trkpt>
      <trkpt lat="-34.9557119" lon="117.8145448"></trkpt>
      <trkpt lat="-34.9557262" lon="117.8145549"></trkpt>
      <trkpt lat="-34.9557392" lon="117.8145681"></trkpt>
      <trkpt lat="-34.9557513" lon="117.8145825"></trkpt>
      <trkpt lat="-34.9557680" lon="117.8146061"></trkpt>
      <trkpt lat="-34.9557840" lon="117.8146340"></trkpt>
      <trkpt lat="-34.9558359" lon="117.8147459"></trkpt>
      <trkpt lat="-34.9558565" lon="117.8148022"></trkpt>
      <trkpt lat="-34.9558717" lon="117.8148647"></trkpt>
      <trkpt lat="-34.9558889" lon="117.8150042"></trkpt>
      <trkpt lat="-34.9558958" lon="117.8150420"></trkpt>
      <trkpt lat="-34.9559048" lon="117.8150758"></trkpt>
      <trkpt lat="-34.9559178" lon="117.8151086"></trkpt>
      <trkpt lat="-34.9559343" lon="117.8151392"></trkpt>
      <trkpt lat="-34.9559538" lon="117.8151658"></trkpt>
      <trkpt lat="-34.9559761" lon="117.8151898"></trkpt>
      <trkpt lat="-34.9560002" lon="117.8152112"></trkpt>
      <trkpt lat="-34.9560266" lon="117.8152291"></trkpt>
      <trkpt lat="-34.9560548" lon="117.8152418"></trkpt>
      <trkpt lat="-34.9560846" lon="117.8152506"></trkpt>
      <trkpt lat="-34.9561469" lon="117.8152581"></trkpt>
      <trkpt lat="-34.9562116" lon="117.8152550"></trkpt>
      <trkpt lat="-34.9562775" lon="117.8152430"></trkpt>
      <trkpt lat="-34.9564343" lon="117.8151870"></trkpt>
      <trkpt lat="-34.9567225" lon="117.8150776"></trkpt>
      <trkpt lat="-34.9568226" lon="117.8150414"></trkpt>
      <trkpt lat="-34.9568281" lon="117.8150396"></trkpt>
      <trkpt lat="-34.9568755" lon="117.8150242"></trkpt>
      <trkpt lat="-34.9574268" lon="117.8148730"></trkpt>
      <trkpt lat="-34.9575022" lon="117.8148682"></trkpt>
      <trkpt lat="-34.9575582" lon="117.8148719"></trkpt>
      <trkpt lat="-34.9575827" lon="117.8148755"></trkpt>
      <trkpt lat="-34.9576040" lon="117.8148816"></trkpt>
      <trkpt lat="-34.9576279" lon="117.8148917"></trkpt>
      <trkpt lat="-34.9576512" lon="117.8149045"></trkpt>
      <trkpt lat="-34.9576742" lon="117.8149197"></trkpt>
      <trkpt lat="-34.9576952" lon="117.8149367"></trkpt>
      <trkpt lat="-34.9577113" lon="117.8149527"></trkpt>
      <trkpt lat="-34.9577255" lon="117.8149706"></trkpt>
      <trkpt lat="-34.9577399" lon="117.8149947"></trkpt>
      <trkpt lat="-34.9577526" lon="117.8150208"></trkpt>
      <trkpt lat="-34.9577639" lon="117.8150471"></trkpt>
      <trkpt lat="-34.9577727" lon="117.8150746"></trkpt>
      <trkpt lat="-34.9577777" lon="117.8151053"></trkpt>
      <trkpt lat="-34.9577797" lon="117.8151370"></trkpt>
      <trkpt lat="-34.9577800" lon="117.8151701"></trkpt>
      <trkpt lat="-34.9577775" lon="117.8152033"></trkpt>
      <trkpt lat="-34.9577710" lon="117.8152368"></trkpt>
      <trkpt lat="-34.9577616" lon="117.8152700"></trkpt>
      <trkpt lat="-34.9577352" lon="117.8153356"></trkpt>
      <trkpt lat="-34.9576640" lon="117.8154651"></trkpt>
      <trkpt lat="-34.9576184" lon="117.8155253"></trkpt>
      <trkpt lat="-34.9575701" lon="117.8155764"></trkpt>
      <trkpt lat="-34.9575460" lon="117.8155955"></trkpt>
      <trkpt lat="-34.9575208" lon="117.8156110"></trkpt>
      <trkpt lat="-34.9574959" lon="117.8156215"></trkpt>
      <trkpt lat="-34.9574702" lon="117.8156277"></trkpt>
      <trkpt lat="-34.9574435" lon="117.8156286"></trkpt>
      <trkpt lat="-34.9574169" lon="117.8156247"></trkpt>
      <trkpt lat="-34.9573908" lon="117.8156157"></trkpt>
      <trkpt lat="-34.9573659" lon="117.8156026"></trkpt>
      <trkpt lat="-34.9573426" lon="117.8155864"></trkpt>
      <trkpt lat="-34.9573193" lon="117.8155649"></trkpt>
      <trkpt lat="-34.9572786" lon="117.8155120"></trkpt>
      <trkpt lat="-34.9572378" lon="117.8154591"></trkpt>
      <trkpt lat="-34.9572145" lon="117.8154377"></trkpt>
      <trkpt lat="-34.9571911" lon="117.8154217"></trkpt>
      <trkpt lat="-34.9571660" lon="117.8154096"></trkpt>
      <trkpt lat="-34.9571397" lon="117.8154016"></trkpt>
      <trkpt lat="-34.9571129" lon="117.8153980"></trkpt>
      <trkpt lat="-34.9570858" lon="117.8153987"></trkpt>
      <trkpt lat="-34.9570586" lon="117.8154044"></trkpt>
      <trkpt lat="-34.9570321" lon="117.8154143"></trkpt>
      <trkpt lat="-34.9570056" lon="117.8154287"></trkpt>
      <trkpt lat="-34.9569807" lon="117.8154468"></trkpt>
      <trkpt lat="-34.9569360" lon="117.8154939"></trkpt>
      <trkpt lat="-34.9568933" lon="117.8155470"></trkpt>
      <trkpt lat="-34.9568433" lon="117.8155931"></trkpt>
      <trkpt lat="-34.9567887" lon="117.8156361"></trkpt>
      <trkpt lat="-34.9567585" lon="117.8156526"></trkpt>
      <trkpt lat="-34.9567270" lon="117.8156656"></trkpt>
      <trkpt lat="-34.9566957" lon="117.8156752"></trkpt>
      <trkpt lat="-34.9566642" lon="117.8156802"></trkpt>
      <trkpt lat="-34.9566344" lon="117.8156792"></trkpt>
      <trkpt lat="-34.9566054" lon="117.8156733"></trkpt>
    </trkseg>
  </trk>
</gpx>
