<?xml version="1.0" encoding="UTF-8"?>
<gpx version="1.1" creator="tkk2gpx (Aus_Kart.ztracks converter)"
     xmlns="http://www.topografix.com/GPX/1/1"
     xmlns:xsi="http://www.w3.org/2001/XMLSchema-instance"
     xsi:schemaLocation="http://www.topografix.com/GPX/1/1 http://www.topografix.com/GPX/1/1/gpx.xsd">
  <metadata>
    <name>Ballarat 2</name>
    <desc>Kart track, VIC AU. One lap starting and ending at the Start/Finish line. Declared length 750 m.</desc>
  </metadata>
  <wpt lat="-37.5891367" lon="143.7131635">
    <name>Start/Finish</name>
    <desc>Start/Finish line location</desc>
    <sym>Flag, Checkered</sym>
  </wpt>
  <trk>
    <name>Ballarat 2 - 1 lap</name>
    <trkseg>
      <trkpt lat="-37.5890938" lon="143.7132356"></trkpt>
      <trkpt lat="-37.5890301" lon="143.7132016"></trkpt>
      <trkpt lat="-37.5889949" lon="143.7131779"></trkpt>
      <trkpt lat="-37.5889640" lon="143.7131500"></trkpt>
      <trkpt lat="-37.5889518" lon="143.7131320"></trkpt>
      <trkpt lat="-37.5889421" lon="143.7131126"></trkpt>
      <trkpt lat="-37.5889346" lon="143.7130937"></trkpt>
      <trkpt lat="-37.5889301" lon="143.7130798"></trkpt>
      <trkpt lat="-37.5889270" lon="143.7130662"></trkpt>
      <trkpt lat="-37.5889253" lon="143.7130512"></trkpt>
      <trkpt lat="-37.5889253" lon="143.7130271"></trkpt>
      <trkpt lat="-37.5889278" lon="143.7130008"></trkpt>
      <trkpt lat="-37.5889322" lon="143.7129782"></trkpt>
      <trkpt lat="-37.5889364" lon="143.7129661"></trkpt>
      <trkpt lat="-37.5889417" lon="143.7129559"></trkpt>
      <trkpt lat="-37.5889483" lon="143.7129464"></trkpt>
      <trkpt lat="-37.5889583" lon="143.7129349"></trkpt>
      <trkpt lat="-37.5889702" lon="143.7129245"></trkpt>
      <trkpt lat="-37.5889837" lon="143.7129168"></trkpt>
      <trkpt lat="-37.5890041" lon="143.7129126"></trkpt>
      <trkpt lat="-37.5890266" lon="143.7129123"></trkpt>
      <trkpt lat="-37.5890437" lon="143.7129138"></trkpt>
      <trkpt lat="-37.5890490" lon="143.7129151"></trkpt>
      <trkpt lat="-37.5890547" lon="143.7129177"></trkpt>
      <trkpt lat="-37.5891187" lon="143.7129543"></trkpt>
      <trkpt lat="-37.5891935" lon="143.7129931"></trkpt>
      <trkpt lat="-37.5892173" lon="143.7129992"></trkpt>
      <trkpt lat="-37.5892418" lon="143.7130013"></trkpt>
      <trkpt lat="-37.5893181" lon="143.7130000"></trkpt>
      <trkpt lat="-37.5893936" lon="143.7130002"></trkpt>
      <trkpt lat="-37.5894180" lon="143.7130057"></trkpt>
      <trkpt lat="-37.5894386" lon="143.7130135"></trkpt>
      <trkpt lat="-37.5894808" lon="143.7130353"></trkpt>
      <trkpt lat="-37.5895011" lon="143.7130491"></trkpt>
      <trkpt lat="-37.5895216" lon="143.7130665"></trkpt>
      <trkpt lat="-37.5895536" lon="143.7131010"></trkpt>
      <trkpt lat="-37.5895812" lon="143.7131368"></trkpt>
      <trkpt lat="-37.5895900" lon="143.7131518"></trkpt>
      <trkpt lat="-37.5895969" lon="143.7131681"></trkpt>
      <trkpt lat="-37.5896113" lon="143.7132130"></trkpt>
      <trkpt lat="-37.5896221" lon="143.7132576"></trkpt>
      <trkpt lat="-37.5896239" lon="143.7132712"></trkpt>
      <trkpt lat="-37.5896236" lon="143.7132848"></trkpt>
      <trkpt lat="-37.5896186" lon="143.7133138"></trkpt>
      <trkpt lat="-37.5896102" lon="143.7133484"></trkpt>
      <trkpt lat="-37.5896025" lon="143.7133731"></trkpt>
      <trkpt lat="-37.5896000" lon="143.7133784"></trkpt>
      <trkpt lat="-37.5895964" lon="143.7133835"></trkpt>
      <trkpt lat="-37.5895360" lon="143.7134525"></trkpt>
      <trkpt lat="-37.5894685" lon="143.7135348"></trkpt>
      <trkpt lat="-37.5894544" lon="143.7135608"></trkpt>
      <trkpt lat="-37.5894451" lon="143.7135862"></trkpt>
      <trkpt lat="-37.5894356" lon="143.7136229"></trkpt>
      <trkpt lat="-37.5894301" lon="143.7136607"></trkpt>
      <trkpt lat="-37.5894298" lon="143.7136909"></trkpt>
      <trkpt lat="-37.5894328" lon="143.7137189"></trkpt>
      <trkpt lat="-37.5894375" lon="143.7137403"></trkpt>
      <trkpt lat="-37.5894451" lon="143.7137606"></trkpt>
      <trkpt lat="-37.5894609" lon="143.7137869"></trkpt>
      <trkpt lat="-37.5894797" lon="143.7138101"></trkpt>
      <trkpt lat="-37.5894946" lon="143.7138234"></trkpt>
      <trkpt lat="-37.5895102" lon="143.7138331"></trkpt>
      <trkpt lat="-37.5895270" lon="143.7138398"></trkpt>
      <trkpt lat="-37.5895445" lon="143.7138433"></trkpt>
      <trkpt lat="-37.5895635" lon="143.7138437"></trkpt>
      <trkpt lat="-37.5895826" lon="143.7138407"></trkpt>
      <trkpt lat="-37.5896019" lon="143.7138335"></trkpt>
      <trkpt lat="-37.5896192" lon="143.7138244"></trkpt>
      <trkpt lat="-37.5896281" lon="143.7138186"></trkpt>
      <trkpt lat="-37.5896364" lon="143.7138118"></trkpt>
      <trkpt lat="-37.5896646" lon="143.7137819"></trkpt>
      <trkpt lat="-37.5896920" lon="143.7137453"></trkpt>
      <trkpt lat="-37.5897213" lon="143.7136968"></trkpt>
      <trkpt lat="-37.5897370" lon="143.7136716"></trkpt>
      <trkpt lat="-37.5897558" lon="143.7136473"></trkpt>
      <trkpt lat="-37.5897906" lon="143.7136172"></trkpt>
      <trkpt lat="-37.5898297" lon="143.7135934"></trkpt>
      <trkpt lat="-37.5898518" lon="143.7135853"></trkpt>
      <trkpt lat="-37.5898739" lon="143.7135807"></trkpt>
      <trkpt lat="-37.5898959" lon="143.7135793"></trkpt>
      <trkpt lat="-37.5899178" lon="143.7135812"></trkpt>
      <trkpt lat="-37.5899395" lon="143.7135862"></trkpt>
      <trkpt lat="-37.5899599" lon="143.7135940"></trkpt>
      <trkpt lat="-37.5899778" lon="143.7136041"></trkpt>
      <trkpt lat="-37.5899945" lon="143.7136167"></trkpt>
      <trkpt lat="-37.5900095" lon="143.7136313"></trkpt>
      <trkpt lat="-37.5900223" lon="143.7136473"></trkpt>
      <trkpt lat="-37.5900334" lon="143.7136653"></trkpt>
      <trkpt lat="-37.5900421" lon="143.7136844"></trkpt>
      <trkpt lat="-37.5900479" lon="143.7137044"></trkpt>
      <trkpt lat="-37.5900514" lon="143.7137255"></trkpt>
      <trkpt lat="-37.5900525" lon="143.7137466"></trkpt>
      <trkpt lat="-37.5900512" lon="143.7137675"></trkpt>
      <trkpt lat="-37.5900475" lon="143.7137884"></trkpt>
      <trkpt lat="-37.5900410" lon="143.7138086"></trkpt>
      <trkpt lat="-37.5900293" lon="143.7138316"></trkpt>
      <trkpt lat="-37.5900137" lon="143.7138538"></trkpt>
      <trkpt lat="-37.5899962" lon="143.7138728"></trkpt>
      <trkpt lat="-37.5899666" lon="143.7138938"></trkpt>
      <trkpt lat="-37.5899315" lon="143.7139094"></trkpt>
      <trkpt lat="-37.5898727" lon="143.7139220"></trkpt>
      <trkpt lat="-37.5898057" lon="143.7139360"></trkpt>
      <trkpt lat="-37.5897086" lon="143.7139797"></trkpt>
      <trkpt lat="-37.5896201" lon="143.7140206"></trkpt>
      <trkpt lat="-37.5895609" lon="143.7140329"></trkpt>
      <trkpt lat="-37.5895047" lon="143.7140337"></trkpt>
      <trkpt lat="-37.5894501" lon="143.7140240"></trkpt>
      <trkpt lat="-37.5893877" lon="143.7139986"></trkpt>
      <trkpt lat="-37.5891799" lon="143.7138610"></trkpt>
      <trkpt lat="-37.5888138" lon="143.7135676"></trkpt>
      <trkpt lat="-37.5886786" lon="143.7134521"></trkpt>
      <trkpt lat="-37.5885881" lon="143.7133475"></trkpt>
      <trkpt lat="-37.5885076" lon="143.7132331"></trkpt>
      <trkpt lat="-37.5883419" lon="143.7129190"></trkpt>
      <trkpt lat="-37.5882845" lon="143.7127783"></trkpt>
      <trkpt lat="-37.5882426" lon="143.7126485"></trkpt>
      <trkpt lat="-37.5882266" lon="143.7125725"></trkpt>
      <trkpt lat="-37.5882215" lon="143.7125160"></trkpt>
      <trkpt lat="-37.5882210" lon="143.7124633"></trkpt>
      <trkpt lat="-37.5882239" lon="143.7124409"></trkpt>
      <trkpt lat="-37.5882291" lon="143.7124203"></trkpt>
      <trkpt lat="-37.5882391" lon="143.7123881"></trkpt>
      <trkpt lat="-37.5882532" lon="143.7123568"></trkpt>
      <trkpt lat="-37.5882651" lon="143.7123395"></trkpt>
      <trkpt lat="-37.5882788" lon="143.7123241"></trkpt>
      <trkpt lat="-37.5882937" lon="143.7123117"></trkpt>
      <trkpt lat="-37.5883099" lon="143.7123027"></trkpt>
      <trkpt lat="-37.5883273" lon="143.7122966"></trkpt>
      <trkpt lat="-37.5883437" lon="143.7122933"></trkpt>
      <trkpt lat="-37.5883618" lon="143.7122935"></trkpt>
      <trkpt lat="-37.5883784" lon="143.7122972"></trkpt>
      <trkpt lat="-37.5883912" lon="143.7123022"></trkpt>
      <trkpt lat="-37.5884038" lon="143.7123100"></trkpt>
      <trkpt lat="-37.5884255" lon="143.7123280"></trkpt>
      <trkpt lat="-37.5884460" lon="143.7123507"></trkpt>
      <trkpt lat="-37.5884576" lon="143.7123698"></trkpt>
      <trkpt lat="-37.5884683" lon="143.7123967"></trkpt>
      <trkpt lat="-37.5885206" lon="143.7126046"></trkpt>
      <trkpt lat="-37.5885810" lon="143.7128492"></trkpt>
      <trkpt lat="-37.5886562" lon="143.7130586"></trkpt>
      <trkpt lat="-37.5887013" lon="143.7131523"></trkpt>
      <trkpt lat="-37.5887520" lon="143.7132384"></trkpt>
      <trkpt lat="-37.5888630" lon="143.7133743"></trkpt>
      <trkpt lat="-37.5889251" lon="143.7134411"></trkpt>
      <trkpt lat="-37.5889845" lon="143.7134960"></trkpt>
      <trkpt lat="-37.5890176" lon="143.7135182"></trkpt>
      <trkpt lat="-37.5890480" lon="143.7135319"></trkpt>
      <trkpt lat="-37.5890727" lon="143.7135373"></trkpt>
      <trkpt lat="-37.5890951" lon="143.7135380"></trkpt>
      <trkpt lat="-37.5891086" lon="143.7135362"></trkpt>
      <trkpt lat="-37.5891218" lon="143.7135320"></trkpt>
      <trkpt lat="-37.5891362" lon="143.7135260"></trkpt>
      <trkpt lat="-37.5891517" lon="143.7135180"></trkpt>
      <trkpt lat="-37.5891654" lon="143.7135077"></trkpt>
      <trkpt lat="-37.5891760" lon="143.7134952"></trkpt>
      <trkpt lat="-37.5891851" lon="143.7134808"></trkpt>
      <trkpt lat="-37.5891925" lon="143.7134660"></trkpt>
      <trkpt lat="-37.5891993" lon="143.7134471"></trkpt>
      <trkpt lat="-37.5892036" lon="143.7134276"></trkpt>
      <trkpt lat="-37.5892059" lon="143.7134075"></trkpt>
      <trkpt lat="-37.5892057" lon="143.7133872"></trkpt>
      <trkpt lat="-37.5892028" lon="143.7133668"></trkpt>
      <trkpt lat="-37.5891973" lon="143.7133468"></trkpt>
      <trkpt lat="-37.5891879" lon="143.7133252"></trkpt>
      <trkpt lat="-37.5891772" lon="143.7133059"></trkpt>
      <trkpt lat="-37.5891631" lon="143.7132863"></trkpt>
      <trkpt lat="-37.5891542" lon="143.7132764"></trkpt>
      <trkpt lat="-37.5891434" lon="143.7132666"></trkpt>
      <trkpt lat="-37.5890938" lon="143.7132356"></trkpt>
    </trkseg>
  </trk>
</gpx>
