<?xml version="1.0" encoding="UTF-8"?>
<gpx version="1.1" creator="tkk2gpx (Aus_Kart.ztracks converter)"
     xmlns="http://www.topografix.com/GPX/1/1"
     xmlns:xsi="http://www.w3.org/2001/XMLSchema-instance"
     xsi:schemaLocation="http://www.topografix.com/GPX/1/1 http://www.topografix.com/GPX/1/1/gpx.xsd">
  <metadata>
    <name>Bolivar Long</name>
    <desc>Kart track, SA AU. One lap starting and ending at the Start/Finish line. Declared length 922 m.</desc>
  </metadata>
  <wpt lat="-34.7419586" lon="138.5775155">
    <name>Start/Finish</name>
    <desc>Start/Finish line location</desc>
    <sym>Flag, Checkered</sym>
  </wpt>
  <trk>
    <name>Bolivar Long - 1 lap</name>
    <trkseg>
      <trkpt lat="-34.7418619" lon="138.5775068"></trkpt>
      <trkpt lat="-34.7418552" lon="138.5774593"></trkpt>
      <trkpt lat="-34.7418069" lon="138.5773052"></trkpt>
      <trkpt lat="-34.7416959" lon="138.5770195"></trkpt>
      <trkpt lat="-34.7416688" lon="138.5769054"></trkpt>
      <trkpt lat="-34.7416591" lon="138.5768410"></trkpt>
      <trkpt lat="-34.7416559" lon="138.5767807"></trkpt>
      <trkpt lat="-34.7416585" lon="138.5767565"></trkpt>
      <trkpt lat="-34.7416633" lon="138.5767347"></trkpt>
      <trkpt lat="-34.7416702" lon="138.5767143"></trkpt>
      <trkpt lat="-34.7416791" lon="138.5766948"></trkpt>
      <trkpt lat="-34.7416900" lon="138.5766766"></trkpt>
      <trkpt lat="-34.7417025" lon="138.5766608"></trkpt>
      <trkpt lat="-34.7417165" lon="138.5766479"></trkpt>
      <trkpt lat="-34.7417320" lon="138.5766373"></trkpt>
      <trkpt lat="-34.7417483" lon="138.5766298"></trkpt>
      <trkpt lat="-34.7417655" lon="138.5766254"></trkpt>
      <trkpt lat="-34.7417834" lon="138.5766241"></trkpt>
      <trkpt lat="-34.7418009" lon="138.5766258"></trkpt>
      <trkpt lat="-34.7418181" lon="138.5766308"></trkpt>
      <trkpt lat="-34.7418348" lon="138.5766389"></trkpt>
      <trkpt lat="-34.7418503" lon="138.5766495"></trkpt>
      <trkpt lat="-34.7418644" lon="138.5766629"></trkpt>
      <trkpt lat="-34.7418772" lon="138.5766788"></trkpt>
      <trkpt lat="-34.7418882" lon="138.5766962"></trkpt>
      <trkpt lat="-34.7419011" lon="138.5767267"></trkpt>
      <trkpt lat="-34.7419095" lon="138.5767554"></trkpt>
      <trkpt lat="-34.7419115" lon="138.5767658"></trkpt>
      <trkpt lat="-34.7419126" lon="138.5767778"></trkpt>
      <trkpt lat="-34.7419147" lon="138.5768638"></trkpt>
      <trkpt lat="-34.7419196" lon="138.5769562"></trkpt>
      <trkpt lat="-34.7419255" lon="138.5769812"></trkpt>
      <trkpt lat="-34.7419334" lon="138.5770019"></trkpt>
      <trkpt lat="-34.7419449" lon="138.5770261"></trkpt>
      <trkpt lat="-34.7419586" lon="138.5770485"></trkpt>
      <trkpt lat="-34.7419722" lon="138.5770660"></trkpt>
      <trkpt lat="-34.7419881" lon="138.5770811"></trkpt>
      <trkpt lat="-34.7420124" lon="138.5770965"></trkpt>
      <trkpt lat="-34.7420379" lon="138.5771071"></trkpt>
      <trkpt lat="-34.7420556" lon="138.5771103"></trkpt>
      <trkpt lat="-34.7420726" lon="138.5771099"></trkpt>
      <trkpt lat="-34.7420896" lon="138.5771065"></trkpt>
      <trkpt lat="-34.7421063" lon="138.5770999"></trkpt>
      <trkpt lat="-34.7421237" lon="138.5770891"></trkpt>
      <trkpt lat="-34.7421403" lon="138.5770749"></trkpt>
      <trkpt lat="-34.7421570" lon="138.5770568"></trkpt>
      <trkpt lat="-34.7421716" lon="138.5770350"></trkpt>
      <trkpt lat="-34.7421847" lon="138.5770046"></trkpt>
      <trkpt lat="-34.7421937" lon="138.5769732"></trkpt>
      <trkpt lat="-34.7421968" lon="138.5769520"></trkpt>
      <trkpt lat="-34.7421977" lon="138.5769313"></trkpt>
      <trkpt lat="-34.7421957" lon="138.5768864"></trkpt>
      <trkpt lat="-34.7421868" lon="138.5768349"></trkpt>
      <trkpt lat="-34.7421707" lon="138.5767817"></trkpt>
      <trkpt lat="-34.7421417" lon="138.5767179"></trkpt>
      <trkpt lat="-34.7421025" lon="138.5766488"></trkpt>
      <trkpt lat="-34.7419341" lon="138.5763966"></trkpt>
      <trkpt lat="-34.7419101" lon="138.5763430"></trkpt>
      <trkpt lat="-34.7418956" lon="138.5762941"></trkpt>
      <trkpt lat="-34.7418883" lon="138.5762500"></trkpt>
      <trkpt lat="-34.7418868" lon="138.5762066"></trkpt>
      <trkpt lat="-34.7418881" lon="138.5761856"></trkpt>
      <trkpt lat="-34.7418918" lon="138.5761632"></trkpt>
      <trkpt lat="-34.7419038" lon="138.5761223"></trkpt>
      <trkpt lat="-34.7419193" lon="138.5760832"></trkpt>
      <trkpt lat="-34.7419297" lon="138.5760645"></trkpt>
      <trkpt lat="-34.7419409" lon="138.5760488"></trkpt>
      <trkpt lat="-34.7419670" lon="138.5760195"></trkpt>
      <trkpt lat="-34.7419967" lon="138.5759957"></trkpt>
      <trkpt lat="-34.7420293" lon="138.5759784"></trkpt>
      <trkpt lat="-34.7420639" lon="138.5759676"></trkpt>
      <trkpt lat="-34.7420994" lon="138.5759638"></trkpt>
      <trkpt lat="-34.7421350" lon="138.5759668"></trkpt>
      <trkpt lat="-34.7421698" lon="138.5759765"></trkpt>
      <trkpt lat="-34.7422032" lon="138.5759923"></trkpt>
      <trkpt lat="-34.7422340" lon="138.5760133"></trkpt>
      <trkpt lat="-34.7422626" lon="138.5760403"></trkpt>
      <trkpt lat="-34.7422921" lon="138.5760794"></trkpt>
      <trkpt lat="-34.7423178" lon="138.5761259"></trkpt>
      <trkpt lat="-34.7423348" lon="138.5761688"></trkpt>
      <trkpt lat="-34.7423486" lon="138.5762114"></trkpt>
      <trkpt lat="-34.7423531" lon="138.5762297"></trkpt>
      <trkpt lat="-34.7423561" lon="138.5762512"></trkpt>
      <trkpt lat="-34.7423697" lon="138.5765527"></trkpt>
      <trkpt lat="-34.7423883" lon="138.5771314"></trkpt>
      <trkpt lat="-34.7424041" lon="138.5775572"></trkpt>
      <trkpt lat="-34.7424010" lon="138.5778910"></trkpt>
      <trkpt lat="-34.7423944" lon="138.5779189"></trkpt>
      <trkpt lat="-34.7423863" lon="138.5779380"></trkpt>
      <trkpt lat="-34.7423764" lon="138.5779556"></trkpt>
      <trkpt lat="-34.7423558" lon="138.5779845"></trkpt>
      <trkpt lat="-34.7423353" lon="138.5780067"></trkpt>
      <trkpt lat="-34.7423275" lon="138.5780131"></trkpt>
      <trkpt lat="-34.7423197" lon="138.5780178"></trkpt>
      <trkpt lat="-34.7423075" lon="138.5780240"></trkpt>
      <trkpt lat="-34.7422935" lon="138.5780291"></trkpt>
      <trkpt lat="-34.7422736" lon="138.5780339"></trkpt>
      <trkpt lat="-34.7422502" lon="138.5780342"></trkpt>
      <trkpt lat="-34.7421984" lon="138.5780142"></trkpt>
      <trkpt lat="-34.7421476" lon="138.5779909"></trkpt>
      <trkpt lat="-34.7421104" lon="138.5779822"></trkpt>
      <trkpt lat="-34.7420830" lon="138.5779807"></trkpt>
      <trkpt lat="-34.7420556" lon="138.5779828"></trkpt>
      <trkpt lat="-34.7420361" lon="138.5779882"></trkpt>
      <trkpt lat="-34.7420175" lon="138.5779968"></trkpt>
      <trkpt lat="-34.7419946" lon="138.5780114"></trkpt>
      <trkpt lat="-34.7419740" lon="138.5780277"></trkpt>
      <trkpt lat="-34.7419543" lon="138.5780479"></trkpt>
      <trkpt lat="-34.7419304" lon="138.5780812"></trkpt>
      <trkpt lat="-34.7419076" lon="138.5781256"></trkpt>
      <trkpt lat="-34.7418450" lon="138.5782852"></trkpt>
      <trkpt lat="-34.7417951" lon="138.5784442"></trkpt>
      <trkpt lat="-34.7417890" lon="138.5784799"></trkpt>
      <trkpt lat="-34.7417879" lon="138.5785125"></trkpt>
      <trkpt lat="-34.7417935" lon="138.5785496"></trkpt>
      <trkpt lat="-34.7418031" lon="138.5785829"></trkpt>
      <trkpt lat="-34.7418101" lon="138.5785999"></trkpt>
      <trkpt lat="-34.7418193" lon="138.5786143"></trkpt>
      <trkpt lat="-34.7418301" lon="138.5786263"></trkpt>
      <trkpt lat="-34.7418430" lon="138.5786376"></trkpt>
      <trkpt lat="-34.7418559" lon="138.5786466"></trkpt>
      <trkpt lat="-34.7418714" lon="138.5786541"></trkpt>
      <trkpt lat="-34.7418871" lon="138.5786582"></trkpt>
      <trkpt lat="-34.7418978" lon="138.5786596"></trkpt>
      <trkpt lat="-34.7419086" lon="138.5786597"></trkpt>
      <trkpt lat="-34.7419202" lon="138.5786577"></trkpt>
      <trkpt lat="-34.7419393" lon="138.5786502"></trkpt>
      <trkpt lat="-34.7419599" lon="138.5786387"></trkpt>
      <trkpt lat="-34.7419772" lon="138.5786263"></trkpt>
      <trkpt lat="-34.7419888" lon="138.5786140"></trkpt>
      <trkpt lat="-34.7419998" lon="138.5785985"></trkpt>
      <trkpt lat="-34.7420337" lon="138.5785422"></trkpt>
      <trkpt lat="-34.7420721" lon="138.5784852"></trkpt>
      <trkpt lat="-34.7420884" lon="138.5784698"></trkpt>
      <trkpt lat="-34.7421047" lon="138.5784585"></trkpt>
      <trkpt lat="-34.7421217" lon="138.5784499"></trkpt>
      <trkpt lat="-34.7421398" lon="138.5784436"></trkpt>
      <trkpt lat="-34.7421586" lon="138.5784400"></trkpt>
      <trkpt lat="-34.7421771" lon="138.5784394"></trkpt>
      <trkpt lat="-34.7421949" lon="138.5784418"></trkpt>
      <trkpt lat="-34.7422124" lon="138.5784470"></trkpt>
      <trkpt lat="-34.7422288" lon="138.5784549"></trkpt>
      <trkpt lat="-34.7422442" lon="138.5784658"></trkpt>
      <trkpt lat="-34.7422586" lon="138.5784794"></trkpt>
      <trkpt lat="-34.7422710" lon="138.5784950"></trkpt>
      <trkpt lat="-34.7422813" lon="138.5785135"></trkpt>
      <trkpt lat="-34.7422896" lon="138.5785341"></trkpt>
      <trkpt lat="-34.7422959" lon="138.5785538"></trkpt>
      <trkpt lat="-34.7423002" lon="138.5785743"></trkpt>
      <trkpt lat="-34.7423023" lon="138.5785944"></trkpt>
      <trkpt lat="-34.7423033" lon="138.5786396"></trkpt>
      <trkpt lat="-34.7422962" lon="138.5787041"></trkpt>
      <trkpt lat="-34.7422832" lon="138.5787718"></trkpt>
      <trkpt lat="-34.7422633" lon="138.5788517"></trkpt>
      <trkpt lat="-34.7422382" lon="138.5789293"></trkpt>
      <trkpt lat="-34.7422200" lon="138.5789631"></trkpt>
      <trkpt lat="-34.7422014" lon="138.5789891"></trkpt>
      <trkpt lat="-34.7421883" lon="138.5790043"></trkpt>
      <trkpt lat="-34.7421749" lon="138.5790169"></trkpt>
      <trkpt lat="-34.7421457" lon="138.5790384"></trkpt>
      <trkpt lat="-34.7421140" lon="138.5790539"></trkpt>
      <trkpt lat="-34.7420806" lon="138.5790635"></trkpt>
      <trkpt lat="-34.7420472" lon="138.5790672"></trkpt>
      <trkpt lat="-34.7420128" lon="138.5790644"></trkpt>
      <trkpt lat="-34.7419727" lon="138.5790519"></trkpt>
      <trkpt lat="-34.7419309" lon="138.5790318"></trkpt>
      <trkpt lat="-34.7418210" lon="138.5789579"></trkpt>
      <trkpt lat="-34.7417860" lon="138.5789450"></trkpt>
      <trkpt lat="-34.7417501" lon="138.5789373"></trkpt>
      <trkpt lat="-34.7416923" lon="138.5789338"></trkpt>
      <trkpt lat="-34.7416320" lon="138.5789264"></trkpt>
      <trkpt lat="-34.7416119" lon="138.5789190"></trkpt>
      <trkpt lat="-34.7415945" lon="138.5789096"></trkpt>
      <trkpt lat="-34.7415786" lon="138.5788977"></trkpt>
      <trkpt lat="-34.7415567" lon="138.5788735"></trkpt>
      <trkpt lat="-34.7415395" lon="138.5788473"></trkpt>
      <trkpt lat="-34.7415318" lon="138.5788310"></trkpt>
      <trkpt lat="-34.7415263" lon="138.5788149"></trkpt>
      <trkpt lat="-34.7415176" lon="138.5787817"></trkpt>
      <trkpt lat="-34.7415130" lon="138.5787332"></trkpt>
      <trkpt lat="-34.7415145" lon="138.5786714"></trkpt>
      <trkpt lat="-34.7415786" lon="138.5781920"></trkpt>
      <trkpt lat="-34.7415932" lon="138.5781005"></trkpt>
      <trkpt lat="-34.7416101" lon="138.5780287"></trkpt>
      <trkpt lat="-34.7416252" lon="138.5779910"></trkpt>
      <trkpt lat="-34.7416463" lon="138.5779551"></trkpt>
      <trkpt lat="-34.7417199" lon="138.5778637"></trkpt>
      <trkpt lat="-34.7417918" lon="138.5777779"></trkpt>
      <trkpt lat="-34.7418195" lon="138.5777320"></trkpt>
      <trkpt lat="-34.7418380" lon="138.5776893"></trkpt>
      <trkpt lat="-34.7418513" lon="138.5776451"></trkpt>
      <trkpt lat="-34.7418597" lon="138.5775990"></trkpt>
      <trkpt lat="-34.7418632" lon="138.5775519"></trkpt>
      <trkpt lat="-34.7418619" lon="138.5775068"></trkpt>
    </trkseg>
  </trk>
</gpx>
