<?xml version="1.0" encoding="UTF-8"?>
<gpx version="1.1" creator="tkk2gpx (Aus_Kart.ztracks converter)"
     xmlns="http://www.topografix.com/GPX/1/1"
     xmlns:xsi="http://www.w3.org/2001/XMLSchema-instance"
     xsi:schemaLocation="http://www.topografix.com/GPX/1/1 http://www.topografix.com/GPX/1/1/gpx.xsd">
  <metadata>
    <name>DalbyK</name>
    <desc>Kart track, QLD AU. One lap starting and ending at the Start/Finish line. Declared length 536 m.</desc>
  </metadata>
  <wpt lat="-27.1823367" lon="151.2301925">
    <name>Start/Finish</name>
    <desc>Start/Finish line location</desc>
    <sym>Flag, Checkered</sym>
  </wpt>
  <trk>
    <name>DalbyK - 1 lap</name>
    <trkseg>
      <trkpt lat="-27.1823818" lon="151.2301367"></trkpt>
      <trkpt lat="-27.1823279" lon="151.2301141"></trkpt>
      <trkpt lat="-27.1823091" lon="151.2301004"></trkpt>
      <trkpt lat="-27.1822161" lon="151.2300235"></trkpt>
      <trkpt lat="-27.1821891" lon="151.2300098"></trkpt>
      <trkpt lat="-27.1821653" lon="151.2300014"></trkpt>
      <trkpt lat="-27.1821382" lon="151.2299958"></trkpt>
      <trkpt lat="-27.1821109" lon="151.2299946"></trkpt>
      <trkpt lat="-27.1820841" lon="151.2299983"></trkpt>
      <trkpt lat="-27.1820709" lon="151.2300020"></trkpt>
      <trkpt lat="-27.1820582" lon="151.2300069"></trkpt>
      <trkpt lat="-27.1820353" lon="151.2300203"></trkpt>
      <trkpt lat="-27.1820113" lon="151.2300401"></trkpt>
      <trkpt lat="-27.1819351" lon="151.2301246"></trkpt>
      <trkpt lat="-27.1818528" lon="151.2302065"></trkpt>
      <trkpt lat="-27.1818370" lon="151.2302152"></trkpt>
      <trkpt lat="-27.1818231" lon="151.2302196"></trkpt>
      <trkpt lat="-27.1818096" lon="151.2302209"></trkpt>
      <trkpt lat="-27.1817997" lon="151.2302201"></trkpt>
      <trkpt lat="-27.1817897" lon="151.2302176"></trkpt>
      <trkpt lat="-27.1817802" lon="151.2302139"></trkpt>
      <trkpt lat="-27.1817716" lon="151.2302091"></trkpt>
      <trkpt lat="-27.1817619" lon="151.2302016"></trkpt>
      <trkpt lat="-27.1817533" lon="151.2301924"></trkpt>
      <trkpt lat="-27.1817463" lon="151.2301819"></trkpt>
      <trkpt lat="-27.1817407" lon="151.2301697"></trkpt>
      <trkpt lat="-27.1817368" lon="151.2301561"></trkpt>
      <trkpt lat="-27.1817349" lon="151.2301415"></trkpt>
      <trkpt lat="-27.1817356" lon="151.2301214"></trkpt>
      <trkpt lat="-27.1817393" lon="151.2300997"></trkpt>
      <trkpt lat="-27.1817457" lon="151.2300783"></trkpt>
      <trkpt lat="-27.1817560" lon="151.2300547"></trkpt>
      <trkpt lat="-27.1817696" lon="151.2300314"></trkpt>
      <trkpt lat="-27.1817857" lon="151.2300109"></trkpt>
      <trkpt lat="-27.1818174" lon="151.2299875"></trkpt>
      <trkpt lat="-27.1818501" lon="151.2299674"></trkpt>
      <trkpt lat="-27.1818925" lon="151.2299311"></trkpt>
      <trkpt lat="-27.1819426" lon="151.2298987"></trkpt>
      <trkpt lat="-27.1819967" lon="151.2298716"></trkpt>
      <trkpt lat="-27.1820316" lon="151.2298628"></trkpt>
      <trkpt lat="-27.1820662" lon="151.2298597"></trkpt>
      <trkpt lat="-27.1821506" lon="151.2298643"></trkpt>
      <trkpt lat="-27.1822617" lon="151.2298807"></trkpt>
      <trkpt lat="-27.1824581" lon="151.2299367"></trkpt>
      <trkpt lat="-27.1827314" lon="151.2300146"></trkpt>
      <trkpt lat="-27.1827790" lon="151.2300363"></trkpt>
      <trkpt lat="-27.1828148" lon="151.2300583"></trkpt>
      <trkpt lat="-27.1828444" lon="151.2300804"></trkpt>
      <trkpt lat="-27.1828702" lon="151.2301055"></trkpt>
      <trkpt lat="-27.1828928" lon="151.2301348"></trkpt>
      <trkpt lat="-27.1829114" lon="151.2301672"></trkpt>
      <trkpt lat="-27.1829255" lon="151.2302024"></trkpt>
      <trkpt lat="-27.1829348" lon="151.2302396"></trkpt>
      <trkpt lat="-27.1829385" lon="151.2302786"></trkpt>
      <trkpt lat="-27.1829367" lon="151.2303180"></trkpt>
      <trkpt lat="-27.1829280" lon="151.2303580"></trkpt>
      <trkpt lat="-27.1829147" lon="151.2303946"></trkpt>
      <trkpt lat="-27.1829024" lon="151.2304184"></trkpt>
      <trkpt lat="-27.1828868" lon="151.2304399"></trkpt>
      <trkpt lat="-27.1828582" lon="151.2304692"></trkpt>
      <trkpt lat="-27.1828261" lon="151.2304942"></trkpt>
      <trkpt lat="-27.1828010" lon="151.2305066"></trkpt>
      <trkpt lat="-27.1827753" lon="151.2305149"></trkpt>
      <trkpt lat="-27.1827188" lon="151.2305252"></trkpt>
      <trkpt lat="-27.1826586" lon="151.2305252"></trkpt>
      <trkpt lat="-27.1823850" lon="151.2304795"></trkpt>
      <trkpt lat="-27.1822266" lon="151.2304487"></trkpt>
      <trkpt lat="-27.1820951" lon="151.2304130"></trkpt>
      <trkpt lat="-27.1820599" lon="151.2303944"></trkpt>
      <trkpt lat="-27.1820345" lon="151.2303736"></trkpt>
      <trkpt lat="-27.1820222" lon="151.2303604"></trkpt>
      <trkpt lat="-27.1820120" lon="151.2303463"></trkpt>
      <trkpt lat="-27.1820038" lon="151.2303311"></trkpt>
      <trkpt lat="-27.1819976" lon="151.2303148"></trkpt>
      <trkpt lat="-27.1819934" lon="151.2302975"></trkpt>
      <trkpt lat="-27.1819915" lon="151.2302800"></trkpt>
      <trkpt lat="-27.1819920" lon="151.2302622"></trkpt>
      <trkpt lat="-27.1819949" lon="151.2302442"></trkpt>
      <trkpt lat="-27.1820002" lon="151.2302277"></trkpt>
      <trkpt lat="-27.1820082" lon="151.2302129"></trkpt>
      <trkpt lat="-27.1820187" lon="151.2301994"></trkpt>
      <trkpt lat="-27.1820306" lon="151.2301883"></trkpt>
      <trkpt lat="-27.1820445" lon="151.2301799"></trkpt>
      <trkpt lat="-27.1820599" lon="151.2301738"></trkpt>
      <trkpt lat="-27.1820739" lon="151.2301703"></trkpt>
      <trkpt lat="-27.1820862" lon="151.2301699"></trkpt>
      <trkpt lat="-27.1820977" lon="151.2301715"></trkpt>
      <trkpt lat="-27.1821220" lon="151.2301774"></trkpt>
      <trkpt lat="-27.1822207" lon="151.2302102"></trkpt>
      <trkpt lat="-27.1822671" lon="151.2302354"></trkpt>
      <trkpt lat="-27.1823122" lon="151.2302674"></trkpt>
      <trkpt lat="-27.1823640" lon="151.2302924"></trkpt>
      <trkpt lat="-27.1826126" lon="151.2303952"></trkpt>
      <trkpt lat="-27.1826399" lon="151.2304016"></trkpt>
      <trkpt lat="-27.1826626" lon="151.2304036"></trkpt>
      <trkpt lat="-27.1826864" lon="151.2304029"></trkpt>
      <trkpt lat="-27.1827090" lon="151.2303990"></trkpt>
      <trkpt lat="-27.1827267" lon="151.2303926"></trkpt>
      <trkpt lat="-27.1827428" lon="151.2303836"></trkpt>
      <trkpt lat="-27.1827572" lon="151.2303723"></trkpt>
      <trkpt lat="-27.1827698" lon="151.2303589"></trkpt>
      <trkpt lat="-27.1827800" lon="151.2303436"></trkpt>
      <trkpt lat="-27.1827877" lon="151.2303267"></trkpt>
      <trkpt lat="-27.1827911" lon="151.2303151"></trkpt>
      <trkpt lat="-27.1827932" lon="151.2303031"></trkpt>
      <trkpt lat="-27.1827942" lon="151.2302910"></trkpt>
      <trkpt lat="-27.1827932" lon="151.2302725"></trkpt>
      <trkpt lat="-27.1827895" lon="151.2302542"></trkpt>
      <trkpt lat="-27.1827856" lon="151.2302421"></trkpt>
      <trkpt lat="-27.1827805" lon="151.2302303"></trkpt>
      <trkpt lat="-27.1827740" lon="151.2302191"></trkpt>
      <trkpt lat="-27.1827644" lon="151.2302068"></trkpt>
      <trkpt lat="-27.1827528" lon="151.2301952"></trkpt>
      <trkpt lat="-27.1827401" lon="151.2301851"></trkpt>
      <trkpt lat="-27.1827179" lon="151.2301730"></trkpt>
      <trkpt lat="-27.1826936" lon="151.2301639"></trkpt>
      <trkpt lat="-27.1826671" lon="151.2301566"></trkpt>
      <trkpt lat="-27.1826396" lon="151.2301522"></trkpt>
      <trkpt lat="-27.1825814" lon="151.2301535"></trkpt>
      <trkpt lat="-27.1825364" lon="151.2301615"></trkpt>
      <trkpt lat="-27.1824900" lon="151.2301647"></trkpt>
      <trkpt lat="-27.1824673" lon="151.2301623"></trkpt>
      <trkpt lat="-27.1824422" lon="151.2301567"></trkpt>
      <trkpt lat="-27.1823818" lon="151.2301367"></trkpt>
    </trkseg>
  </trk>
</gpx>
