<?xml version="1.0" encoding="UTF-8"?>
<gpx version="1.1" creator="tkk2gpx (Aus_Kart.ztracks converter)"
     xmlns="http://www.topografix.com/GPX/1/1"
     xmlns:xsi="http://www.w3.org/2001/XMLSchema-instance"
     xsi:schemaLocation="http://www.topografix.com/GPX/1/1 http://www.topografix.com/GPX/1/1/gpx.xsd">
  <metadata>
    <name>DarwinK Var2</name>
    <desc>Kart track, NT AU. One lap starting and ending at the Start/Finish line. Declared length 771 m.</desc>
  </metadata>
  <wpt lat="-12.4440201" lon="130.9121382">
    <name>Start/Finish</name>
    <desc>Start/Finish line location</desc>
    <sym>Flag, Checkered</sym>
  </wpt>
  <trk>
    <name>DarwinK Var2 - 1 lap</name>
    <trkseg>
      <trkpt lat="-12.4439414" lon="130.9121280"></trkpt>
      <trkpt lat="-12.4438714" lon="130.9120699"></trkpt>
      <trkpt lat="-12.4438407" lon="130.9120444"></trkpt>
      <trkpt lat="-12.4437433" lon="130.9119685"></trkpt>
      <trkpt lat="-12.4436003" lon="130.9118998"></trkpt>
      <trkpt lat="-12.4435724" lon="130.9118941"></trkpt>
      <trkpt lat="-12.4435443" lon="130.9118918"></trkpt>
      <trkpt lat="-12.4435036" lon="130.9118930"></trkpt>
      <trkpt lat="-12.4434637" lon="130.9118982"></trkpt>
      <trkpt lat="-12.4434382" lon="130.9119051"></trkpt>
      <trkpt lat="-12.4434150" lon="130.9119143"></trkpt>
      <trkpt lat="-12.4433933" lon="130.9119254"></trkpt>
      <trkpt lat="-12.4433730" lon="130.9119386"></trkpt>
      <trkpt lat="-12.4433543" lon="130.9119541"></trkpt>
      <trkpt lat="-12.4433374" lon="130.9119716"></trkpt>
      <trkpt lat="-12.4433223" lon="130.9119910"></trkpt>
      <trkpt lat="-12.4433093" lon="130.9120119"></trkpt>
      <trkpt lat="-12.4432988" lon="130.9120342"></trkpt>
      <trkpt lat="-12.4432906" lon="130.9120576"></trkpt>
      <trkpt lat="-12.4432847" lon="130.9120823"></trkpt>
      <trkpt lat="-12.4432814" lon="130.9121076"></trkpt>
      <trkpt lat="-12.4432810" lon="130.9121333"></trkpt>
      <trkpt lat="-12.4432833" lon="130.9121589"></trkpt>
      <trkpt lat="-12.4432883" lon="130.9121842"></trkpt>
      <trkpt lat="-12.4432960" lon="130.9122089"></trkpt>
      <trkpt lat="-12.4433063" lon="130.9122330"></trkpt>
      <trkpt lat="-12.4433191" lon="130.9122560"></trkpt>
      <trkpt lat="-12.4433343" lon="130.9122779"></trkpt>
      <trkpt lat="-12.4433517" lon="130.9122982"></trkpt>
      <trkpt lat="-12.4433698" lon="130.9123153"></trkpt>
      <trkpt lat="-12.4433934" lon="130.9123331"></trkpt>
      <trkpt lat="-12.4435858" lon="130.9124434"></trkpt>
      <trkpt lat="-12.4436186" lon="130.9124676"></trkpt>
      <trkpt lat="-12.4436429" lon="130.9124905"></trkpt>
      <trkpt lat="-12.4436573" lon="130.9125087"></trkpt>
      <trkpt lat="-12.4436678" lon="130.9125280"></trkpt>
      <trkpt lat="-12.4436733" lon="130.9125435"></trkpt>
      <trkpt lat="-12.4436771" lon="130.9125601"></trkpt>
      <trkpt lat="-12.4436787" lon="130.9125766"></trkpt>
      <trkpt lat="-12.4436778" lon="130.9125926"></trkpt>
      <trkpt lat="-12.4436747" lon="130.9126086"></trkpt>
      <trkpt lat="-12.4436696" lon="130.9126237"></trkpt>
      <trkpt lat="-12.4436623" lon="130.9126381"></trkpt>
      <trkpt lat="-12.4436528" lon="130.9126517"></trkpt>
      <trkpt lat="-12.4436413" lon="130.9126638"></trkpt>
      <trkpt lat="-12.4436248" lon="130.9126757"></trkpt>
      <trkpt lat="-12.4436058" lon="130.9126859"></trkpt>
      <trkpt lat="-12.4435886" lon="130.9126933"></trkpt>
      <trkpt lat="-12.4435748" lon="130.9126971"></trkpt>
      <trkpt lat="-12.4435618" lon="130.9126990"></trkpt>
      <trkpt lat="-12.4435345" lon="130.9127007"></trkpt>
      <trkpt lat="-12.4435206" lon="130.9127002"></trkpt>
      <trkpt lat="-12.4435038" lon="130.9126978"></trkpt>
      <trkpt lat="-12.4434349" lon="130.9126768"></trkpt>
      <trkpt lat="-12.4433658" lon="130.9126557"></trkpt>
      <trkpt lat="-12.4433494" lon="130.9126530"></trkpt>
      <trkpt lat="-12.4433344" lon="130.9126527"></trkpt>
      <trkpt lat="-12.4433033" lon="130.9126560"></trkpt>
      <trkpt lat="-12.4432714" lon="130.9126643"></trkpt>
      <trkpt lat="-12.4432556" lon="130.9126719"></trkpt>
      <trkpt lat="-12.4432411" lon="130.9126815"></trkpt>
      <trkpt lat="-12.4432284" lon="130.9126926"></trkpt>
      <trkpt lat="-12.4432175" lon="130.9127057"></trkpt>
      <trkpt lat="-12.4432082" lon="130.9127203"></trkpt>
      <trkpt lat="-12.4432012" lon="130.9127347"></trkpt>
      <trkpt lat="-12.4431962" lon="130.9127511"></trkpt>
      <trkpt lat="-12.4431941" lon="130.9127674"></trkpt>
      <trkpt lat="-12.4431939" lon="130.9127841"></trkpt>
      <trkpt lat="-12.4431966" lon="130.9128015"></trkpt>
      <trkpt lat="-12.4432016" lon="130.9128175"></trkpt>
      <trkpt lat="-12.4432090" lon="130.9128342"></trkpt>
      <trkpt lat="-12.4432183" lon="130.9128497"></trkpt>
      <trkpt lat="-12.4432382" lon="130.9128706"></trkpt>
      <trkpt lat="-12.4432595" lon="130.9128875"></trkpt>
      <trkpt lat="-12.4432723" lon="130.9128958"></trkpt>
      <trkpt lat="-12.4432850" lon="130.9129020"></trkpt>
      <trkpt lat="-12.4432988" lon="130.9129068"></trkpt>
      <trkpt lat="-12.4433150" lon="130.9129103"></trkpt>
      <trkpt lat="-12.4433991" lon="130.9129153"></trkpt>
      <trkpt lat="-12.4435812" lon="130.9129106"></trkpt>
      <trkpt lat="-12.4438975" lon="130.9128873"></trkpt>
      <trkpt lat="-12.4439353" lon="130.9128781"></trkpt>
      <trkpt lat="-12.4439645" lon="130.9128668"></trkpt>
      <trkpt lat="-12.4439885" lon="130.9128544"></trkpt>
      <trkpt lat="-12.4440092" lon="130.9128411"></trkpt>
      <trkpt lat="-12.4440347" lon="130.9128205"></trkpt>
      <trkpt lat="-12.4440897" lon="130.9127575"></trkpt>
      <trkpt lat="-12.4441510" lon="130.9126915"></trkpt>
      <trkpt lat="-12.4441799" lon="130.9126704"></trkpt>
      <trkpt lat="-12.4442077" lon="130.9126569"></trkpt>
      <trkpt lat="-12.4442256" lon="130.9126516"></trkpt>
      <trkpt lat="-12.4442438" lon="130.9126488"></trkpt>
      <trkpt lat="-12.4442618" lon="130.9126485"></trkpt>
      <trkpt lat="-12.4442797" lon="130.9126510"></trkpt>
      <trkpt lat="-12.4442975" lon="130.9126561"></trkpt>
      <trkpt lat="-12.4443146" lon="130.9126635"></trkpt>
      <trkpt lat="-12.4443399" lon="130.9126802"></trkpt>
      <trkpt lat="-12.4443644" lon="130.9127028"></trkpt>
      <trkpt lat="-12.4444002" lon="130.9127483"></trkpt>
      <trkpt lat="-12.4444319" lon="130.9127905"></trkpt>
      <trkpt lat="-12.4444526" lon="130.9128094"></trkpt>
      <trkpt lat="-12.4444630" lon="130.9128170"></trkpt>
      <trkpt lat="-12.4444748" lon="130.9128240"></trkpt>
      <trkpt lat="-12.4444970" lon="130.9128342"></trkpt>
      <trkpt lat="-12.4445217" lon="130.9128424"></trkpt>
      <trkpt lat="-12.4445461" lon="130.9128459"></trkpt>
      <trkpt lat="-12.4445686" lon="130.9128464"></trkpt>
      <trkpt lat="-12.4445806" lon="130.9128452"></trkpt>
      <trkpt lat="-12.4445915" lon="130.9128429"></trkpt>
      <trkpt lat="-12.4446138" lon="130.9128353"></trkpt>
      <trkpt lat="-12.4446348" lon="130.9128241"></trkpt>
      <trkpt lat="-12.4446545" lon="130.9128093"></trkpt>
      <trkpt lat="-12.4446634" lon="130.9128012"></trkpt>
      <trkpt lat="-12.4446722" lon="130.9127914"></trkpt>
      <trkpt lat="-12.4446870" lon="130.9127706"></trkpt>
      <trkpt lat="-12.4447011" lon="130.9127461"></trkpt>
      <trkpt lat="-12.4447123" lon="130.9127199"></trkpt>
      <trkpt lat="-12.4447217" lon="130.9126905"></trkpt>
      <trkpt lat="-12.4447413" lon="130.9125934"></trkpt>
      <trkpt lat="-12.4448463" lon="130.9115514"></trkpt>
      <trkpt lat="-12.4448462" lon="130.9115309"></trkpt>
      <trkpt lat="-12.4448442" lon="130.9115157"></trkpt>
      <trkpt lat="-12.4448382" lon="130.9114898"></trkpt>
      <trkpt lat="-12.4448291" lon="130.9114634"></trkpt>
      <trkpt lat="-12.4448181" lon="130.9114395"></trkpt>
      <trkpt lat="-12.4448039" lon="130.9114171"></trkpt>
      <trkpt lat="-12.4447833" lon="130.9113941"></trkpt>
      <trkpt lat="-12.4447609" lon="130.9113757"></trkpt>
      <trkpt lat="-12.4447505" lon="130.9113700"></trkpt>
      <trkpt lat="-12.4447403" lon="130.9113660"></trkpt>
      <trkpt lat="-12.4447298" lon="130.9113633"></trkpt>
      <trkpt lat="-12.4447192" lon="130.9113615"></trkpt>
      <trkpt lat="-12.4447083" lon="130.9113610"></trkpt>
      <trkpt lat="-12.4446969" lon="130.9113620"></trkpt>
      <trkpt lat="-12.4446809" lon="130.9113660"></trkpt>
      <trkpt lat="-12.4446639" lon="130.9113726"></trkpt>
      <trkpt lat="-12.4446482" lon="130.9113807"></trkpt>
      <trkpt lat="-12.4446291" lon="130.9113946"></trkpt>
      <trkpt lat="-12.4446120" lon="130.9114113"></trkpt>
      <trkpt lat="-12.4445956" lon="130.9114313"></trkpt>
      <trkpt lat="-12.4445813" lon="130.9114538"></trkpt>
      <trkpt lat="-12.4445687" lon="130.9114807"></trkpt>
      <trkpt lat="-12.4445589" lon="130.9115085"></trkpt>
      <trkpt lat="-12.4445495" lon="130.9115562"></trkpt>
      <trkpt lat="-12.4445467" lon="130.9116079"></trkpt>
      <trkpt lat="-12.4445673" lon="130.9118423"></trkpt>
      <trkpt lat="-12.4445845" lon="130.9120868"></trkpt>
      <trkpt lat="-12.4445806" lon="130.9121314"></trkpt>
      <trkpt lat="-12.4445720" lon="130.9121664"></trkpt>
      <trkpt lat="-12.4445577" lon="130.9122025"></trkpt>
      <trkpt lat="-12.4445400" lon="130.9122343"></trkpt>
      <trkpt lat="-12.4445248" lon="130.9122541"></trkpt>
      <trkpt lat="-12.4445092" lon="130.9122700"></trkpt>
      <trkpt lat="-12.4444855" lon="130.9122882"></trkpt>
      <trkpt lat="-12.4444734" lon="130.9122962"></trkpt>
      <trkpt lat="-12.4444588" lon="130.9123034"></trkpt>
      <trkpt lat="-12.4444170" lon="130.9123153"></trkpt>
      <trkpt lat="-12.4443753" lon="130.9123232"></trkpt>
      <trkpt lat="-12.4443512" lon="130.9123238"></trkpt>
      <trkpt lat="-12.4443004" lon="130.9123188"></trkpt>
      <trkpt lat="-12.4441953" lon="130.9122905"></trkpt>
      <trkpt lat="-12.4441436" lon="130.9122657"></trkpt>
      <trkpt lat="-12.4439414" lon="130.9121280"></trkpt>
    </trkseg>
  </trk>
</gpx>
