<?xml version="1.0" encoding="UTF-8"?>
<gpx version="1.1" creator="tkk2gpx (Aus_Kart.ztracks converter)"
     xmlns="http://www.topografix.com/GPX/1/1"
     xmlns:xsi="http://www.w3.org/2001/XMLSchema-instance"
     xsi:schemaLocation="http://www.topografix.com/GPX/1/1 http://www.topografix.com/GPX/1/1/gpx.xsd">
  <metadata>
    <name>DarwinK Var3</name>
    <desc>Kart track, NT AU. One lap starting and ending at the Start/Finish line. Declared length 1001 m.</desc>
  </metadata>
  <wpt lat="-12.4440175" lon="130.9120843">
    <name>Start/Finish</name>
    <desc>Start/Finish line location</desc>
    <sym>Flag, Checkered</sym>
  </wpt>
  <trk>
    <name>DarwinK Var3 - 1 lap</name>
    <trkseg>
      <trkpt lat="-12.4440322" lon="130.9120832"></trkpt>
      <trkpt lat="-12.4440018" lon="130.9120898"></trkpt>
      <trkpt lat="-12.4439599" lon="130.9120918"></trkpt>
      <trkpt lat="-12.4439162" lon="130.9120869"></trkpt>
      <trkpt lat="-12.4438752" lon="130.9120744"></trkpt>
      <trkpt lat="-12.4438680" lon="130.9120709"></trkpt>
      <trkpt lat="-12.4438315" lon="130.9120533"></trkpt>
      <trkpt lat="-12.4437854" lon="130.9120217"></trkpt>
      <trkpt lat="-12.4437314" lon="130.9119844"></trkpt>
      <trkpt lat="-12.4435758" lon="130.9118980"></trkpt>
      <trkpt lat="-12.4435385" lon="130.9118913"></trkpt>
      <trkpt lat="-12.4435080" lon="130.9118897"></trkpt>
      <trkpt lat="-12.4434792" lon="130.9118904"></trkpt>
      <trkpt lat="-12.4434562" lon="130.9118950"></trkpt>
      <trkpt lat="-12.4434248" lon="130.9119055"></trkpt>
      <trkpt lat="-12.4433940" lon="130.9119208"></trkpt>
      <trkpt lat="-12.4433674" lon="130.9119406"></trkpt>
      <trkpt lat="-12.4433441" lon="130.9119644"></trkpt>
      <trkpt lat="-12.4433242" lon="130.9119920"></trkpt>
      <trkpt lat="-12.4433082" lon="130.9120223"></trkpt>
      <trkpt lat="-12.4432964" lon="130.9120562"></trkpt>
      <trkpt lat="-12.4432904" lon="130.9120845"></trkpt>
      <trkpt lat="-12.4432869" lon="130.9121140"></trkpt>
      <trkpt lat="-12.4432876" lon="130.9121385"></trkpt>
      <trkpt lat="-12.4432902" lon="130.9121605"></trkpt>
      <trkpt lat="-12.4432957" lon="130.9121846"></trkpt>
      <trkpt lat="-12.4433087" lon="130.9122190"></trkpt>
      <trkpt lat="-12.4433234" lon="130.9122470"></trkpt>
      <trkpt lat="-12.4433393" lon="130.9122726"></trkpt>
      <trkpt lat="-12.4433558" lon="130.9122913"></trkpt>
      <trkpt lat="-12.4433816" lon="130.9123144"></trkpt>
      <trkpt lat="-12.4434146" lon="130.9123380"></trkpt>
      <trkpt lat="-12.4435736" lon="130.9124216"></trkpt>
      <trkpt lat="-12.4436118" lon="130.9124514"></trkpt>
      <trkpt lat="-12.4436412" lon="130.9124817"></trkpt>
      <trkpt lat="-12.4436507" lon="130.9124934"></trkpt>
      <trkpt lat="-12.4436591" lon="130.9125067"></trkpt>
      <trkpt lat="-12.4436678" lon="130.9125250"></trkpt>
      <trkpt lat="-12.4436760" lon="130.9125465"></trkpt>
      <trkpt lat="-12.4436809" lon="130.9125676"></trkpt>
      <trkpt lat="-12.4436817" lon="130.9125848"></trkpt>
      <trkpt lat="-12.4436799" lon="130.9126016"></trkpt>
      <trkpt lat="-12.4436758" lon="130.9126175"></trkpt>
      <trkpt lat="-12.4436692" lon="130.9126322"></trkpt>
      <trkpt lat="-12.4436603" lon="130.9126460"></trkpt>
      <trkpt lat="-12.4436497" lon="130.9126582"></trkpt>
      <trkpt lat="-12.4436365" lon="130.9126689"></trkpt>
      <trkpt lat="-12.4436216" lon="130.9126779"></trkpt>
      <trkpt lat="-12.4436085" lon="130.9126845"></trkpt>
      <trkpt lat="-12.4436002" lon="130.9126876"></trkpt>
      <trkpt lat="-12.4435918" lon="130.9126895"></trkpt>
      <trkpt lat="-12.4435760" lon="130.9126918"></trkpt>
      <trkpt lat="-12.4435583" lon="130.9126929"></trkpt>
      <trkpt lat="-12.4435190" lon="130.9126903"></trkpt>
      <trkpt lat="-12.4434381" lon="130.9126704"></trkpt>
      <trkpt lat="-12.4433591" lon="130.9126515"></trkpt>
      <trkpt lat="-12.4433424" lon="130.9126501"></trkpt>
      <trkpt lat="-12.4433275" lon="130.9126512"></trkpt>
      <trkpt lat="-12.4432969" lon="130.9126574"></trkpt>
      <trkpt lat="-12.4432659" lon="130.9126687"></trkpt>
      <trkpt lat="-12.4432504" lon="130.9126785"></trkpt>
      <trkpt lat="-12.4432365" lon="130.9126901"></trkpt>
      <trkpt lat="-12.4432248" lon="130.9127020"></trkpt>
      <trkpt lat="-12.4432144" lon="130.9127158"></trkpt>
      <trkpt lat="-12.4432069" lon="130.9127302"></trkpt>
      <trkpt lat="-12.4432031" lon="130.9127402"></trkpt>
      <trkpt lat="-12.4432005" lon="130.9127506"></trkpt>
      <trkpt lat="-12.4431992" lon="130.9127617"></trkpt>
      <trkpt lat="-12.4431996" lon="130.9127770"></trkpt>
      <trkpt lat="-12.4432020" lon="130.9127934"></trkpt>
      <trkpt lat="-12.4432068" lon="130.9128090"></trkpt>
      <trkpt lat="-12.4432154" lon="130.9128242"></trkpt>
      <trkpt lat="-12.4432266" lon="130.9128386"></trkpt>
      <trkpt lat="-12.4432376" lon="130.9128506"></trkpt>
      <trkpt lat="-12.4432483" lon="130.9128599"></trkpt>
      <trkpt lat="-12.4432592" lon="130.9128674"></trkpt>
      <trkpt lat="-12.4432846" lon="130.9128812"></trkpt>
      <trkpt lat="-12.4433197" lon="130.9128942"></trkpt>
      <trkpt lat="-12.4433593" lon="130.9129031"></trkpt>
      <trkpt lat="-12.4434138" lon="130.9129067"></trkpt>
      <trkpt lat="-12.4438393" lon="130.9128949"></trkpt>
      <trkpt lat="-12.4438967" lon="130.9128849"></trkpt>
      <trkpt lat="-12.4439439" lon="130.9128709"></trkpt>
      <trkpt lat="-12.4439816" lon="130.9128550"></trkpt>
      <trkpt lat="-12.4440156" lon="130.9128351"></trkpt>
      <trkpt lat="-12.4440459" lon="130.9128103"></trkpt>
      <trkpt lat="-12.4440759" lon="130.9127807"></trkpt>
      <trkpt lat="-12.4441191" lon="130.9127307"></trkpt>
      <trkpt lat="-12.4441673" lon="130.9126818"></trkpt>
      <trkpt lat="-12.4441870" lon="130.9126687"></trkpt>
      <trkpt lat="-12.4442062" lon="130.9126592"></trkpt>
      <trkpt lat="-12.4442260" lon="130.9126526"></trkpt>
      <trkpt lat="-12.4442468" lon="130.9126486"></trkpt>
      <trkpt lat="-12.4442680" lon="130.9126472"></trkpt>
      <trkpt lat="-12.4442879" lon="130.9126484"></trkpt>
      <trkpt lat="-12.4443035" lon="130.9126517"></trkpt>
      <trkpt lat="-12.4443180" lon="130.9126570"></trkpt>
      <trkpt lat="-12.4443309" lon="130.9126633"></trkpt>
      <trkpt lat="-12.4443429" lon="130.9126715"></trkpt>
      <trkpt lat="-12.4443550" lon="130.9126830"></trkpt>
      <trkpt lat="-12.4443953" lon="130.9127314"></trkpt>
      <trkpt lat="-12.4444368" lon="130.9127806"></trkpt>
      <trkpt lat="-12.4444525" lon="130.9127940"></trkpt>
      <trkpt lat="-12.4444672" lon="130.9128039"></trkpt>
      <trkpt lat="-12.4444984" lon="130.9128208"></trkpt>
      <trkpt lat="-12.4445102" lon="130.9128257"></trkpt>
      <trkpt lat="-12.4445232" lon="130.9128292"></trkpt>
      <trkpt lat="-12.4445408" lon="130.9128316"></trkpt>
      <trkpt lat="-12.4445612" lon="130.9128325"></trkpt>
      <trkpt lat="-12.4445806" lon="130.9128309"></trkpt>
      <trkpt lat="-12.4446055" lon="130.9128227"></trkpt>
      <trkpt lat="-12.4446260" lon="130.9128122"></trkpt>
      <trkpt lat="-12.4446334" lon="130.9128073"></trkpt>
      <trkpt lat="-12.4446399" lon="130.9128016"></trkpt>
      <trkpt lat="-12.4446639" lon="130.9127759"></trkpt>
      <trkpt lat="-12.4446854" lon="130.9127439"></trkpt>
      <trkpt lat="-12.4447059" lon="130.9127004"></trkpt>
      <trkpt lat="-12.4447225" lon="130.9126488"></trkpt>
      <trkpt lat="-12.4447515" lon="130.9124648"></trkpt>
      <trkpt lat="-12.4448357" lon="130.9115819"></trkpt>
      <trkpt lat="-12.4448336" lon="130.9115326"></trkpt>
      <trkpt lat="-12.4448264" lon="130.9114963"></trkpt>
      <trkpt lat="-12.4448213" lon="130.9114789"></trkpt>
      <trkpt lat="-12.4448141" lon="130.9114613"></trkpt>
      <trkpt lat="-12.4448008" lon="130.9114366"></trkpt>
      <trkpt lat="-12.4447837" lon="130.9114129"></trkpt>
      <trkpt lat="-12.4447702" lon="130.9113993"></trkpt>
      <trkpt lat="-12.4447551" lon="130.9113871"></trkpt>
      <trkpt lat="-12.4447395" lon="130.9113777"></trkpt>
      <trkpt lat="-12.4447253" lon="130.9113722"></trkpt>
      <trkpt lat="-12.4447108" lon="130.9113689"></trkpt>
      <trkpt lat="-12.4446971" lon="130.9113673"></trkpt>
      <trkpt lat="-12.4446821" lon="130.9113677"></trkpt>
      <trkpt lat="-12.4446675" lon="130.9113707"></trkpt>
      <trkpt lat="-12.4446486" lon="130.9113780"></trkpt>
      <trkpt lat="-12.4446300" lon="130.9113884"></trkpt>
      <trkpt lat="-12.4446125" lon="130.9114018"></trkpt>
      <trkpt lat="-12.4445967" lon="130.9114177"></trkpt>
      <trkpt lat="-12.4445823" lon="130.9114369"></trkpt>
      <trkpt lat="-12.4445703" lon="130.9114574"></trkpt>
      <trkpt lat="-12.4445624" lon="130.9114752"></trkpt>
      <trkpt lat="-12.4445562" lon="130.9114934"></trkpt>
      <trkpt lat="-12.4445470" lon="130.9115337"></trkpt>
      <trkpt lat="-12.4445416" lon="130.9115840"></trkpt>
      <trkpt lat="-12.4445415" lon="130.9116461"></trkpt>
      <trkpt lat="-12.4445814" lon="130.9120609"></trkpt>
      <trkpt lat="-12.4445805" lon="130.9120940"></trkpt>
      <trkpt lat="-12.4445767" lon="130.9121209"></trkpt>
      <trkpt lat="-12.4445681" lon="130.9121595"></trkpt>
      <trkpt lat="-12.4445574" lon="130.9121934"></trkpt>
      <trkpt lat="-12.4445522" lon="130.9122052"></trkpt>
      <trkpt lat="-12.4445453" lon="130.9122157"></trkpt>
      <trkpt lat="-12.4445326" lon="130.9122305"></trkpt>
      <trkpt lat="-12.4445164" lon="130.9122464"></trkpt>
      <trkpt lat="-12.4444995" lon="130.9122592"></trkpt>
      <trkpt lat="-12.4444855" lon="130.9122664"></trkpt>
      <trkpt lat="-12.4444711" lon="130.9122713"></trkpt>
      <trkpt lat="-12.4444565" lon="130.9122741"></trkpt>
      <trkpt lat="-12.4444417" lon="130.9122747"></trkpt>
      <trkpt lat="-12.4444267" lon="130.9122732"></trkpt>
      <trkpt lat="-12.4444124" lon="130.9122695"></trkpt>
      <trkpt lat="-12.4443987" lon="130.9122632"></trkpt>
      <trkpt lat="-12.4443858" lon="130.9122546"></trkpt>
      <trkpt lat="-12.4443740" lon="130.9122442"></trkpt>
      <trkpt lat="-12.4443626" lon="130.9122304"></trkpt>
      <trkpt lat="-12.4443526" lon="130.9122143"></trkpt>
      <trkpt lat="-12.4443444" lon="130.9121979"></trkpt>
      <trkpt lat="-12.4443363" lon="130.9121747"></trkpt>
      <trkpt lat="-12.4443316" lon="130.9121511"></trkpt>
      <trkpt lat="-12.4443301" lon="130.9121282"></trkpt>
      <trkpt lat="-12.4443307" lon="130.9121049"></trkpt>
      <trkpt lat="-12.4443360" lon="130.9120516"></trkpt>
      <trkpt lat="-12.4443685" lon="130.9118492"></trkpt>
      <trkpt lat="-12.4443686" lon="130.9117966"></trkpt>
      <trkpt lat="-12.4443633" lon="130.9117503"></trkpt>
      <trkpt lat="-12.4443547" lon="130.9117130"></trkpt>
      <trkpt lat="-12.4443415" lon="130.9116769"></trkpt>
      <trkpt lat="-12.4443186" lon="130.9116314"></trkpt>
      <trkpt lat="-12.4442897" lon="130.9115869"></trkpt>
      <trkpt lat="-12.4442569" lon="130.9115469"></trkpt>
      <trkpt lat="-12.4442179" lon="130.9115083"></trkpt>
      <trkpt lat="-12.4440870" lon="130.9114079"></trkpt>
      <trkpt lat="-12.4438951" lon="130.9112991"></trkpt>
      <trkpt lat="-12.4438490" lon="130.9112800"></trkpt>
      <trkpt lat="-12.4438123" lon="130.9112697"></trkpt>
      <trkpt lat="-12.4437774" lon="130.9112627"></trkpt>
      <trkpt lat="-12.4437482" lon="130.9112618"></trkpt>
      <trkpt lat="-12.4437349" lon="130.9112626"></trkpt>
      <trkpt lat="-12.4437209" lon="130.9112649"></trkpt>
      <trkpt lat="-12.4436976" lon="130.9112721"></trkpt>
      <trkpt lat="-12.4436738" lon="130.9112825"></trkpt>
      <trkpt lat="-12.4436540" lon="130.9112944"></trkpt>
      <trkpt lat="-12.4436366" lon="130.9113091"></trkpt>
      <trkpt lat="-12.4436263" lon="130.9113212"></trkpt>
      <trkpt lat="-12.4436173" lon="130.9113348"></trkpt>
      <trkpt lat="-12.4436101" lon="130.9113494"></trkpt>
      <trkpt lat="-12.4436048" lon="130.9113656"></trkpt>
      <trkpt lat="-12.4436015" lon="130.9113828"></trkpt>
      <trkpt lat="-12.4436003" lon="130.9114001"></trkpt>
      <trkpt lat="-12.4436035" lon="130.9114280"></trkpt>
      <trkpt lat="-12.4436102" lon="130.9114534"></trkpt>
      <trkpt lat="-12.4436160" lon="130.9114670"></trkpt>
      <trkpt lat="-12.4436228" lon="130.9114791"></trkpt>
      <trkpt lat="-12.4436403" lon="130.9115039"></trkpt>
      <trkpt lat="-12.4436689" lon="130.9115343"></trkpt>
      <trkpt lat="-12.4437029" lon="130.9115624"></trkpt>
      <trkpt lat="-12.4437389" lon="130.9115853"></trkpt>
      <trkpt lat="-12.4437816" lon="130.9116063"></trkpt>
      <trkpt lat="-12.4439710" lon="130.9116745"></trkpt>
      <trkpt lat="-12.4440186" lon="130.9117017"></trkpt>
      <trkpt lat="-12.4440583" lon="130.9117323"></trkpt>
      <trkpt lat="-12.4440933" lon="130.9117688"></trkpt>
      <trkpt lat="-12.4441216" lon="130.9118076"></trkpt>
      <trkpt lat="-12.4441305" lon="130.9118223"></trkpt>
      <trkpt lat="-12.4441382" lon="130.9118383"></trkpt>
      <trkpt lat="-12.4441487" lon="130.9118682"></trkpt>
      <trkpt lat="-12.4441560" lon="130.9119003"></trkpt>
      <trkpt lat="-12.4441575" lon="130.9119259"></trkpt>
      <trkpt lat="-12.4441547" lon="130.9119511"></trkpt>
      <trkpt lat="-12.4441498" lon="130.9119699"></trkpt>
      <trkpt lat="-12.4441426" lon="130.9119887"></trkpt>
      <trkpt lat="-12.4441330" lon="130.9120066"></trkpt>
      <trkpt lat="-12.4441102" lon="130.9120344"></trkpt>
      <trkpt lat="-12.4440855" lon="130.9120569"></trkpt>
      <trkpt lat="-12.4440726" lon="130.9120656"></trkpt>
      <trkpt lat="-12.4440599" lon="130.9120721"></trkpt>
      <trkpt lat="-12.4440322" lon="130.9120832"></trkpt>
    </trkseg>
  </trk>
</gpx>
