<?xml version="1.0" encoding="UTF-8"?>
<gpx version="1.1" creator="tkk2gpx (Aus_Kart.ztracks converter)"
     xmlns="http://www.topografix.com/GPX/1/1"
     xmlns:xsi="http://www.w3.org/2001/XMLSchema-instance"
     xsi:schemaLocation="http://www.topografix.com/GPX/1/1 http://www.topografix.com/GPX/1/1/gpx.xsd">
  <metadata>
    <name>DarwinK Var1</name>
    <desc>Kart track, NT AU. One lap starting and ending at the Start/Finish line. Declared length 861 m.</desc>
  </metadata>
  <wpt lat="-12.4440151" lon="130.9120932">
    <name>Start/Finish</name>
    <desc>Start/Finish line location</desc>
    <sym>Flag, Checkered</sym>
  </wpt>
  <trk>
    <name>DarwinK Var1 - 1 lap</name>
    <trkseg>
      <trkpt lat="-12.4440102" lon="130.9120880"></trkpt>
      <trkpt lat="-12.4439742" lon="130.9120914"></trkpt>
      <trkpt lat="-12.4439376" lon="130.9120902"></trkpt>
      <trkpt lat="-12.4439124" lon="130.9120859"></trkpt>
      <trkpt lat="-12.4438888" lon="130.9120791"></trkpt>
      <trkpt lat="-12.4438695" lon="130.9120710"></trkpt>
      <trkpt lat="-12.4438419" lon="130.9120594"></trkpt>
      <trkpt lat="-12.4437910" lon="130.9120272"></trkpt>
      <trkpt lat="-12.4437291" lon="130.9119889"></trkpt>
      <trkpt lat="-12.4435827" lon="130.9119050"></trkpt>
      <trkpt lat="-12.4435117" lon="130.9118929"></trkpt>
      <trkpt lat="-12.4434760" lon="130.9118948"></trkpt>
      <trkpt lat="-12.4434426" lon="130.9119009"></trkpt>
      <trkpt lat="-12.4434205" lon="130.9119081"></trkpt>
      <trkpt lat="-12.4433998" lon="130.9119178"></trkpt>
      <trkpt lat="-12.4433746" lon="130.9119329"></trkpt>
      <trkpt lat="-12.4433521" lon="130.9119494"></trkpt>
      <trkpt lat="-12.4433412" lon="130.9119592"></trkpt>
      <trkpt lat="-12.4433315" lon="130.9119702"></trkpt>
      <trkpt lat="-12.4433166" lon="130.9119902"></trkpt>
      <trkpt lat="-12.4433025" lon="130.9120142"></trkpt>
      <trkpt lat="-12.4432887" lon="130.9120475"></trkpt>
      <trkpt lat="-12.4432788" lon="130.9120816"></trkpt>
      <trkpt lat="-12.4432752" lon="130.9121050"></trkpt>
      <trkpt lat="-12.4432751" lon="130.9121287"></trkpt>
      <trkpt lat="-12.4432804" lon="130.9121649"></trkpt>
      <trkpt lat="-12.4432897" lon="130.9122008"></trkpt>
      <trkpt lat="-12.4432989" lon="130.9122250"></trkpt>
      <trkpt lat="-12.4433102" lon="130.9122471"></trkpt>
      <trkpt lat="-12.4433252" lon="130.9122695"></trkpt>
      <trkpt lat="-12.4433408" lon="130.9122890"></trkpt>
      <trkpt lat="-12.4433593" lon="130.9123076"></trkpt>
      <trkpt lat="-12.4434000" lon="130.9123395"></trkpt>
      <trkpt lat="-12.4434442" lon="130.9123663"></trkpt>
      <trkpt lat="-12.4435799" lon="130.9124393"></trkpt>
      <trkpt lat="-12.4436097" lon="130.9124640"></trkpt>
      <trkpt lat="-12.4436322" lon="130.9124890"></trkpt>
      <trkpt lat="-12.4436456" lon="130.9125094"></trkpt>
      <trkpt lat="-12.4436553" lon="130.9125310"></trkpt>
      <trkpt lat="-12.4436609" lon="130.9125484"></trkpt>
      <trkpt lat="-12.4436650" lon="130.9125669"></trkpt>
      <trkpt lat="-12.4436665" lon="130.9125853"></trkpt>
      <trkpt lat="-12.4436650" lon="130.9126035"></trkpt>
      <trkpt lat="-12.4436611" lon="130.9126215"></trkpt>
      <trkpt lat="-12.4436556" lon="130.9126377"></trkpt>
      <trkpt lat="-12.4436502" lon="130.9126490"></trkpt>
      <trkpt lat="-12.4436436" lon="130.9126590"></trkpt>
      <trkpt lat="-12.4436354" lon="130.9126684"></trkpt>
      <trkpt lat="-12.4436227" lon="130.9126796"></trkpt>
      <trkpt lat="-12.4436077" lon="130.9126898"></trkpt>
      <trkpt lat="-12.4435916" lon="130.9126976"></trkpt>
      <trkpt lat="-12.4435732" lon="130.9127024"></trkpt>
      <trkpt lat="-12.4435536" lon="130.9127046"></trkpt>
      <trkpt lat="-12.4435363" lon="130.9127051"></trkpt>
      <trkpt lat="-12.4435240" lon="130.9127042"></trkpt>
      <trkpt lat="-12.4435100" lon="130.9127014"></trkpt>
      <trkpt lat="-12.4434184" lon="130.9126750"></trkpt>
      <trkpt lat="-12.4433209" lon="130.9126521"></trkpt>
      <trkpt lat="-12.4433027" lon="130.9126524"></trkpt>
      <trkpt lat="-12.4432878" lon="130.9126550"></trkpt>
      <trkpt lat="-12.4432737" lon="130.9126595"></trkpt>
      <trkpt lat="-12.4432592" lon="130.9126659"></trkpt>
      <trkpt lat="-12.4432454" lon="130.9126742"></trkpt>
      <trkpt lat="-12.4432330" lon="130.9126840"></trkpt>
      <trkpt lat="-12.4432222" lon="130.9126952"></trkpt>
      <trkpt lat="-12.4432127" lon="130.9127078"></trkpt>
      <trkpt lat="-12.4432050" lon="130.9127214"></trkpt>
      <trkpt lat="-12.4431992" lon="130.9127360"></trkpt>
      <trkpt lat="-12.4431952" lon="130.9127515"></trkpt>
      <trkpt lat="-12.4431933" lon="130.9127671"></trkpt>
      <trkpt lat="-12.4431936" lon="130.9127830"></trkpt>
      <trkpt lat="-12.4431959" lon="130.9127991"></trkpt>
      <trkpt lat="-12.4431999" lon="130.9128139"></trkpt>
      <trkpt lat="-12.4432045" lon="130.9128253"></trkpt>
      <trkpt lat="-12.4432104" lon="130.9128358"></trkpt>
      <trkpt lat="-12.4432179" lon="130.9128461"></trkpt>
      <trkpt lat="-12.4432382" lon="130.9128668"></trkpt>
      <trkpt lat="-12.4432597" lon="130.9128839"></trkpt>
      <trkpt lat="-12.4432698" lon="130.9128897"></trkpt>
      <trkpt lat="-12.4432801" lon="130.9128939"></trkpt>
      <trkpt lat="-12.4433147" lon="130.9129048"></trkpt>
      <trkpt lat="-12.4433591" lon="130.9129148"></trkpt>
      <trkpt lat="-12.4434258" lon="130.9129223"></trkpt>
      <trkpt lat="-12.4434760" lon="130.9129233"></trkpt>
      <trkpt lat="-12.4438314" lon="130.9129179"></trkpt>
      <trkpt lat="-12.4438786" lon="130.9129112"></trkpt>
      <trkpt lat="-12.4439240" lon="130.9128988"></trkpt>
      <trkpt lat="-12.4439667" lon="130.9128804"></trkpt>
      <trkpt lat="-12.4439924" lon="130.9128651"></trkpt>
      <trkpt lat="-12.4440172" lon="130.9128469"></trkpt>
      <trkpt lat="-12.4440587" lon="130.9128044"></trkpt>
      <trkpt lat="-12.4440941" lon="130.9127593"></trkpt>
      <trkpt lat="-12.4441207" lon="130.9127298"></trkpt>
      <trkpt lat="-12.4441493" lon="130.9127031"></trkpt>
      <trkpt lat="-12.4441720" lon="130.9126878"></trkpt>
      <trkpt lat="-12.4441951" lon="130.9126766"></trkpt>
      <trkpt lat="-12.4442172" lon="130.9126694"></trkpt>
      <trkpt lat="-12.4442400" lon="130.9126661"></trkpt>
      <trkpt lat="-12.4442577" lon="130.9126665"></trkpt>
      <trkpt lat="-12.4442760" lon="130.9126692"></trkpt>
      <trkpt lat="-12.4442937" lon="130.9126743"></trkpt>
      <trkpt lat="-12.4443209" lon="130.9126887"></trkpt>
      <trkpt lat="-12.4443437" lon="130.9127055"></trkpt>
      <trkpt lat="-12.4443606" lon="130.9127233"></trkpt>
      <trkpt lat="-12.4444251" lon="130.9128040"></trkpt>
      <trkpt lat="-12.4444444" lon="130.9128220"></trkpt>
      <trkpt lat="-12.4444638" lon="130.9128359"></trkpt>
      <trkpt lat="-12.4444863" lon="130.9128469"></trkpt>
      <trkpt lat="-12.4445080" lon="130.9128544"></trkpt>
      <trkpt lat="-12.4445198" lon="130.9128571"></trkpt>
      <trkpt lat="-12.4445318" lon="130.9128581"></trkpt>
      <trkpt lat="-12.4445557" lon="130.9128575"></trkpt>
      <trkpt lat="-12.4445793" lon="130.9128545"></trkpt>
      <trkpt lat="-12.4445913" lon="130.9128512"></trkpt>
      <trkpt lat="-12.4446021" lon="130.9128468"></trkpt>
      <trkpt lat="-12.4446139" lon="130.9128407"></trkpt>
      <trkpt lat="-12.4446261" lon="130.9128326"></trkpt>
      <trkpt lat="-12.4446470" lon="130.9128146"></trkpt>
      <trkpt lat="-12.4446662" lon="130.9127948"></trkpt>
      <trkpt lat="-12.4446744" lon="130.9127842"></trkpt>
      <trkpt lat="-12.4446813" lon="130.9127727"></trkpt>
      <trkpt lat="-12.4447021" lon="130.9127210"></trkpt>
      <trkpt lat="-12.4447166" lon="130.9126661"></trkpt>
      <trkpt lat="-12.4447484" lon="130.9124056"></trkpt>
      <trkpt lat="-12.4448361" lon="130.9116060"></trkpt>
      <trkpt lat="-12.4448369" lon="130.9115497"></trkpt>
      <trkpt lat="-12.4448333" lon="130.9115236"></trkpt>
      <trkpt lat="-12.4448269" lon="130.9114986"></trkpt>
      <trkpt lat="-12.4448176" lon="130.9114751"></trkpt>
      <trkpt lat="-12.4448055" lon="130.9114534"></trkpt>
      <trkpt lat="-12.4447896" lon="130.9114336"></trkpt>
      <trkpt lat="-12.4447730" lon="130.9114173"></trkpt>
      <trkpt lat="-12.4447637" lon="130.9114097"></trkpt>
      <trkpt lat="-12.4447538" lon="130.9114035"></trkpt>
      <trkpt lat="-12.4447355" lon="130.9113946"></trkpt>
      <trkpt lat="-12.4447152" lon="130.9113876"></trkpt>
      <trkpt lat="-12.4446968" lon="130.9113842"></trkpt>
      <trkpt lat="-12.4446786" lon="130.9113837"></trkpt>
      <trkpt lat="-12.4446614" lon="130.9113863"></trkpt>
      <trkpt lat="-12.4446449" lon="130.9113916"></trkpt>
      <trkpt lat="-12.4446299" lon="130.9113994"></trkpt>
      <trkpt lat="-12.4446163" lon="130.9114094"></trkpt>
      <trkpt lat="-12.4446049" lon="130.9114206"></trkpt>
      <trkpt lat="-12.4445940" lon="130.9114355"></trkpt>
      <trkpt lat="-12.4445731" lon="130.9114849"></trkpt>
      <trkpt lat="-12.4445496" lon="130.9115363"></trkpt>
      <trkpt lat="-12.4445361" lon="130.9115524"></trkpt>
      <trkpt lat="-12.4445218" lon="130.9115653"></trkpt>
      <trkpt lat="-12.4445082" lon="130.9115754"></trkpt>
      <trkpt lat="-12.4444960" lon="130.9115826"></trkpt>
      <trkpt lat="-12.4444828" lon="130.9115879"></trkpt>
      <trkpt lat="-12.4444580" lon="130.9115955"></trkpt>
      <trkpt lat="-12.4444291" lon="130.9116004"></trkpt>
      <trkpt lat="-12.4443898" lon="130.9115997"></trkpt>
      <trkpt lat="-12.4443511" lon="130.9115944"></trkpt>
      <trkpt lat="-12.4443257" lon="130.9115879"></trkpt>
      <trkpt lat="-12.4443022" lon="130.9115794"></trkpt>
      <trkpt lat="-12.4442549" lon="130.9115576"></trkpt>
      <trkpt lat="-12.4439938" lon="130.9113768"></trkpt>
      <trkpt lat="-12.4438321" lon="130.9112768"></trkpt>
      <trkpt lat="-12.4438194" lon="130.9112717"></trkpt>
      <trkpt lat="-12.4438088" lon="130.9112689"></trkpt>
      <trkpt lat="-12.4437831" lon="130.9112642"></trkpt>
      <trkpt lat="-12.4437707" lon="130.9112631"></trkpt>
      <trkpt lat="-12.4437571" lon="130.9112633"></trkpt>
      <trkpt lat="-12.4437313" lon="130.9112672"></trkpt>
      <trkpt lat="-12.4437058" lon="130.9112734"></trkpt>
      <trkpt lat="-12.4436932" lon="130.9112774"></trkpt>
      <trkpt lat="-12.4436811" lon="130.9112832"></trkpt>
      <trkpt lat="-12.4436566" lon="130.9112991"></trkpt>
      <trkpt lat="-12.4436333" lon="130.9113198"></trkpt>
      <trkpt lat="-12.4436233" lon="130.9113336"></trkpt>
      <trkpt lat="-12.4436154" lon="130.9113486"></trkpt>
      <trkpt lat="-12.4436093" lon="130.9113643"></trkpt>
      <trkpt lat="-12.4436049" lon="130.9113807"></trkpt>
      <trkpt lat="-12.4436023" lon="130.9113977"></trkpt>
      <trkpt lat="-12.4436018" lon="130.9114146"></trkpt>
      <trkpt lat="-12.4436060" lon="130.9114413"></trkpt>
      <trkpt lat="-12.4436128" lon="130.9114643"></trkpt>
      <trkpt lat="-12.4436163" lon="130.9114725"></trkpt>
      <trkpt lat="-12.4436203" lon="130.9114797"></trkpt>
      <trkpt lat="-12.4436350" lon="130.9115013"></trkpt>
      <trkpt lat="-12.4436532" lon="130.9115205"></trkpt>
      <trkpt lat="-12.4436729" lon="130.9115384"></trkpt>
      <trkpt lat="-12.4436951" lon="130.9115540"></trkpt>
      <trkpt lat="-12.4437448" lon="130.9115810"></trkpt>
      <trkpt lat="-12.4438770" lon="130.9116329"></trkpt>
      <trkpt lat="-12.4440148" lon="130.9116928"></trkpt>
      <trkpt lat="-12.4440595" lon="130.9117236"></trkpt>
      <trkpt lat="-12.4440927" lon="130.9117556"></trkpt>
      <trkpt lat="-12.4441159" lon="130.9117863"></trkpt>
      <trkpt lat="-12.4441333" lon="130.9118193"></trkpt>
      <trkpt lat="-12.4441457" lon="130.9118563"></trkpt>
      <trkpt lat="-12.4441524" lon="130.9118928"></trkpt>
      <trkpt lat="-12.4441534" lon="130.9119181"></trkpt>
      <trkpt lat="-12.4441508" lon="130.9119420"></trkpt>
      <trkpt lat="-12.4441454" lon="130.9119650"></trkpt>
      <trkpt lat="-12.4441360" lon="130.9119878"></trkpt>
      <trkpt lat="-12.4441164" lon="130.9120178"></trkpt>
      <trkpt lat="-12.4440929" lon="130.9120448"></trkpt>
      <trkpt lat="-12.4440743" lon="130.9120604"></trkpt>
      <trkpt lat="-12.4440546" lon="130.9120723"></trkpt>
      <trkpt lat="-12.4440336" lon="130.9120817"></trkpt>
      <trkpt lat="-12.4440102" lon="130.9120880"></trkpt>
    </trkseg>
  </trk>
</gpx>
