<?xml version="1.0" encoding="UTF-8"?>
<gpx version="1.1" creator="tkk2gpx (Aus_Kart.ztracks converter)"
     xmlns="http://www.topografix.com/GPX/1/1"
     xmlns:xsi="http://www.w3.org/2001/XMLSchema-instance"
     xsi:schemaLocation="http://www.topografix.com/GPX/1/1 http://www.topografix.com/GPX/1/1/gpx.xsd">
  <metadata>
    <name>ExtremeK</name>
    <desc>Kart track, QLD AU. One lap starting and ending at the Start/Finish line. Declared length 1547 m.</desc>
  </metadata>
  <wpt lat="-27.7905006" lon="153.3116262">
    <name>Start/Finish</name>
    <desc>Start/Finish line location</desc>
    <sym>Flag, Checkered</sym>
  </wpt>
  <trk>
    <name>ExtremeK - 1 lap</name>
    <trkseg>
      <trkpt lat="-27.7905225" lon="153.3114436"></trkpt>
      <trkpt lat="-27.7904063" lon="153.3114683"></trkpt>
      <trkpt lat="-27.7902926" lon="153.3115124"></trkpt>
      <trkpt lat="-27.7901851" lon="153.3115771"></trkpt>
      <trkpt lat="-27.7900866" lon="153.3116618"></trkpt>
      <trkpt lat="-27.7899717" lon="153.3117981"></trkpt>
      <trkpt lat="-27.7898585" lon="153.3119813"></trkpt>
      <trkpt lat="-27.7897686" lon="153.3121730"></trkpt>
      <trkpt lat="-27.7897454" lon="153.3122391"></trkpt>
      <trkpt lat="-27.7897311" lon="153.3122989"></trkpt>
      <trkpt lat="-27.7897282" lon="153.3123272"></trkpt>
      <trkpt lat="-27.7897280" lon="153.3123537"></trkpt>
      <trkpt lat="-27.7897309" lon="153.3123770"></trkpt>
      <trkpt lat="-27.7897351" lon="153.3123922"></trkpt>
      <trkpt lat="-27.7897409" lon="153.3124057"></trkpt>
      <trkpt lat="-27.7897485" lon="153.3124172"></trkpt>
      <trkpt lat="-27.7897549" lon="153.3124240"></trkpt>
      <trkpt lat="-27.7897622" lon="153.3124299"></trkpt>
      <trkpt lat="-27.7897701" lon="153.3124347"></trkpt>
      <trkpt lat="-27.7897784" lon="153.3124383"></trkpt>
      <trkpt lat="-27.7897903" lon="153.3124411"></trkpt>
      <trkpt lat="-27.7898030" lon="153.3124416"></trkpt>
      <trkpt lat="-27.7898164" lon="153.3124400"></trkpt>
      <trkpt lat="-27.7898353" lon="153.3124345"></trkpt>
      <trkpt lat="-27.7898553" lon="153.3124254"></trkpt>
      <trkpt lat="-27.7898744" lon="153.3124136"></trkpt>
      <trkpt lat="-27.7899025" lon="153.3123892"></trkpt>
      <trkpt lat="-27.7899305" lon="153.3123545"></trkpt>
      <trkpt lat="-27.7899921" lon="153.3122371"></trkpt>
      <trkpt lat="-27.7900580" lon="153.3121122"></trkpt>
      <trkpt lat="-27.7901047" lon="153.3120532"></trkpt>
      <trkpt lat="-27.7901499" lon="153.3120090"></trkpt>
      <trkpt lat="-27.7901782" lon="153.3119880"></trkpt>
      <trkpt lat="-27.7902061" lon="153.3119735"></trkpt>
      <trkpt lat="-27.7902333" lon="153.3119644"></trkpt>
      <trkpt lat="-27.7902607" lon="153.3119606"></trkpt>
      <trkpt lat="-27.7902780" lon="153.3119615"></trkpt>
      <trkpt lat="-27.7902952" lon="153.3119648"></trkpt>
      <trkpt lat="-27.7903113" lon="153.3119705"></trkpt>
      <trkpt lat="-27.7903263" lon="153.3119787"></trkpt>
      <trkpt lat="-27.7903404" lon="153.3119892"></trkpt>
      <trkpt lat="-27.7903527" lon="153.3120014"></trkpt>
      <trkpt lat="-27.7903636" lon="153.3120159"></trkpt>
      <trkpt lat="-27.7903726" lon="153.3120322"></trkpt>
      <trkpt lat="-27.7903798" lon="153.3120494"></trkpt>
      <trkpt lat="-27.7903851" lon="153.3120680"></trkpt>
      <trkpt lat="-27.7903884" lon="153.3120876"></trkpt>
      <trkpt lat="-27.7903896" lon="153.3121075"></trkpt>
      <trkpt lat="-27.7903873" lon="153.3121389"></trkpt>
      <trkpt lat="-27.7903796" lon="153.3121717"></trkpt>
      <trkpt lat="-27.7903641" lon="153.3122131"></trkpt>
      <trkpt lat="-27.7903370" lon="153.3122606"></trkpt>
      <trkpt lat="-27.7902202" lon="153.3124035"></trkpt>
      <trkpt lat="-27.7900762" lon="153.3125512"></trkpt>
      <trkpt lat="-27.7898817" lon="153.3127014"></trkpt>
      <trkpt lat="-27.7896929" lon="153.3128223"></trkpt>
      <trkpt lat="-27.7896477" lon="153.3128608"></trkpt>
      <trkpt lat="-27.7896096" lon="153.3129002"></trkpt>
      <trkpt lat="-27.7895736" lon="153.3129441"></trkpt>
      <trkpt lat="-27.7895402" lon="153.3129930"></trkpt>
      <trkpt lat="-27.7894673" lon="153.3131343"></trkpt>
      <trkpt lat="-27.7893712" lon="153.3133319"></trkpt>
      <trkpt lat="-27.7893368" lon="153.3133823"></trkpt>
      <trkpt lat="-27.7893006" lon="153.3134234"></trkpt>
      <trkpt lat="-27.7892636" lon="153.3134550"></trkpt>
      <trkpt lat="-27.7892260" lon="153.3134787"></trkpt>
      <trkpt lat="-27.7891984" lon="153.3134902"></trkpt>
      <trkpt lat="-27.7891713" lon="153.3134959"></trkpt>
      <trkpt lat="-27.7891542" lon="153.3134964"></trkpt>
      <trkpt lat="-27.7891372" lon="153.3134947"></trkpt>
      <trkpt lat="-27.7891209" lon="153.3134906"></trkpt>
      <trkpt lat="-27.7891052" lon="153.3134839"></trkpt>
      <trkpt lat="-27.7890903" lon="153.3134749"></trkpt>
      <trkpt lat="-27.7890768" lon="153.3134641"></trkpt>
      <trkpt lat="-27.7890645" lon="153.3134511"></trkpt>
      <trkpt lat="-27.7890536" lon="153.3134363"></trkpt>
      <trkpt lat="-27.7890446" lon="153.3134201"></trkpt>
      <trkpt lat="-27.7890373" lon="153.3134020"></trkpt>
      <trkpt lat="-27.7890322" lon="153.3133824"></trkpt>
      <trkpt lat="-27.7890289" lon="153.3133603"></trkpt>
      <trkpt lat="-27.7890274" lon="153.3133032"></trkpt>
      <trkpt lat="-27.7890347" lon="153.3132373"></trkpt>
      <trkpt lat="-27.7890589" lon="153.3131475"></trkpt>
      <trkpt lat="-27.7890979" lon="153.3130399"></trkpt>
      <trkpt lat="-27.7893402" lon="153.3124548"></trkpt>
      <trkpt lat="-27.7898230" lon="153.3112431"></trkpt>
      <trkpt lat="-27.7899548" lon="153.3109122"></trkpt>
      <trkpt lat="-27.7901754" lon="153.3103785"></trkpt>
      <trkpt lat="-27.7902416" lon="153.3102595"></trkpt>
      <trkpt lat="-27.7903113" lon="153.3101586"></trkpt>
      <trkpt lat="-27.7903930" lon="153.3100619"></trkpt>
      <trkpt lat="-27.7904805" lon="153.3099770"></trkpt>
      <trkpt lat="-27.7905587" lon="153.3099168"></trkpt>
      <trkpt lat="-27.7906392" lon="153.3098670"></trkpt>
      <trkpt lat="-27.7907991" lon="153.3097962"></trkpt>
      <trkpt lat="-27.7908499" lon="153.3097827"></trkpt>
      <trkpt lat="-27.7909260" lon="153.3097680"></trkpt>
      <trkpt lat="-27.7910298" lon="153.3097587"></trkpt>
      <trkpt lat="-27.7911219" lon="153.3097559"></trkpt>
      <trkpt lat="-27.7912133" lon="153.3097651"></trkpt>
      <trkpt lat="-27.7913175" lon="153.3097879"></trkpt>
      <trkpt lat="-27.7914300" lon="153.3098282"></trkpt>
      <trkpt lat="-27.7916416" lon="153.3099393"></trkpt>
      <trkpt lat="-27.7918309" lon="153.3100597"></trkpt>
      <trkpt lat="-27.7918878" lon="153.3101045"></trkpt>
      <trkpt lat="-27.7919277" lon="153.3101447"></trkpt>
      <trkpt lat="-27.7919480" lon="153.3101713"></trkpt>
      <trkpt lat="-27.7919620" lon="153.3101976"></trkpt>
      <trkpt lat="-27.7919680" lon="153.3102147"></trkpt>
      <trkpt lat="-27.7919720" lon="153.3102321"></trkpt>
      <trkpt lat="-27.7919737" lon="153.3102480"></trkpt>
      <trkpt lat="-27.7919734" lon="153.3102585"></trkpt>
      <trkpt lat="-27.7919717" lon="153.3102681"></trkpt>
      <trkpt lat="-27.7919690" lon="153.3102772"></trkpt>
      <trkpt lat="-27.7919656" lon="153.3102855"></trkpt>
      <trkpt lat="-27.7919613" lon="153.3102933"></trkpt>
      <trkpt lat="-27.7919555" lon="153.3103005"></trkpt>
      <trkpt lat="-27.7919461" lon="153.3103088"></trkpt>
      <trkpt lat="-27.7919345" lon="153.3103163"></trkpt>
      <trkpt lat="-27.7919214" lon="153.3103222"></trkpt>
      <trkpt lat="-27.7919026" lon="153.3103272"></trkpt>
      <trkpt lat="-27.7918814" lon="153.3103299"></trkpt>
      <trkpt lat="-27.7918597" lon="153.3103300"></trkpt>
      <trkpt lat="-27.7918363" lon="153.3103274"></trkpt>
      <trkpt lat="-27.7918122" lon="153.3103217"></trkpt>
      <trkpt lat="-27.7917868" lon="153.3103116"></trkpt>
      <trkpt lat="-27.7917216" lon="153.3102662"></trkpt>
      <trkpt lat="-27.7916547" lon="153.3102102"></trkpt>
      <trkpt lat="-27.7915448" lon="153.3101189"></trkpt>
      <trkpt lat="-27.7914375" lon="153.3100590"></trkpt>
      <trkpt lat="-27.7913469" lon="153.3100289"></trkpt>
      <trkpt lat="-27.7912985" lon="153.3100204"></trkpt>
      <trkpt lat="-27.7912491" lon="153.3100166"></trkpt>
      <trkpt lat="-27.7911471" lon="153.3100246"></trkpt>
      <trkpt lat="-27.7910083" lon="153.3100611"></trkpt>
      <trkpt lat="-27.7908697" lon="153.3101198"></trkpt>
      <trkpt lat="-27.7907365" lon="153.3102037"></trkpt>
      <trkpt lat="-27.7906141" lon="153.3103147"></trkpt>
      <trkpt lat="-27.7905121" lon="153.3104419"></trkpt>
      <trkpt lat="-27.7904382" lon="153.3105675"></trkpt>
      <trkpt lat="-27.7904122" lon="153.3106261"></trkpt>
      <trkpt lat="-27.7903930" lon="153.3106823"></trkpt>
      <trkpt lat="-27.7903843" lon="153.3107227"></trkpt>
      <trkpt lat="-27.7903806" lon="153.3107612"></trkpt>
      <trkpt lat="-27.7903814" lon="153.3107981"></trkpt>
      <trkpt lat="-27.7903859" lon="153.3108319"></trkpt>
      <trkpt lat="-27.7903912" lon="153.3108530"></trkpt>
      <trkpt lat="-27.7903987" lon="153.3108717"></trkpt>
      <trkpt lat="-27.7904080" lon="153.3108883"></trkpt>
      <trkpt lat="-27.7904195" lon="153.3109030"></trkpt>
      <trkpt lat="-27.7904325" lon="153.3109149"></trkpt>
      <trkpt lat="-27.7904480" lon="153.3109248"></trkpt>
      <trkpt lat="-27.7904730" lon="153.3109350"></trkpt>
      <trkpt lat="-27.7905010" lon="153.3109416"></trkpt>
      <trkpt lat="-27.7905310" lon="153.3109436"></trkpt>
      <trkpt lat="-27.7905617" lon="153.3109411"></trkpt>
      <trkpt lat="-27.7905945" lon="153.3109337"></trkpt>
      <trkpt lat="-27.7906269" lon="153.3109215"></trkpt>
      <trkpt lat="-27.7906597" lon="153.3109038"></trkpt>
      <trkpt lat="-27.7906905" lon="153.3108814"></trkpt>
      <trkpt lat="-27.7907180" lon="153.3108546"></trkpt>
      <trkpt lat="-27.7907461" lon="153.3108207"></trkpt>
      <trkpt lat="-27.7908059" lon="153.3107323"></trkpt>
      <trkpt lat="-27.7908717" lon="153.3106422"></trkpt>
      <trkpt lat="-27.7909202" lon="153.3105977"></trkpt>
      <trkpt lat="-27.7909706" lon="153.3105632"></trkpt>
      <trkpt lat="-27.7910234" lon="153.3105355"></trkpt>
      <trkpt lat="-27.7910763" lon="153.3105163"></trkpt>
      <trkpt lat="-27.7911161" lon="153.3105087"></trkpt>
      <trkpt lat="-27.7911563" lon="153.3105084"></trkpt>
      <trkpt lat="-27.7912099" lon="153.3105183"></trkpt>
      <trkpt lat="-27.7912639" lon="153.3105371"></trkpt>
      <trkpt lat="-27.7913158" lon="153.3105647"></trkpt>
      <trkpt lat="-27.7913622" lon="153.3105975"></trkpt>
      <trkpt lat="-27.7913941" lon="153.3106261"></trkpt>
      <trkpt lat="-27.7914205" lon="153.3106572"></trkpt>
      <trkpt lat="-27.7914418" lon="153.3106911"></trkpt>
      <trkpt lat="-27.7914579" lon="153.3107274"></trkpt>
      <trkpt lat="-27.7914683" lon="153.3107658"></trkpt>
      <trkpt lat="-27.7914735" lon="153.3108054"></trkpt>
      <trkpt lat="-27.7914739" lon="153.3108454"></trkpt>
      <trkpt lat="-27.7914687" lon="153.3108868"></trkpt>
      <trkpt lat="-27.7914551" lon="153.3109397"></trkpt>
      <trkpt lat="-27.7914320" lon="153.3109954"></trkpt>
      <trkpt lat="-27.7913850" lon="153.3110709"></trkpt>
      <trkpt lat="-27.7913243" lon="153.3111474"></trkpt>
      <trkpt lat="-27.7912433" lon="153.3112339"></trkpt>
      <trkpt lat="-27.7911546" lon="153.3113103"></trkpt>
      <trkpt lat="-27.7910795" lon="153.3113574"></trkpt>
      <trkpt lat="-27.7910013" lon="153.3113923"></trkpt>
      <trkpt lat="-27.7909189" lon="153.3114158"></trkpt>
      <trkpt lat="-27.7908277" lon="153.3114307"></trkpt>
      <trkpt lat="-27.7905225" lon="153.3114436"></trkpt>
    </trkseg>
  </trk>
</gpx>
