<?xml version="1.0" encoding="UTF-8"?>
<gpx version="1.1" creator="tkk2gpx (Aus_Kart.ztracks converter)"
     xmlns="http://www.topografix.com/GPX/1/1"
     xmlns:xsi="http://www.w3.org/2001/XMLSchema-instance"
     xsi:schemaLocation="http://www.topografix.com/GPX/1/1 http://www.topografix.com/GPX/1/1/gpx.xsd">
  <metadata>
    <name>GKCV CW</name>
    <desc>Kart track, VIC AU. One lap starting and ending at the Start/Finish line. Declared length 945 m.</desc>
  </metadata>
  <wpt lat="-37.8308357" lon="144.9135521">
    <name>Start/Finish</name>
    <desc>Start/Finish line location</desc>
    <sym>Flag, Checkered</sym>
  </wpt>
  <trk>
    <name>GKCV CW - 1 lap</name>
    <trkseg>
      <trkpt lat="-37.8308836" lon="144.9134861"></trkpt>
      <trkpt lat="-37.8308902" lon="144.9134914"></trkpt>
      <trkpt lat="-37.8308973" lon="144.9134955"></trkpt>
      <trkpt lat="-37.8309047" lon="144.9134980"></trkpt>
      <trkpt lat="-37.8309163" lon="144.9134986"></trkpt>
      <trkpt lat="-37.8309288" lon="144.9134959"></trkpt>
      <trkpt lat="-37.8309423" lon="144.9134907"></trkpt>
      <trkpt lat="-37.8309793" lon="144.9134643"></trkpt>
      <trkpt lat="-37.8310145" lon="144.9134370"></trkpt>
      <trkpt lat="-37.8310282" lon="144.9134303"></trkpt>
      <trkpt lat="-37.8310405" lon="144.9134264"></trkpt>
      <trkpt lat="-37.8310526" lon="144.9134236"></trkpt>
      <trkpt lat="-37.8310657" lon="144.9134237"></trkpt>
      <trkpt lat="-37.8310821" lon="144.9134288"></trkpt>
      <trkpt lat="-37.8311002" lon="144.9134378"></trkpt>
      <trkpt lat="-37.8311163" lon="144.9134496"></trkpt>
      <trkpt lat="-37.8311286" lon="144.9134634"></trkpt>
      <trkpt lat="-37.8311391" lon="144.9134797"></trkpt>
      <trkpt lat="-37.8311473" lon="144.9134977"></trkpt>
      <trkpt lat="-37.8311534" lon="144.9135186"></trkpt>
      <trkpt lat="-37.8311569" lon="144.9135414"></trkpt>
      <trkpt lat="-37.8311583" lon="144.9135653"></trkpt>
      <trkpt lat="-37.8311553" lon="144.9136104"></trkpt>
      <trkpt lat="-37.8311461" lon="144.9136566"></trkpt>
      <trkpt lat="-37.8311292" lon="144.9137041"></trkpt>
      <trkpt lat="-37.8311079" lon="144.9137473"></trkpt>
      <trkpt lat="-37.8310894" lon="144.9137761"></trkpt>
      <trkpt lat="-37.8310675" lon="144.9138018"></trkpt>
      <trkpt lat="-37.8310293" lon="144.9138363"></trkpt>
      <trkpt lat="-37.8309870" lon="144.9138651"></trkpt>
      <trkpt lat="-37.8309494" lon="144.9138799"></trkpt>
      <trkpt lat="-37.8309156" lon="144.9138879"></trkpt>
      <trkpt lat="-37.8308870" lon="144.9138899"></trkpt>
      <trkpt lat="-37.8307535" lon="144.9138775"></trkpt>
      <trkpt lat="-37.8305918" lon="144.9138485"></trkpt>
      <trkpt lat="-37.8305638" lon="144.9138364"></trkpt>
      <trkpt lat="-37.8305415" lon="144.9138204"></trkpt>
      <trkpt lat="-37.8305277" lon="144.9138056"></trkpt>
      <trkpt lat="-37.8305155" lon="144.9137884"></trkpt>
      <trkpt lat="-37.8305056" lon="144.9137710"></trkpt>
      <trkpt lat="-37.8304996" lon="144.9137572"></trkpt>
      <trkpt lat="-37.8304952" lon="144.9137433"></trkpt>
      <trkpt lat="-37.8304924" lon="144.9137283"></trkpt>
      <trkpt lat="-37.8304909" lon="144.9137085"></trkpt>
      <trkpt lat="-37.8304915" lon="144.9136874"></trkpt>
      <trkpt lat="-37.8304943" lon="144.9136676"></trkpt>
      <trkpt lat="-37.8304992" lon="144.9136513"></trkpt>
      <trkpt lat="-37.8305059" lon="144.9136362"></trkpt>
      <trkpt lat="-37.8305133" lon="144.9136232"></trkpt>
      <trkpt lat="-37.8305224" lon="144.9136115"></trkpt>
      <trkpt lat="-37.8305344" lon="144.9136004"></trkpt>
      <trkpt lat="-37.8305794" lon="144.9135681"></trkpt>
      <trkpt lat="-37.8306277" lon="144.9135316"></trkpt>
      <trkpt lat="-37.8306508" lon="144.9135062"></trkpt>
      <trkpt lat="-37.8306696" lon="144.9134797"></trkpt>
      <trkpt lat="-37.8306862" lon="144.9134501"></trkpt>
      <trkpt lat="-37.8306991" lon="144.9134220"></trkpt>
      <trkpt lat="-37.8307087" lon="144.9133940"></trkpt>
      <trkpt lat="-37.8307259" lon="144.9133320"></trkpt>
      <trkpt lat="-37.8307380" lon="144.9132643"></trkpt>
      <trkpt lat="-37.8307455" lon="144.9131923"></trkpt>
      <trkpt lat="-37.8307703" lon="144.9126789"></trkpt>
      <trkpt lat="-37.8307661" lon="144.9125814"></trkpt>
      <trkpt lat="-37.8307596" lon="144.9125441"></trkpt>
      <trkpt lat="-37.8307499" lon="144.9125104"></trkpt>
      <trkpt lat="-37.8307365" lon="144.9124792"></trkpt>
      <trkpt lat="-37.8307293" lon="144.9124663"></trkpt>
      <trkpt lat="-37.8307200" lon="144.9124536"></trkpt>
      <trkpt lat="-37.8306980" lon="144.9124307"></trkpt>
      <trkpt lat="-37.8306719" lon="144.9124111"></trkpt>
      <trkpt lat="-37.8306564" lon="144.9124044"></trkpt>
      <trkpt lat="-37.8306404" lon="144.9124005"></trkpt>
      <trkpt lat="-37.8306245" lon="144.9123994"></trkpt>
      <trkpt lat="-37.8305989" lon="144.9124043"></trkpt>
      <trkpt lat="-37.8305768" lon="144.9124128"></trkpt>
      <trkpt lat="-37.8305690" lon="144.9124171"></trkpt>
      <trkpt lat="-37.8305621" lon="144.9124223"></trkpt>
      <trkpt lat="-37.8305411" lon="144.9124418"></trkpt>
      <trkpt lat="-37.8305319" lon="144.9124525"></trkpt>
      <trkpt lat="-37.8305228" lon="144.9124655"></trkpt>
      <trkpt lat="-37.8305075" lon="144.9124942"></trkpt>
      <trkpt lat="-37.8304936" lon="144.9125268"></trkpt>
      <trkpt lat="-37.8304789" lon="144.9125821"></trkpt>
      <trkpt lat="-37.8303030" lon="144.9135701"></trkpt>
      <trkpt lat="-37.8303017" lon="144.9135774"></trkpt>
      <trkpt lat="-37.8302101" lon="144.9140135"></trkpt>
      <trkpt lat="-37.8301672" lon="144.9142456"></trkpt>
      <trkpt lat="-37.8301524" lon="144.9143493"></trkpt>
      <trkpt lat="-37.8301505" lon="144.9144109"></trkpt>
      <trkpt lat="-37.8301549" lon="144.9144562"></trkpt>
      <trkpt lat="-37.8301627" lon="144.9145006"></trkpt>
      <trkpt lat="-37.8301709" lon="144.9145295"></trkpt>
      <trkpt lat="-37.8301811" lon="144.9145557"></trkpt>
      <trkpt lat="-37.8301937" lon="144.9145814"></trkpt>
      <trkpt lat="-37.8302086" lon="144.9146052"></trkpt>
      <trkpt lat="-37.8302259" lon="144.9146269"></trkpt>
      <trkpt lat="-37.8302452" lon="144.9146461"></trkpt>
      <trkpt lat="-37.8302674" lon="144.9146630"></trkpt>
      <trkpt lat="-37.8302890" lon="144.9146763"></trkpt>
      <trkpt lat="-37.8303131" lon="144.9146873"></trkpt>
      <trkpt lat="-37.8303652" lon="144.9147004"></trkpt>
      <trkpt lat="-37.8304215" lon="144.9147049"></trkpt>
      <trkpt lat="-37.8304806" lon="144.9146982"></trkpt>
      <trkpt lat="-37.8306002" lon="144.9146676"></trkpt>
      <trkpt lat="-37.8306529" lon="144.9146480"></trkpt>
      <trkpt lat="-37.8306997" lon="144.9146248"></trkpt>
      <trkpt lat="-37.8307312" lon="144.9146037"></trkpt>
      <trkpt lat="-37.8307609" lon="144.9145790"></trkpt>
      <trkpt lat="-37.8307804" lon="144.9145571"></trkpt>
      <trkpt lat="-37.8307968" lon="144.9145323"></trkpt>
      <trkpt lat="-37.8308080" lon="144.9145102"></trkpt>
      <trkpt lat="-37.8308179" lon="144.9144858"></trkpt>
      <trkpt lat="-37.8308247" lon="144.9144619"></trkpt>
      <trkpt lat="-37.8308273" lon="144.9144421"></trkpt>
      <trkpt lat="-37.8308276" lon="144.9144226"></trkpt>
      <trkpt lat="-37.8308263" lon="144.9144048"></trkpt>
      <trkpt lat="-37.8308246" lon="144.9143926"></trkpt>
      <trkpt lat="-37.8308219" lon="144.9143814"></trkpt>
      <trkpt lat="-37.8308177" lon="144.9143705"></trkpt>
      <trkpt lat="-37.8308101" lon="144.9143566"></trkpt>
      <trkpt lat="-37.8308004" lon="144.9143430"></trkpt>
      <trkpt lat="-37.8307900" lon="144.9143316"></trkpt>
      <trkpt lat="-37.8307810" lon="144.9143241"></trkpt>
      <trkpt lat="-37.8307715" lon="144.9143184"></trkpt>
      <trkpt lat="-37.8307607" lon="144.9143140"></trkpt>
      <trkpt lat="-37.8307434" lon="144.9143101"></trkpt>
      <trkpt lat="-37.8307241" lon="144.9143084"></trkpt>
      <trkpt lat="-37.8307064" lon="144.9143092"></trkpt>
      <trkpt lat="-37.8306906" lon="144.9143132"></trkpt>
      <trkpt lat="-37.8306739" lon="144.9143212"></trkpt>
      <trkpt lat="-37.8306260" lon="144.9143550"></trkpt>
      <trkpt lat="-37.8305749" lon="144.9143883"></trkpt>
      <trkpt lat="-37.8305559" lon="144.9143948"></trkpt>
      <trkpt lat="-37.8305382" lon="144.9143980"></trkpt>
      <trkpt lat="-37.8305209" lon="144.9143984"></trkpt>
      <trkpt lat="-37.8305040" lon="144.9143962"></trkpt>
      <trkpt lat="-37.8304874" lon="144.9143914"></trkpt>
      <trkpt lat="-37.8304718" lon="144.9143841"></trkpt>
      <trkpt lat="-37.8304574" lon="144.9143745"></trkpt>
      <trkpt lat="-37.8304439" lon="144.9143625"></trkpt>
      <trkpt lat="-37.8304321" lon="144.9143486"></trkpt>
      <trkpt lat="-37.8304223" lon="144.9143329"></trkpt>
      <trkpt lat="-37.8304141" lon="144.9143153"></trkpt>
      <trkpt lat="-37.8304078" lon="144.9142966"></trkpt>
      <trkpt lat="-37.8304022" lon="144.9142642"></trkpt>
      <trkpt lat="-37.8304004" lon="144.9142330"></trkpt>
      <trkpt lat="-37.8304006" lon="144.9142161"></trkpt>
      <trkpt lat="-37.8304030" lon="144.9141990"></trkpt>
      <trkpt lat="-37.8304139" lon="144.9141598"></trkpt>
      <trkpt lat="-37.8304273" lon="144.9141237"></trkpt>
      <trkpt lat="-37.8304328" lon="144.9141133"></trkpt>
      <trkpt lat="-37.8304388" lon="144.9141046"></trkpt>
      <trkpt lat="-37.8304483" lon="144.9140917"></trkpt>
      <trkpt lat="-37.8304601" lon="144.9140786"></trkpt>
      <trkpt lat="-37.8304808" lon="144.9140606"></trkpt>
      <trkpt lat="-37.8305056" lon="144.9140451"></trkpt>
      <trkpt lat="-37.8305392" lon="144.9140335"></trkpt>
      <trkpt lat="-37.8305771" lon="144.9140287"></trkpt>
      <trkpt lat="-37.8306278" lon="144.9140338"></trkpt>
      <trkpt lat="-37.8306836" lon="144.9140491"></trkpt>
      <trkpt lat="-37.8308502" lon="144.9141312"></trkpt>
      <trkpt lat="-37.8309072" lon="144.9141505"></trkpt>
      <trkpt lat="-37.8309497" lon="144.9141573"></trkpt>
      <trkpt lat="-37.8309920" lon="144.9141592"></trkpt>
      <trkpt lat="-37.8310203" lon="144.9141561"></trkpt>
      <trkpt lat="-37.8310468" lon="144.9141492"></trkpt>
      <trkpt lat="-37.8310735" lon="144.9141386"></trkpt>
      <trkpt lat="-37.8310993" lon="144.9141245"></trkpt>
      <trkpt lat="-37.8311248" lon="144.9141056"></trkpt>
      <trkpt lat="-37.8311472" lon="144.9140857"></trkpt>
      <trkpt lat="-37.8311688" lon="144.9140619"></trkpt>
      <trkpt lat="-37.8312081" lon="144.9140069"></trkpt>
      <trkpt lat="-37.8312416" lon="144.9139431"></trkpt>
      <trkpt lat="-37.8312709" lon="144.9138737"></trkpt>
      <trkpt lat="-37.8315115" lon="144.9131276"></trkpt>
      <trkpt lat="-37.8315178" lon="144.9130941"></trkpt>
      <trkpt lat="-37.8315199" lon="144.9130698"></trkpt>
      <trkpt lat="-37.8315209" lon="144.9130517"></trkpt>
      <trkpt lat="-37.8315204" lon="144.9130335"></trkpt>
      <trkpt lat="-37.8315177" lon="144.9130050"></trkpt>
      <trkpt lat="-37.8315117" lon="144.9129754"></trkpt>
      <trkpt lat="-37.8315002" lon="144.9129451"></trkpt>
      <trkpt lat="-37.8314858" lon="144.9129184"></trkpt>
      <trkpt lat="-37.8314783" lon="144.9129076"></trkpt>
      <trkpt lat="-37.8314704" lon="144.9128985"></trkpt>
      <trkpt lat="-37.8314612" lon="144.9128906"></trkpt>
      <trkpt lat="-37.8314473" lon="144.9128821"></trkpt>
      <trkpt lat="-37.8314315" lon="144.9128753"></trkpt>
      <trkpt lat="-37.8314166" lon="144.9128712"></trkpt>
      <trkpt lat="-37.8314002" lon="144.9128711"></trkpt>
      <trkpt lat="-37.8313859" lon="144.9128738"></trkpt>
      <trkpt lat="-37.8313784" lon="144.9128760"></trkpt>
      <trkpt lat="-37.8313712" lon="144.9128797"></trkpt>
      <trkpt lat="-37.8313552" lon="144.9128923"></trkpt>
      <trkpt lat="-37.8313399" lon="144.9129072"></trkpt>
      <trkpt lat="-37.8313330" lon="144.9129156"></trkpt>
      <trkpt lat="-37.8313273" lon="144.9129244"></trkpt>
      <trkpt lat="-37.8313211" lon="144.9129358"></trkpt>
      <trkpt lat="-37.8313150" lon="144.9129509"></trkpt>
      <trkpt lat="-37.8313012" lon="144.9130119"></trkpt>
      <trkpt lat="-37.8312855" lon="144.9130767"></trkpt>
      <trkpt lat="-37.8312744" lon="144.9131028"></trkpt>
      <trkpt lat="-37.8312609" lon="144.9131237"></trkpt>
      <trkpt lat="-37.8312477" lon="144.9131379"></trkpt>
      <trkpt lat="-37.8312326" lon="144.9131505"></trkpt>
      <trkpt lat="-37.8312177" lon="144.9131601"></trkpt>
      <trkpt lat="-37.8312001" lon="144.9131670"></trkpt>
      <trkpt lat="-37.8311831" lon="144.9131701"></trkpt>
      <trkpt lat="-37.8311703" lon="144.9131706"></trkpt>
      <trkpt lat="-37.8311556" lon="144.9131684"></trkpt>
      <trkpt lat="-37.8311023" lon="144.9131495"></trkpt>
      <trkpt lat="-37.8310461" lon="144.9131302"></trkpt>
      <trkpt lat="-37.8310235" lon="144.9131274"></trkpt>
      <trkpt lat="-37.8310035" lon="144.9131284"></trkpt>
      <trkpt lat="-37.8309842" lon="144.9131318"></trkpt>
      <trkpt lat="-37.8309650" lon="144.9131392"></trkpt>
      <trkpt lat="-37.8309402" lon="144.9131564"></trkpt>
      <trkpt lat="-37.8309182" lon="144.9131770"></trkpt>
      <trkpt lat="-37.8309075" lon="144.9131903"></trkpt>
      <trkpt lat="-37.8308988" lon="144.9132040"></trkpt>
      <trkpt lat="-37.8308829" lon="144.9132344"></trkpt>
      <trkpt lat="-37.8308696" lon="144.9132692"></trkpt>
      <trkpt lat="-37.8308645" lon="144.9132864"></trkpt>
      <trkpt lat="-37.8308606" lon="144.9133055"></trkpt>
      <trkpt lat="-37.8308574" lon="144.9133388"></trkpt>
      <trkpt lat="-37.8308566" lon="144.9133750"></trkpt>
      <trkpt lat="-37.8308575" lon="144.9134120"></trkpt>
      <trkpt lat="-37.8308618" lon="144.9134456"></trkpt>
      <trkpt lat="-37.8308659" lon="144.9134588"></trkpt>
      <trkpt lat="-37.8308712" lon="144.9134702"></trkpt>
      <trkpt lat="-37.8308778" lon="144.9134799"></trkpt>
      <trkpt lat="-37.8308836" lon="144.9134861"></trkpt>
    </trkseg>
  </trk>
</gpx>
