<?xml version="1.0" encoding="UTF-8"?>
<gpx version="1.1" creator="tkk2gpx (Aus_Kart.ztracks converter)"
     xmlns="http://www.topografix.com/GPX/1/1"
     xmlns:xsi="http://www.w3.org/2001/XMLSchema-instance"
     xsi:schemaLocation="http://www.topografix.com/GPX/1/1 http://www.topografix.com/GPX/1/1/gpx.xsd">
  <metadata>
    <name>GoK World AC</name>
    <desc>Kart track, NSW AU. One lap starting and ending at the Start/Finish line. Declared length 1017 m.</desc>
  </metadata>
  <wpt lat="-32.8975299" lon="151.5918877">
    <name>Start/Finish</name>
    <desc>Start/Finish line location</desc>
    <sym>Flag, Checkered</sym>
  </wpt>
  <trk>
    <name>GoK World AC - 1 lap</name>
    <trkseg>
      <trkpt lat="-32.8975117" lon="151.5919603"></trkpt>
      <trkpt lat="-32.8974862" lon="151.5919494"></trkpt>
      <trkpt lat="-32.8974674" lon="151.5919451"></trkpt>
      <trkpt lat="-32.8974476" lon="151.5919443"></trkpt>
      <trkpt lat="-32.8974160" lon="151.5919480"></trkpt>
      <trkpt lat="-32.8973785" lon="151.5919582"></trkpt>
      <trkpt lat="-32.8972843" lon="151.5919990"></trkpt>
      <trkpt lat="-32.8971985" lon="151.5920450"></trkpt>
      <trkpt lat="-32.8971795" lon="151.5920583"></trkpt>
      <trkpt lat="-32.8971651" lon="151.5920723"></trkpt>
      <trkpt lat="-32.8971468" lon="151.5920966"></trkpt>
      <trkpt lat="-32.8971313" lon="151.5921242"></trkpt>
      <trkpt lat="-32.8971204" lon="151.5921515"></trkpt>
      <trkpt lat="-32.8971136" lon="151.5921809"></trkpt>
      <trkpt lat="-32.8971124" lon="151.5922214"></trkpt>
      <trkpt lat="-32.8971161" lon="151.5922603"></trkpt>
      <trkpt lat="-32.8971201" lon="151.5922805"></trkpt>
      <trkpt lat="-32.8971265" lon="151.5923001"></trkpt>
      <trkpt lat="-32.8971436" lon="151.5923349"></trkpt>
      <trkpt lat="-32.8971598" lon="151.5923716"></trkpt>
      <trkpt lat="-32.8971640" lon="151.5923916"></trkpt>
      <trkpt lat="-32.8971657" lon="151.5924113"></trkpt>
      <trkpt lat="-32.8971656" lon="151.5924313"></trkpt>
      <trkpt lat="-32.8971642" lon="151.5924522"></trkpt>
      <trkpt lat="-32.8971607" lon="151.5924733"></trkpt>
      <trkpt lat="-32.8971533" lon="151.5924966"></trkpt>
      <trkpt lat="-32.8971128" lon="151.5925647"></trkpt>
      <trkpt lat="-32.8970592" lon="151.5926420"></trkpt>
      <trkpt lat="-32.8969326" lon="151.5928437"></trkpt>
      <trkpt lat="-32.8969002" lon="151.5928788"></trkpt>
      <trkpt lat="-32.8968691" lon="151.5929037"></trkpt>
      <trkpt lat="-32.8968445" lon="151.5929180"></trkpt>
      <trkpt lat="-32.8968198" lon="151.5929264"></trkpt>
      <trkpt lat="-32.8968036" lon="151.5929284"></trkpt>
      <trkpt lat="-32.8967871" lon="151.5929280"></trkpt>
      <trkpt lat="-32.8967718" lon="151.5929249"></trkpt>
      <trkpt lat="-32.8967584" lon="151.5929190"></trkpt>
      <trkpt lat="-32.8967461" lon="151.5929106"></trkpt>
      <trkpt lat="-32.8967350" lon="151.5929006"></trkpt>
      <trkpt lat="-32.8967248" lon="151.5928887"></trkpt>
      <trkpt lat="-32.8967161" lon="151.5928750"></trkpt>
      <trkpt lat="-32.8967093" lon="151.5928604"></trkpt>
      <trkpt lat="-32.8967044" lon="151.5928434"></trkpt>
      <trkpt lat="-32.8967017" lon="151.5928253"></trkpt>
      <trkpt lat="-32.8967011" lon="151.5928082"></trkpt>
      <trkpt lat="-32.8967021" lon="151.5927959"></trkpt>
      <trkpt lat="-32.8967047" lon="151.5927842"></trkpt>
      <trkpt lat="-32.8967095" lon="151.5927705"></trkpt>
      <trkpt lat="-32.8967305" lon="151.5927327"></trkpt>
      <trkpt lat="-32.8967600" lon="151.5926871"></trkpt>
      <trkpt lat="-32.8967831" lon="151.5926433"></trkpt>
      <trkpt lat="-32.8967927" lon="151.5926128"></trkpt>
      <trkpt lat="-32.8967984" lon="151.5925834"></trkpt>
      <trkpt lat="-32.8968009" lon="151.5925553"></trkpt>
      <trkpt lat="-32.8968008" lon="151.5925325"></trkpt>
      <trkpt lat="-32.8967983" lon="151.5925107"></trkpt>
      <trkpt lat="-32.8967931" lon="151.5924877"></trkpt>
      <trkpt lat="-32.8967736" lon="151.5924390"></trkpt>
      <trkpt lat="-32.8967486" lon="151.5923874"></trkpt>
      <trkpt lat="-32.8966949" lon="151.5922711"></trkpt>
      <trkpt lat="-32.8966842" lon="151.5922316"></trkpt>
      <trkpt lat="-32.8966790" lon="151.5921934"></trkpt>
      <trkpt lat="-32.8966783" lon="151.5921546"></trkpt>
      <trkpt lat="-32.8966835" lon="151.5921147"></trkpt>
      <trkpt lat="-32.8966997" lon="151.5920635"></trkpt>
      <trkpt lat="-32.8967238" lon="151.5920129"></trkpt>
      <trkpt lat="-32.8967502" lon="151.5919715"></trkpt>
      <trkpt lat="-32.8967888" lon="151.5919263"></trkpt>
      <trkpt lat="-32.8969869" lon="151.5917515"></trkpt>
      <trkpt lat="-32.8971911" lon="151.5915727"></trkpt>
      <trkpt lat="-32.8972408" lon="151.5915172"></trkpt>
      <trkpt lat="-32.8972777" lon="151.5914659"></trkpt>
      <trkpt lat="-32.8973132" lon="151.5914057"></trkpt>
      <trkpt lat="-32.8973412" lon="151.5913449"></trkpt>
      <trkpt lat="-32.8973563" lon="151.5912975"></trkpt>
      <trkpt lat="-32.8973663" lon="151.5912488"></trkpt>
      <trkpt lat="-32.8973769" lon="151.5911181"></trkpt>
      <trkpt lat="-32.8973736" lon="151.5909475"></trkpt>
      <trkpt lat="-32.8973763" lon="151.5908991"></trkpt>
      <trkpt lat="-32.8973831" lon="151.5908556"></trkpt>
      <trkpt lat="-32.8973952" lon="151.5908160"></trkpt>
      <trkpt lat="-32.8974123" lon="151.5907788"></trkpt>
      <trkpt lat="-32.8974271" lon="151.5907542"></trkpt>
      <trkpt lat="-32.8974443" lon="151.5907307"></trkpt>
      <trkpt lat="-32.8974628" lon="151.5907116"></trkpt>
      <trkpt lat="-32.8974789" lon="151.5907003"></trkpt>
      <trkpt lat="-32.8974958" lon="151.5906919"></trkpt>
      <trkpt lat="-32.8975133" lon="151.5906859"></trkpt>
      <trkpt lat="-32.8975310" lon="151.5906819"></trkpt>
      <trkpt lat="-32.8975492" lon="151.5906802"></trkpt>
      <trkpt lat="-32.8975672" lon="151.5906811"></trkpt>
      <trkpt lat="-32.8975952" lon="151.5906886"></trkpt>
      <trkpt lat="-32.8976221" lon="151.5907017"></trkpt>
      <trkpt lat="-32.8976481" lon="151.5907206"></trkpt>
      <trkpt lat="-32.8976717" lon="151.5907439"></trkpt>
      <trkpt lat="-32.8976933" lon="151.5907712"></trkpt>
      <trkpt lat="-32.8977113" lon="151.5908024"></trkpt>
      <trkpt lat="-32.8977269" lon="151.5908443"></trkpt>
      <trkpt lat="-32.8977369" lon="151.5908894"></trkpt>
      <trkpt lat="-32.8977403" lon="151.5909344"></trkpt>
      <trkpt lat="-32.8977376" lon="151.5909809"></trkpt>
      <trkpt lat="-32.8977271" lon="151.5910354"></trkpt>
      <trkpt lat="-32.8977097" lon="151.5910939"></trkpt>
      <trkpt lat="-32.8976734" lon="151.5911806"></trkpt>
      <trkpt lat="-32.8976374" lon="151.5912694"></trkpt>
      <trkpt lat="-32.8976198" lon="151.5913392"></trkpt>
      <trkpt lat="-32.8976106" lon="151.5914049"></trkpt>
      <trkpt lat="-32.8976103" lon="151.5914564"></trkpt>
      <trkpt lat="-32.8976151" lon="151.5915048"></trkpt>
      <trkpt lat="-32.8976221" lon="151.5915484"></trkpt>
      <trkpt lat="-32.8976335" lon="151.5915864"></trkpt>
      <trkpt lat="-32.8976413" lon="151.5916011"></trkpt>
      <trkpt lat="-32.8976505" lon="151.5916137"></trkpt>
      <trkpt lat="-32.8976611" lon="151.5916241"></trkpt>
      <trkpt lat="-32.8976733" lon="151.5916325"></trkpt>
      <trkpt lat="-32.8976869" lon="151.5916388"></trkpt>
      <trkpt lat="-32.8977009" lon="151.5916426"></trkpt>
      <trkpt lat="-32.8977150" lon="151.5916433"></trkpt>
      <trkpt lat="-32.8977294" lon="151.5916415"></trkpt>
      <trkpt lat="-32.8977433" lon="151.5916377"></trkpt>
      <trkpt lat="-32.8977647" lon="151.5916267"></trkpt>
      <trkpt lat="-32.8977826" lon="151.5916139"></trkpt>
      <trkpt lat="-32.8977892" lon="151.5916084"></trkpt>
      <trkpt lat="-32.8977954" lon="151.5916012"></trkpt>
      <trkpt lat="-32.8978225" lon="151.5915598"></trkpt>
      <trkpt lat="-32.8978512" lon="151.5915056"></trkpt>
      <trkpt lat="-32.8978697" lon="151.5914564"></trkpt>
      <trkpt lat="-32.8978861" lon="151.5913978"></trkpt>
      <trkpt lat="-32.8979206" lon="151.5912254"></trkpt>
      <trkpt lat="-32.8979607" lon="151.5910483"></trkpt>
      <trkpt lat="-32.8979909" lon="151.5909719"></trkpt>
      <trkpt lat="-32.8980251" lon="151.5909080"></trkpt>
      <trkpt lat="-32.8980609" lon="151.5908529"></trkpt>
      <trkpt lat="-32.8980999" lon="151.5908070"></trkpt>
      <trkpt lat="-32.8981349" lon="151.5907797"></trkpt>
      <trkpt lat="-32.8981667" lon="151.5907613"></trkpt>
      <trkpt lat="-32.8981783" lon="151.5907559"></trkpt>
      <trkpt lat="-32.8981903" lon="151.5907528"></trkpt>
      <trkpt lat="-32.8982201" lon="151.5907500"></trkpt>
      <trkpt lat="-32.8982537" lon="151.5907525"></trkpt>
      <trkpt lat="-32.8982776" lon="151.5907594"></trkpt>
      <trkpt lat="-32.8983015" lon="151.5907696"></trkpt>
      <trkpt lat="-32.8983212" lon="151.5907812"></trkpt>
      <trkpt lat="-32.8983313" lon="151.5907897"></trkpt>
      <trkpt lat="-32.8983393" lon="151.5907990"></trkpt>
      <trkpt lat="-32.8983466" lon="151.5908098"></trkpt>
      <trkpt lat="-32.8983598" lon="151.5908351"></trkpt>
      <trkpt lat="-32.8983701" lon="151.5908660"></trkpt>
      <trkpt lat="-32.8983791" lon="151.5909209"></trkpt>
      <trkpt lat="-32.8983814" lon="151.5909805"></trkpt>
      <trkpt lat="-32.8983776" lon="151.5910281"></trkpt>
      <trkpt lat="-32.8983642" lon="151.5910856"></trkpt>
      <trkpt lat="-32.8980812" lon="151.5917697"></trkpt>
      <trkpt lat="-32.8980677" lon="151.5918005"></trkpt>
      <trkpt lat="-32.8980485" lon="151.5918442"></trkpt>
      <trkpt lat="-32.8978617" lon="151.5922362"></trkpt>
      <trkpt lat="-32.8978081" lon="151.5923889"></trkpt>
      <trkpt lat="-32.8977846" lon="151.5925099"></trkpt>
      <trkpt lat="-32.8977768" lon="151.5926718"></trkpt>
      <trkpt lat="-32.8977766" lon="151.5929022"></trkpt>
      <trkpt lat="-32.8977708" lon="151.5929426"></trkpt>
      <trkpt lat="-32.8977611" lon="151.5929759"></trkpt>
      <trkpt lat="-32.8977526" lon="151.5929957"></trkpt>
      <trkpt lat="-32.8977421" lon="151.5930142"></trkpt>
      <trkpt lat="-32.8977291" lon="151.5930315"></trkpt>
      <trkpt lat="-32.8977103" lon="151.5930503"></trkpt>
      <trkpt lat="-32.8976884" lon="151.5930677"></trkpt>
      <trkpt lat="-32.8976659" lon="151.5930811"></trkpt>
      <trkpt lat="-32.8976470" lon="151.5930886"></trkpt>
      <trkpt lat="-32.8976278" lon="151.5930932"></trkpt>
      <trkpt lat="-32.8976081" lon="151.5930952"></trkpt>
      <trkpt lat="-32.8975752" lon="151.5930930"></trkpt>
      <trkpt lat="-32.8975423" lon="151.5930847"></trkpt>
      <trkpt lat="-32.8975090" lon="151.5930698"></trkpt>
      <trkpt lat="-32.8974773" lon="151.5930483"></trkpt>
      <trkpt lat="-32.8974418" lon="151.5930133"></trkpt>
      <trkpt lat="-32.8974108" lon="151.5929709"></trkpt>
      <trkpt lat="-32.8973861" lon="151.5929199"></trkpt>
      <trkpt lat="-32.8973693" lon="151.5928666"></trkpt>
      <trkpt lat="-32.8973636" lon="151.5928371"></trkpt>
      <trkpt lat="-32.8973608" lon="151.5928080"></trkpt>
      <trkpt lat="-32.8973613" lon="151.5927775"></trkpt>
      <trkpt lat="-32.8973697" lon="151.5927194"></trkpt>
      <trkpt lat="-32.8973882" lon="151.5926577"></trkpt>
      <trkpt lat="-32.8974293" lon="151.5925756"></trkpt>
      <trkpt lat="-32.8974799" lon="151.5924914"></trkpt>
      <trkpt lat="-32.8975852" lon="151.5923236"></trkpt>
      <trkpt lat="-32.8976214" lon="151.5922419"></trkpt>
      <trkpt lat="-32.8976258" lon="151.5922291"></trkpt>
      <trkpt lat="-32.8976284" lon="151.5922158"></trkpt>
      <trkpt lat="-32.8976302" lon="151.5921690"></trkpt>
      <trkpt lat="-32.8976278" lon="151.5921191"></trkpt>
      <trkpt lat="-32.8976245" lon="151.5920955"></trkpt>
      <trkpt lat="-32.8976189" lon="151.5920747"></trkpt>
      <trkpt lat="-32.8976111" lon="151.5920556"></trkpt>
      <trkpt lat="-32.8975994" lon="151.5920366"></trkpt>
      <trkpt lat="-32.8975711" lon="151.5920051"></trkpt>
      <trkpt lat="-32.8975377" lon="151.5919765"></trkpt>
      <trkpt lat="-32.8975117" lon="151.5919603"></trkpt>
    </trkseg>
  </trk>
</gpx>
