<?xml version="1.0" encoding="UTF-8"?>
<gpx version="1.1" creator="tkk2gpx (Aus_Kart.ztracks converter)"
     xmlns="http://www.topografix.com/GPX/1/1"
     xmlns:xsi="http://www.w3.org/2001/XMLSchema-instance"
     xsi:schemaLocation="http://www.topografix.com/GPX/1/1 http://www.topografix.com/GPX/1/1/gpx.xsd">
  <metadata>
    <name>GoldfieldsK</name>
    <desc>Kart track, WA AU. One lap starting and ending at the Start/Finish line. Declared length 905 m.</desc>
  </metadata>
  <wpt lat="-30.7971455" lon="121.4415463">
    <name>Start/Finish</name>
    <desc>Start/Finish line location</desc>
    <sym>Flag, Checkered</sym>
  </wpt>
  <trk>
    <name>GoldfieldsK - 1 lap</name>
    <trkseg>
      <trkpt lat="-30.7971455" lon="121.4415463"></trkpt>
      <trkpt lat="-30.7971558" lon="121.4415630"></trkpt>
      <trkpt lat="-30.7971641" lon="121.4415813"></trkpt>
      <trkpt lat="-30.7971705" lon="121.4416003"></trkpt>
      <trkpt lat="-30.7971749" lon="121.4416208"></trkpt>
      <trkpt lat="-30.7971772" lon="121.4416421"></trkpt>
      <trkpt lat="-30.7971774" lon="121.4416634"></trkpt>
      <trkpt lat="-30.7971735" lon="121.4416961"></trkpt>
      <trkpt lat="-30.7971649" lon="121.4417278"></trkpt>
      <trkpt lat="-30.7971569" lon="121.4417473"></trkpt>
      <trkpt lat="-30.7971470" lon="121.4417658"></trkpt>
      <trkpt lat="-30.7971352" lon="121.4417826"></trkpt>
      <trkpt lat="-30.7971224" lon="121.4417967"></trkpt>
      <trkpt lat="-30.7971078" lon="121.4418092"></trkpt>
      <trkpt lat="-30.7970911" lon="121.4418197"></trkpt>
      <trkpt lat="-30.7970688" lon="121.4418299"></trkpt>
      <trkpt lat="-30.7970435" lon="121.4418374"></trkpt>
      <trkpt lat="-30.7970144" lon="121.4418413"></trkpt>
      <trkpt lat="-30.7969230" lon="121.4418295"></trkpt>
      <trkpt lat="-30.7968334" lon="121.4418124"></trkpt>
      <trkpt lat="-30.7967983" lon="121.4418094"></trkpt>
      <trkpt lat="-30.7967696" lon="121.4418100"></trkpt>
      <trkpt lat="-30.7967511" lon="121.4418136"></trkpt>
      <trkpt lat="-30.7967342" lon="121.4418205"></trkpt>
      <trkpt lat="-30.7967196" lon="121.4418297"></trkpt>
      <trkpt lat="-30.7967052" lon="121.4418415"></trkpt>
      <trkpt lat="-30.7966926" lon="121.4418549"></trkpt>
      <trkpt lat="-30.7966823" lon="121.4418699"></trkpt>
      <trkpt lat="-30.7966738" lon="121.4418864"></trkpt>
      <trkpt lat="-30.7966675" lon="121.4419035"></trkpt>
      <trkpt lat="-30.7966637" lon="121.4419213"></trkpt>
      <trkpt lat="-30.7966620" lon="121.4419398"></trkpt>
      <trkpt lat="-30.7966622" lon="121.4419570"></trkpt>
      <trkpt lat="-30.7966635" lon="121.4419694"></trkpt>
      <trkpt lat="-30.7966660" lon="121.4419811"></trkpt>
      <trkpt lat="-30.7966701" lon="121.4419931"></trkpt>
      <trkpt lat="-30.7966776" lon="121.4420099"></trkpt>
      <trkpt lat="-30.7966876" lon="121.4420273"></trkpt>
      <trkpt lat="-30.7967001" lon="121.4420442"></trkpt>
      <trkpt lat="-30.7967300" lon="121.4420734"></trkpt>
      <trkpt lat="-30.7967659" lon="121.4420991"></trkpt>
      <trkpt lat="-30.7968095" lon="121.4421192"></trkpt>
      <trkpt lat="-30.7968502" lon="121.4421333"></trkpt>
      <trkpt lat="-30.7968805" lon="121.4421414"></trkpt>
      <trkpt lat="-30.7975069" lon="121.4423212"></trkpt>
      <trkpt lat="-30.7975297" lon="121.4423221"></trkpt>
      <trkpt lat="-30.7975463" lon="121.4423202"></trkpt>
      <trkpt lat="-30.7975614" lon="121.4423153"></trkpt>
      <trkpt lat="-30.7975765" lon="121.4423073"></trkpt>
      <trkpt lat="-30.7975903" lon="121.4422965"></trkpt>
      <trkpt lat="-30.7976015" lon="121.4422845"></trkpt>
      <trkpt lat="-30.7976089" lon="121.4422731"></trkpt>
      <trkpt lat="-30.7976142" lon="121.4422607"></trkpt>
      <trkpt lat="-30.7976178" lon="121.4422469"></trkpt>
      <trkpt lat="-30.7976199" lon="121.4422267"></trkpt>
      <trkpt lat="-30.7976191" lon="121.4422042"></trkpt>
      <trkpt lat="-30.7976158" lon="121.4421805"></trkpt>
      <trkpt lat="-30.7976016" lon="121.4421339"></trkpt>
      <trkpt lat="-30.7975816" lon="121.4420834"></trkpt>
      <trkpt lat="-30.7975517" lon="121.4420156"></trkpt>
      <trkpt lat="-30.7975257" lon="121.4419483"></trkpt>
      <trkpt lat="-30.7975170" lon="121.4419027"></trkpt>
      <trkpt lat="-30.7975152" lon="121.4418615"></trkpt>
      <trkpt lat="-30.7975169" lon="121.4418419"></trkpt>
      <trkpt lat="-30.7975204" lon="121.4418238"></trkpt>
      <trkpt lat="-30.7975258" lon="121.4418066"></trkpt>
      <trkpt lat="-30.7975327" lon="121.4417906"></trkpt>
      <trkpt lat="-30.7975413" lon="121.4417755"></trkpt>
      <trkpt lat="-30.7975515" lon="121.4417620"></trkpt>
      <trkpt lat="-30.7975632" lon="121.4417504"></trkpt>
      <trkpt lat="-30.7975764" lon="121.4417404"></trkpt>
      <trkpt lat="-30.7975906" lon="121.4417324"></trkpt>
      <trkpt lat="-30.7976059" lon="121.4417266"></trkpt>
      <trkpt lat="-30.7976223" lon="121.4417230"></trkpt>
      <trkpt lat="-30.7976398" lon="121.4417216"></trkpt>
      <trkpt lat="-30.7976630" lon="121.4417225"></trkpt>
      <trkpt lat="-30.7976881" lon="121.4417269"></trkpt>
      <trkpt lat="-30.7977156" lon="121.4417363"></trkpt>
      <trkpt lat="-30.7978048" lon="121.4417956"></trkpt>
      <trkpt lat="-30.7978923" lon="121.4418613"></trkpt>
      <trkpt lat="-30.7979628" lon="121.4419011"></trkpt>
      <trkpt lat="-30.7979894" lon="121.4419102"></trkpt>
      <trkpt lat="-30.7980158" lon="121.4419158"></trkpt>
      <trkpt lat="-30.7980436" lon="121.4419189"></trkpt>
      <trkpt lat="-30.7980716" lon="121.4419192"></trkpt>
      <trkpt lat="-30.7980996" lon="121.4419166"></trkpt>
      <trkpt lat="-30.7981270" lon="121.4419110"></trkpt>
      <trkpt lat="-30.7981534" lon="121.4419022"></trkpt>
      <trkpt lat="-30.7981786" lon="121.4418901"></trkpt>
      <trkpt lat="-30.7982024" lon="121.4418743"></trkpt>
      <trkpt lat="-30.7982244" lon="121.4418554"></trkpt>
      <trkpt lat="-30.7982450" lon="121.4418331"></trkpt>
      <trkpt lat="-30.7982635" lon="121.4418084"></trkpt>
      <trkpt lat="-30.7982803" lon="121.4417812"></trkpt>
      <trkpt lat="-30.7982947" lon="121.4417523"></trkpt>
      <trkpt lat="-30.7983067" lon="121.4417217"></trkpt>
      <trkpt lat="-30.7983159" lon="121.4416900"></trkpt>
      <trkpt lat="-30.7983223" lon="121.4416572"></trkpt>
      <trkpt lat="-30.7983259" lon="121.4416238"></trkpt>
      <trkpt lat="-30.7983265" lon="121.4415899"></trkpt>
      <trkpt lat="-30.7983242" lon="121.4415561"></trkpt>
      <trkpt lat="-30.7983190" lon="121.4415225"></trkpt>
      <trkpt lat="-30.7983109" lon="121.4414894"></trkpt>
      <trkpt lat="-30.7983002" lon="121.4414573"></trkpt>
      <trkpt lat="-30.7982870" lon="121.4414263"></trkpt>
      <trkpt lat="-30.7982535" lon="121.4413685"></trkpt>
      <trkpt lat="-30.7982347" lon="121.4413430"></trkpt>
      <trkpt lat="-30.7982116" lon="121.4413175"></trkpt>
      <trkpt lat="-30.7981090" lon="121.4412351"></trkpt>
      <trkpt lat="-30.7979918" lon="121.4411477"></trkpt>
      <trkpt lat="-30.7979659" lon="121.4411194"></trkpt>
      <trkpt lat="-30.7979460" lon="121.4410905"></trkpt>
      <trkpt lat="-30.7979302" lon="121.4410597"></trkpt>
      <trkpt lat="-30.7979185" lon="121.4410261"></trkpt>
      <trkpt lat="-30.7979102" lon="121.4409828"></trkpt>
      <trkpt lat="-30.7979072" lon="121.4409334"></trkpt>
      <trkpt lat="-30.7979159" lon="121.4408441"></trkpt>
      <trkpt lat="-30.7979239" lon="121.4407618"></trkpt>
      <trkpt lat="-30.7979214" lon="121.4407369"></trkpt>
      <trkpt lat="-30.7979155" lon="121.4407151"></trkpt>
      <trkpt lat="-30.7979027" lon="121.4406827"></trkpt>
      <trkpt lat="-30.7978850" lon="121.4406504"></trkpt>
      <trkpt lat="-30.7978634" lon="121.4406211"></trkpt>
      <trkpt lat="-30.7978367" lon="121.4405938"></trkpt>
      <trkpt lat="-30.7978001" lon="121.4405657"></trkpt>
      <trkpt lat="-30.7977500" lon="121.4405360"></trkpt>
      <trkpt lat="-30.7972910" lon="121.4403295"></trkpt>
      <trkpt lat="-30.7969584" lon="121.4401928"></trkpt>
      <trkpt lat="-30.7968215" lon="121.4401507"></trkpt>
      <trkpt lat="-30.7967878" lon="121.4401476"></trkpt>
      <trkpt lat="-30.7967578" lon="121.4401502"></trkpt>
      <trkpt lat="-30.7967298" lon="121.4401586"></trkpt>
      <trkpt lat="-30.7967037" lon="121.4401719"></trkpt>
      <trkpt lat="-30.7966786" lon="121.4401905"></trkpt>
      <trkpt lat="-30.7966561" lon="121.4402133"></trkpt>
      <trkpt lat="-30.7966366" lon="121.4402400"></trkpt>
      <trkpt lat="-30.7966193" lon="121.4402730"></trkpt>
      <trkpt lat="-30.7965934" lon="121.4403472"></trkpt>
      <trkpt lat="-30.7965703" lon="121.4404319"></trkpt>
      <trkpt lat="-30.7965491" lon="121.4405163"></trkpt>
      <trkpt lat="-30.7965353" lon="121.4405934"></trkpt>
      <trkpt lat="-30.7965334" lon="121.4406206"></trkpt>
      <trkpt lat="-30.7965338" lon="121.4406447"></trkpt>
      <trkpt lat="-30.7965373" lon="121.4406666"></trkpt>
      <trkpt lat="-30.7965415" lon="121.4406798"></trkpt>
      <trkpt lat="-30.7965470" lon="121.4406923"></trkpt>
      <trkpt lat="-30.7965537" lon="121.4407035"></trkpt>
      <trkpt lat="-30.7965615" lon="121.4407130"></trkpt>
      <trkpt lat="-30.7965696" lon="121.4407201"></trkpt>
      <trkpt lat="-30.7965786" lon="121.4407260"></trkpt>
      <trkpt lat="-30.7965884" lon="121.4407305"></trkpt>
      <trkpt lat="-30.7965983" lon="121.4407331"></trkpt>
      <trkpt lat="-30.7966129" lon="121.4407334"></trkpt>
      <trkpt lat="-30.7966281" lon="121.4407303"></trkpt>
      <trkpt lat="-30.7966429" lon="121.4407248"></trkpt>
      <trkpt lat="-30.7966585" lon="121.4407159"></trkpt>
      <trkpt lat="-30.7966735" lon="121.4407040"></trkpt>
      <trkpt lat="-30.7966875" lon="121.4406890"></trkpt>
      <trkpt lat="-30.7967118" lon="121.4406468"></trkpt>
      <trkpt lat="-30.7967336" lon="121.4405999"></trkpt>
      <trkpt lat="-30.7967714" lon="121.4405275"></trkpt>
      <trkpt lat="-30.7967826" lon="121.4405139"></trkpt>
      <trkpt lat="-30.7967944" lon="121.4405025"></trkpt>
      <trkpt lat="-30.7968072" lon="121.4404934"></trkpt>
      <trkpt lat="-30.7968202" lon="121.4404868"></trkpt>
      <trkpt lat="-30.7968341" lon="121.4404822"></trkpt>
      <trkpt lat="-30.7968489" lon="121.4404799"></trkpt>
      <trkpt lat="-30.7968685" lon="121.4404805"></trkpt>
      <trkpt lat="-30.7968895" lon="121.4404843"></trkpt>
      <trkpt lat="-30.7969099" lon="121.4404913"></trkpt>
      <trkpt lat="-30.7969308" lon="121.4405026"></trkpt>
      <trkpt lat="-30.7969509" lon="121.4405176"></trkpt>
      <trkpt lat="-30.7969702" lon="121.4405357"></trkpt>
      <trkpt lat="-30.7970054" lon="121.4405802"></trkpt>
      <trkpt lat="-30.7970338" lon="121.4406282"></trkpt>
      <trkpt lat="-30.7970465" lon="121.4406592"></trkpt>
      <trkpt lat="-30.7970538" lon="121.4406893"></trkpt>
      <trkpt lat="-30.7970563" lon="121.4407087"></trkpt>
      <trkpt lat="-30.7970569" lon="121.4407281"></trkpt>
      <trkpt lat="-30.7970552" lon="121.4407484"></trkpt>
      <trkpt lat="-30.7970468" lon="121.4407857"></trkpt>
      <trkpt lat="-30.7970294" lon="121.4408292"></trkpt>
      <trkpt lat="-30.7969569" lon="121.4409541"></trkpt>
      <trkpt lat="-30.7968627" lon="121.4410924"></trkpt>
      <trkpt lat="-30.7966878" lon="121.4413088"></trkpt>
      <trkpt lat="-30.7966639" lon="121.4413497"></trkpt>
      <trkpt lat="-30.7966494" lon="121.4413853"></trkpt>
      <trkpt lat="-30.7966451" lon="121.4414036"></trkpt>
      <trkpt lat="-30.7966431" lon="121.4414211"></trkpt>
      <trkpt lat="-30.7966432" lon="121.4414382"></trkpt>
      <trkpt lat="-30.7966449" lon="121.4414542"></trkpt>
      <trkpt lat="-30.7966485" lon="121.4414699"></trkpt>
      <trkpt lat="-30.7966540" lon="121.4414842"></trkpt>
      <trkpt lat="-30.7966611" lon="121.4414965"></trkpt>
      <trkpt lat="-30.7966700" lon="121.4415076"></trkpt>
      <trkpt lat="-30.7966810" lon="121.4415173"></trkpt>
      <trkpt lat="-30.7966980" lon="121.4415272"></trkpt>
      <trkpt lat="-30.7967181" lon="121.4415350"></trkpt>
      <trkpt lat="-30.7967392" lon="121.4415399"></trkpt>
      <trkpt lat="-30.7967733" lon="121.4415408"></trkpt>
      <trkpt lat="-30.7968124" lon="121.4415352"></trkpt>
      <trkpt lat="-30.7968994" lon="121.4415087"></trkpt>
      <trkpt lat="-30.7969852" lon="121.4414838"></trkpt>
      <trkpt lat="-30.7970200" lon="121.4414814"></trkpt>
      <trkpt lat="-30.7970501" lon="121.4414848"></trkpt>
      <trkpt lat="-30.7970786" lon="121.4414932"></trkpt>
      <trkpt lat="-30.7971046" lon="121.4415065"></trkpt>
      <trkpt lat="-30.7971198" lon="121.4415179"></trkpt>
      <trkpt lat="-30.7971335" lon="121.4415314"></trkpt>
      <trkpt lat="-30.7971455" lon="121.4415463"></trkpt>
    </trkseg>
  </trk>
</gpx>
