<?xml version="1.0" encoding="UTF-8"?>
<gpx version="1.1" creator="tkk2gpx (Aus_Kart.ztracks converter)"
     xmlns="http://www.topografix.com/GPX/1/1"
     xmlns:xsi="http://www.w3.org/2001/XMLSchema-instance"
     xsi:schemaLocation="http://www.topografix.com/GPX/1/1 http://www.topografix.com/GPX/1/1/gpx.xsd">
  <metadata>
    <name>MegaFastKart</name>
    <desc>Kart track, WA AU. One lap starting and ending at the Start/Finish line. Declared length 821 m.</desc>
  </metadata>
  <wpt lat="-31.6642554" lon="115.8000875">
    <name>Start/Finish</name>
    <desc>Start/Finish line location</desc>
    <sym>Flag, Checkered</sym>
  </wpt>
  <trk>
    <name>MegaFastKart - 1 lap</name>
    <trkseg>
      <trkpt lat="-31.6642554" lon="115.8000875"></trkpt>
      <trkpt lat="-31.6642614" lon="115.8001082"></trkpt>
      <trkpt lat="-31.6642692" lon="115.8001269"></trkpt>
      <trkpt lat="-31.6642825" lon="115.8001480"></trkpt>
      <trkpt lat="-31.6643003" lon="115.8001677"></trkpt>
      <trkpt lat="-31.6643442" lon="115.8002005"></trkpt>
      <trkpt lat="-31.6643871" lon="115.8002346"></trkpt>
      <trkpt lat="-31.6643989" lon="115.8002503"></trkpt>
      <trkpt lat="-31.6644078" lon="115.8002661"></trkpt>
      <trkpt lat="-31.6644146" lon="115.8002829"></trkpt>
      <trkpt lat="-31.6644198" lon="115.8003010"></trkpt>
      <trkpt lat="-31.6644229" lon="115.8003199"></trkpt>
      <trkpt lat="-31.6644241" lon="115.8003390"></trkpt>
      <trkpt lat="-31.6644232" lon="115.8003585"></trkpt>
      <trkpt lat="-31.6644201" lon="115.8003782"></trkpt>
      <trkpt lat="-31.6644152" lon="115.8003971"></trkpt>
      <trkpt lat="-31.6644038" lon="115.8004243"></trkpt>
      <trkpt lat="-31.6643886" lon="115.8004497"></trkpt>
      <trkpt lat="-31.6643693" lon="115.8004745"></trkpt>
      <trkpt lat="-31.6643482" lon="115.8004966"></trkpt>
      <trkpt lat="-31.6643317" lon="115.8005121"></trkpt>
      <trkpt lat="-31.6643111" lon="115.8005274"></trkpt>
      <trkpt lat="-31.6641291" lon="115.8006203"></trkpt>
      <trkpt lat="-31.6640870" lon="115.8006416"></trkpt>
      <trkpt lat="-31.6640633" lon="115.8006583"></trkpt>
      <trkpt lat="-31.6640414" lon="115.8006782"></trkpt>
      <trkpt lat="-31.6640298" lon="115.8006919"></trkpt>
      <trkpt lat="-31.6640196" lon="115.8007068"></trkpt>
      <trkpt lat="-31.6640115" lon="115.8007232"></trkpt>
      <trkpt lat="-31.6640053" lon="115.8007435"></trkpt>
      <trkpt lat="-31.6640014" lon="115.8007656"></trkpt>
      <trkpt lat="-31.6640006" lon="115.8007868"></trkpt>
      <trkpt lat="-31.6640028" lon="115.8008046"></trkpt>
      <trkpt lat="-31.6640074" lon="115.8008217"></trkpt>
      <trkpt lat="-31.6640140" lon="115.8008376"></trkpt>
      <trkpt lat="-31.6640230" lon="115.8008528"></trkpt>
      <trkpt lat="-31.6640341" lon="115.8008668"></trkpt>
      <trkpt lat="-31.6640465" lon="115.8008791"></trkpt>
      <trkpt lat="-31.6640685" lon="115.8008945"></trkpt>
      <trkpt lat="-31.6640930" lon="115.8009056"></trkpt>
      <trkpt lat="-31.6641199" lon="115.8009123"></trkpt>
      <trkpt lat="-31.6641479" lon="115.8009146"></trkpt>
      <trkpt lat="-31.6641781" lon="115.8009125"></trkpt>
      <trkpt lat="-31.6642074" lon="115.8009065"></trkpt>
      <trkpt lat="-31.6642290" lon="115.8008996"></trkpt>
      <trkpt lat="-31.6642523" lon="115.8008886"></trkpt>
      <trkpt lat="-31.6643885" lon="115.8007979"></trkpt>
      <trkpt lat="-31.6645753" lon="115.8006401"></trkpt>
      <trkpt lat="-31.6645967" lon="115.8006159"></trkpt>
      <trkpt lat="-31.6646127" lon="115.8005936"></trkpt>
      <trkpt lat="-31.6646283" lon="115.8005689"></trkpt>
      <trkpt lat="-31.6646418" lon="115.8005430"></trkpt>
      <trkpt lat="-31.6646526" lon="115.8005168"></trkpt>
      <trkpt lat="-31.6646608" lon="115.8004899"></trkpt>
      <trkpt lat="-31.6646660" lon="115.8004637"></trkpt>
      <trkpt lat="-31.6646681" lon="115.8004364"></trkpt>
      <trkpt lat="-31.6646658" lon="115.8004013"></trkpt>
      <trkpt lat="-31.6646595" lon="115.8003668"></trkpt>
      <trkpt lat="-31.6646508" lon="115.8003415"></trkpt>
      <trkpt lat="-31.6646400" lon="115.8003178"></trkpt>
      <trkpt lat="-31.6646139" lon="115.8002699"></trkpt>
      <trkpt lat="-31.6645924" lon="115.8002210"></trkpt>
      <trkpt lat="-31.6645833" lon="115.8001884"></trkpt>
      <trkpt lat="-31.6645778" lon="115.8001542"></trkpt>
      <trkpt lat="-31.6645777" lon="115.8001218"></trkpt>
      <trkpt lat="-31.6645821" lon="115.8000901"></trkpt>
      <trkpt lat="-31.6645906" lon="115.8000613"></trkpt>
      <trkpt lat="-31.6646050" lon="115.8000308"></trkpt>
      <trkpt lat="-31.6646559" lon="115.7999596"></trkpt>
      <trkpt lat="-31.6647072" lon="115.7998896"></trkpt>
      <trkpt lat="-31.6647214" lon="115.7998619"></trkpt>
      <trkpt lat="-31.6647312" lon="115.7998362"></trkpt>
      <trkpt lat="-31.6647395" lon="115.7998082"></trkpt>
      <trkpt lat="-31.6647450" lon="115.7997797"></trkpt>
      <trkpt lat="-31.6647475" lon="115.7997520"></trkpt>
      <trkpt lat="-31.6647472" lon="115.7997244"></trkpt>
      <trkpt lat="-31.6647441" lon="115.7996968"></trkpt>
      <trkpt lat="-31.6647383" lon="115.7996697"></trkpt>
      <trkpt lat="-31.6647302" lon="115.7996435"></trkpt>
      <trkpt lat="-31.6647195" lon="115.7996186"></trkpt>
      <trkpt lat="-31.6647058" lon="115.7995952"></trkpt>
      <trkpt lat="-31.6646896" lon="115.7995740"></trkpt>
      <trkpt lat="-31.6646709" lon="115.7995551"></trkpt>
      <trkpt lat="-31.6646503" lon="115.7995389"></trkpt>
      <trkpt lat="-31.6646279" lon="115.7995253"></trkpt>
      <trkpt lat="-31.6646042" lon="115.7995144"></trkpt>
      <trkpt lat="-31.6645817" lon="115.7995064"></trkpt>
      <trkpt lat="-31.6645534" lon="115.7995006"></trkpt>
      <trkpt lat="-31.6642652" lon="115.7994916"></trkpt>
      <trkpt lat="-31.6639841" lon="115.7994918"></trkpt>
      <trkpt lat="-31.6636014" lon="115.7994921"></trkpt>
      <trkpt lat="-31.6635317" lon="115.7994993"></trkpt>
      <trkpt lat="-31.6634639" lon="115.7995169"></trkpt>
      <trkpt lat="-31.6634015" lon="115.7995442"></trkpt>
      <trkpt lat="-31.6633464" lon="115.7995809"></trkpt>
      <trkpt lat="-31.6633222" lon="115.7996026"></trkpt>
      <trkpt lat="-31.6633000" lon="115.7996267"></trkpt>
      <trkpt lat="-31.6632802" lon="115.7996529"></trkpt>
      <trkpt lat="-31.6632625" lon="115.7996812"></trkpt>
      <trkpt lat="-31.6632470" lon="115.7997115"></trkpt>
      <trkpt lat="-31.6632337" lon="115.7997433"></trkpt>
      <trkpt lat="-31.6632223" lon="115.7997756"></trkpt>
      <trkpt lat="-31.6632142" lon="115.7998103"></trkpt>
      <trkpt lat="-31.6632056" lon="115.7998907"></trkpt>
      <trkpt lat="-31.6632039" lon="115.7999891"></trkpt>
      <trkpt lat="-31.6632033" lon="115.8001173"></trkpt>
      <trkpt lat="-31.6632061" lon="115.8002486"></trkpt>
      <trkpt lat="-31.6632254" lon="115.8005045"></trkpt>
      <trkpt lat="-31.6632361" lon="115.8005617"></trkpt>
      <trkpt lat="-31.6632437" lon="115.8005879"></trkpt>
      <trkpt lat="-31.6632535" lon="115.8006136"></trkpt>
      <trkpt lat="-31.6632681" lon="115.8006435"></trkpt>
      <trkpt lat="-31.6632853" lon="115.8006720"></trkpt>
      <trkpt lat="-31.6633037" lon="115.8006963"></trkpt>
      <trkpt lat="-31.6633239" lon="115.8007175"></trkpt>
      <trkpt lat="-31.6633452" lon="115.8007343"></trkpt>
      <trkpt lat="-31.6633677" lon="115.8007471"></trkpt>
      <trkpt lat="-31.6633825" lon="115.8007528"></trkpt>
      <trkpt lat="-31.6633978" lon="115.8007565"></trkpt>
      <trkpt lat="-31.6634134" lon="115.8007577"></trkpt>
      <trkpt lat="-31.6634316" lon="115.8007559"></trkpt>
      <trkpt lat="-31.6634503" lon="115.8007510"></trkpt>
      <trkpt lat="-31.6634673" lon="115.8007429"></trkpt>
      <trkpt lat="-31.6634783" lon="115.8007346"></trkpt>
      <trkpt lat="-31.6634885" lon="115.8007244"></trkpt>
      <trkpt lat="-31.6634976" lon="115.8007127"></trkpt>
      <trkpt lat="-31.6635049" lon="115.8007002"></trkpt>
      <trkpt lat="-31.6635120" lon="115.8006813"></trkpt>
      <trkpt lat="-31.6635163" lon="115.8006606"></trkpt>
      <trkpt lat="-31.6635181" lon="115.8006402"></trkpt>
      <trkpt lat="-31.6635175" lon="115.8006224"></trkpt>
      <trkpt lat="-31.6635148" lon="115.8006050"></trkpt>
      <trkpt lat="-31.6635104" lon="115.8005881"></trkpt>
      <trkpt lat="-31.6635003" lon="115.8005632"></trkpt>
      <trkpt lat="-31.6634870" lon="115.8005398"></trkpt>
      <trkpt lat="-31.6634697" lon="115.8005181"></trkpt>
      <trkpt lat="-31.6634515" lon="115.8004964"></trkpt>
      <trkpt lat="-31.6634343" lon="115.8004709"></trkpt>
      <trkpt lat="-31.6634188" lon="115.8004434"></trkpt>
      <trkpt lat="-31.6634054" lon="115.8004116"></trkpt>
      <trkpt lat="-31.6633947" lon="115.8003792"></trkpt>
      <trkpt lat="-31.6633835" lon="115.8003255"></trkpt>
      <trkpt lat="-31.6633733" lon="115.8002086"></trkpt>
      <trkpt lat="-31.6633692" lon="115.8000896"></trkpt>
      <trkpt lat="-31.6633761" lon="115.8000269"></trkpt>
      <trkpt lat="-31.6633903" lon="115.7999648"></trkpt>
      <trkpt lat="-31.6634133" lon="115.7999050"></trkpt>
      <trkpt lat="-31.6634429" lon="115.7998482"></trkpt>
      <trkpt lat="-31.6634787" lon="115.7997990"></trkpt>
      <trkpt lat="-31.6634989" lon="115.7997777"></trkpt>
      <trkpt lat="-31.6635206" lon="115.7997587"></trkpt>
      <trkpt lat="-31.6635435" lon="115.7997423"></trkpt>
      <trkpt lat="-31.6635676" lon="115.7997284"></trkpt>
      <trkpt lat="-31.6635924" lon="115.7997173"></trkpt>
      <trkpt lat="-31.6636180" lon="115.7997089"></trkpt>
      <trkpt lat="-31.6636714" lon="115.7997003"></trkpt>
      <trkpt lat="-31.6639752" lon="115.7996824"></trkpt>
      <trkpt lat="-31.6642783" lon="115.7996804"></trkpt>
      <trkpt lat="-31.6643088" lon="115.7996868"></trkpt>
      <trkpt lat="-31.6643307" lon="115.7996965"></trkpt>
      <trkpt lat="-31.6643455" lon="115.7997046"></trkpt>
      <trkpt lat="-31.6643593" lon="115.7997143"></trkpt>
      <trkpt lat="-31.6643717" lon="115.7997261"></trkpt>
      <trkpt lat="-31.6643835" lon="115.7997415"></trkpt>
      <trkpt lat="-31.6643938" lon="115.7997593"></trkpt>
      <trkpt lat="-31.6644009" lon="115.7997781"></trkpt>
      <trkpt lat="-31.6644038" lon="115.7997924"></trkpt>
      <trkpt lat="-31.6644050" lon="115.7998075"></trkpt>
      <trkpt lat="-31.6644046" lon="115.7998226"></trkpt>
      <trkpt lat="-31.6644024" lon="115.7998370"></trkpt>
      <trkpt lat="-31.6643968" lon="115.7998549"></trkpt>
      <trkpt lat="-31.6643881" lon="115.7998719"></trkpt>
      <trkpt lat="-31.6643762" lon="115.7998885"></trkpt>
      <trkpt lat="-31.6643502" lon="115.7999106"></trkpt>
      <trkpt lat="-31.6643180" lon="115.7999318"></trkpt>
      <trkpt lat="-31.6642912" lon="115.7999537"></trkpt>
      <trkpt lat="-31.6642782" lon="115.7999702"></trkpt>
      <trkpt lat="-31.6642680" lon="115.7999871"></trkpt>
      <trkpt lat="-31.6642604" lon="115.8000052"></trkpt>
      <trkpt lat="-31.6642551" lon="115.8000250"></trkpt>
      <trkpt lat="-31.6642523" lon="115.8000460"></trkpt>
      <trkpt lat="-31.6642523" lon="115.8000667"></trkpt>
      <trkpt lat="-31.6642554" lon="115.8000875"></trkpt>
    </trkseg>
  </trk>
</gpx>
