<?xml version="1.0" encoding="UTF-8"?>
<gpx version="1.1" creator="tkk2gpx (Aus_Kart.ztracks converter)"
     xmlns="http://www.topografix.com/GPX/1/1"
     xmlns:xsi="http://www.w3.org/2001/XMLSchema-instance"
     xsi:schemaLocation="http://www.topografix.com/GPX/1/1 http://www.topografix.com/GPX/1/1/gpx.xsd">
  <metadata>
    <name>Oakleigh-New</name>
    <desc>Kart track, VIC AU. One lap starting and ending at the Start/Finish line. Declared length 971 m.</desc>
  </metadata>
  <wpt lat="-37.9533845" lon="145.1200369">
    <name>Start/Finish</name>
    <desc>Start/Finish line location</desc>
    <sym>Flag, Checkered</sym>
  </wpt>
  <trk>
    <name>Oakleigh-New - 1 lap</name>
    <trkseg>
      <trkpt lat="-37.9533943" lon="145.1200407"></trkpt>
      <trkpt lat="-37.9533967" lon="145.1200967"></trkpt>
      <trkpt lat="-37.9534246" lon="145.1202130"></trkpt>
      <trkpt lat="-37.9534521" lon="145.1203167"></trkpt>
      <trkpt lat="-37.9534545" lon="145.1203360"></trkpt>
      <trkpt lat="-37.9534543" lon="145.1203530"></trkpt>
      <trkpt lat="-37.9534490" lon="145.1203891"></trkpt>
      <trkpt lat="-37.9534399" lon="145.1204241"></trkpt>
      <trkpt lat="-37.9534326" lon="145.1204406"></trkpt>
      <trkpt lat="-37.9534232" lon="145.1204553"></trkpt>
      <trkpt lat="-37.9534027" lon="145.1204799"></trkpt>
      <trkpt lat="-37.9533827" lon="145.1204992"></trkpt>
      <trkpt lat="-37.9533779" lon="145.1205024"></trkpt>
      <trkpt lat="-37.9533725" lon="145.1205044"></trkpt>
      <trkpt lat="-37.9532992" lon="145.1205177"></trkpt>
      <trkpt lat="-37.9532267" lon="145.1205270"></trkpt>
      <trkpt lat="-37.9531595" lon="145.1205411"></trkpt>
      <trkpt lat="-37.9531432" lon="145.1205489"></trkpt>
      <trkpt lat="-37.9531301" lon="145.1205578"></trkpt>
      <trkpt lat="-37.9531189" lon="145.1205693"></trkpt>
      <trkpt lat="-37.9531112" lon="145.1205807"></trkpt>
      <trkpt lat="-37.9531044" lon="145.1205940"></trkpt>
      <trkpt lat="-37.9530990" lon="145.1206078"></trkpt>
      <trkpt lat="-37.9530954" lon="145.1206210"></trkpt>
      <trkpt lat="-37.9530938" lon="145.1206308"></trkpt>
      <trkpt lat="-37.9530933" lon="145.1206404"></trkpt>
      <trkpt lat="-37.9530939" lon="145.1206499"></trkpt>
      <trkpt lat="-37.9530956" lon="145.1206594"></trkpt>
      <trkpt lat="-37.9531013" lon="145.1206750"></trkpt>
      <trkpt lat="-37.9531096" lon="145.1206905"></trkpt>
      <trkpt lat="-37.9531185" lon="145.1207029"></trkpt>
      <trkpt lat="-37.9531246" lon="145.1207091"></trkpt>
      <trkpt lat="-37.9531310" lon="145.1207136"></trkpt>
      <trkpt lat="-37.9531390" lon="145.1207177"></trkpt>
      <trkpt lat="-37.9531688" lon="145.1207288"></trkpt>
      <trkpt lat="-37.9532072" lon="145.1207352"></trkpt>
      <trkpt lat="-37.9532792" lon="145.1207257"></trkpt>
      <trkpt lat="-37.9533612" lon="145.1207090"></trkpt>
      <trkpt lat="-37.9535531" lon="145.1206854"></trkpt>
      <trkpt lat="-37.9537675" lon="145.1207271"></trkpt>
      <trkpt lat="-37.9539182" lon="145.1207512"></trkpt>
      <trkpt lat="-37.9539840" lon="145.1207495"></trkpt>
      <trkpt lat="-37.9540477" lon="145.1207399"></trkpt>
      <trkpt lat="-37.9541096" lon="145.1207231"></trkpt>
      <trkpt lat="-37.9541677" lon="145.1206985"></trkpt>
      <trkpt lat="-37.9542143" lon="145.1206690"></trkpt>
      <trkpt lat="-37.9542556" lon="145.1206329"></trkpt>
      <trkpt lat="-37.9542901" lon="145.1205919"></trkpt>
      <trkpt lat="-37.9543196" lon="145.1205456"></trkpt>
      <trkpt lat="-37.9543441" lon="145.1204945"></trkpt>
      <trkpt lat="-37.9543635" lon="145.1204385"></trkpt>
      <trkpt lat="-37.9543785" lon="145.1203707"></trkpt>
      <trkpt lat="-37.9543877" lon="145.1202980"></trkpt>
      <trkpt lat="-37.9543905" lon="145.1201276"></trkpt>
      <trkpt lat="-37.9543733" lon="145.1199139"></trkpt>
      <trkpt lat="-37.9543455" lon="145.1197052"></trkpt>
      <trkpt lat="-37.9543278" lon="145.1196248"></trkpt>
      <trkpt lat="-37.9543064" lon="145.1195592"></trkpt>
      <trkpt lat="-37.9542834" lon="145.1195074"></trkpt>
      <trkpt lat="-37.9542552" lon="145.1194621"></trkpt>
      <trkpt lat="-37.9542180" lon="145.1194214"></trkpt>
      <trkpt lat="-37.9541752" lon="145.1193875"></trkpt>
      <trkpt lat="-37.9541268" lon="145.1193588"></trkpt>
      <trkpt lat="-37.9540743" lon="145.1193380"></trkpt>
      <trkpt lat="-37.9540138" lon="145.1193263"></trkpt>
      <trkpt lat="-37.9539473" lon="145.1193227"></trkpt>
      <trkpt lat="-37.9537182" lon="145.1193445"></trkpt>
      <trkpt lat="-37.9533983" lon="145.1193994"></trkpt>
      <trkpt lat="-37.9529923" lon="145.1194691"></trkpt>
      <trkpt lat="-37.9527377" lon="145.1194426"></trkpt>
      <trkpt lat="-37.9526032" lon="145.1194389"></trkpt>
      <trkpt lat="-37.9525540" lon="145.1194493"></trkpt>
      <trkpt lat="-37.9525094" lon="145.1194672"></trkpt>
      <trkpt lat="-37.9524815" lon="145.1194844"></trkpt>
      <trkpt lat="-37.9524555" lon="145.1195049"></trkpt>
      <trkpt lat="-37.9524385" lon="145.1195227"></trkpt>
      <trkpt lat="-37.9524239" lon="145.1195424"></trkpt>
      <trkpt lat="-37.9524101" lon="145.1195658"></trkpt>
      <trkpt lat="-37.9523984" lon="145.1195911"></trkpt>
      <trkpt lat="-37.9523895" lon="145.1196171"></trkpt>
      <trkpt lat="-37.9523832" lon="145.1196439"></trkpt>
      <trkpt lat="-37.9523795" lon="145.1196709"></trkpt>
      <trkpt lat="-37.9523785" lon="145.1196979"></trkpt>
      <trkpt lat="-37.9523802" lon="145.1197234"></trkpt>
      <trkpt lat="-37.9523844" lon="145.1197479"></trkpt>
      <trkpt lat="-37.9523908" lon="145.1197696"></trkpt>
      <trkpt lat="-37.9523995" lon="145.1197899"></trkpt>
      <trkpt lat="-37.9524115" lon="145.1198097"></trkpt>
      <trkpt lat="-37.9524259" lon="145.1198275"></trkpt>
      <trkpt lat="-37.9524428" lon="145.1198435"></trkpt>
      <trkpt lat="-37.9524612" lon="145.1198560"></trkpt>
      <trkpt lat="-37.9524731" lon="145.1198616"></trkpt>
      <trkpt lat="-37.9524854" lon="145.1198655"></trkpt>
      <trkpt lat="-37.9524984" lon="145.1198672"></trkpt>
      <trkpt lat="-37.9525246" lon="145.1198639"></trkpt>
      <trkpt lat="-37.9525508" lon="145.1198559"></trkpt>
      <trkpt lat="-37.9525891" lon="145.1198369"></trkpt>
      <trkpt lat="-37.9527491" lon="145.1197526"></trkpt>
      <trkpt lat="-37.9527759" lon="145.1197436"></trkpt>
      <trkpt lat="-37.9528004" lon="145.1197389"></trkpt>
      <trkpt lat="-37.9528338" lon="145.1197359"></trkpt>
      <trkpt lat="-37.9528677" lon="145.1197377"></trkpt>
      <trkpt lat="-37.9528964" lon="145.1197443"></trkpt>
      <trkpt lat="-37.9529271" lon="145.1197577"></trkpt>
      <trkpt lat="-37.9530013" lon="145.1198118"></trkpt>
      <trkpt lat="-37.9530727" lon="145.1198636"></trkpt>
      <trkpt lat="-37.9530954" lon="145.1198724"></trkpt>
      <trkpt lat="-37.9531153" lon="145.1198756"></trkpt>
      <trkpt lat="-37.9531356" lon="145.1198754"></trkpt>
      <trkpt lat="-37.9531558" lon="145.1198714"></trkpt>
      <trkpt lat="-37.9531758" lon="145.1198639"></trkpt>
      <trkpt lat="-37.9531983" lon="145.1198509"></trkpt>
      <trkpt lat="-37.9532626" lon="145.1197951"></trkpt>
      <trkpt lat="-37.9533333" lon="145.1197346"></trkpt>
      <trkpt lat="-37.9534240" lon="145.1196887"></trkpt>
      <trkpt lat="-37.9535274" lon="145.1196522"></trkpt>
      <trkpt lat="-37.9537012" lon="145.1196077"></trkpt>
      <trkpt lat="-37.9538612" lon="145.1195829"></trkpt>
      <trkpt lat="-37.9539130" lon="145.1195838"></trkpt>
      <trkpt lat="-37.9539447" lon="145.1195902"></trkpt>
      <trkpt lat="-37.9539758" lon="145.1196017"></trkpt>
      <trkpt lat="-37.9540016" lon="145.1196179"></trkpt>
      <trkpt lat="-37.9540255" lon="145.1196402"></trkpt>
      <trkpt lat="-37.9540539" lon="145.1196791"></trkpt>
      <trkpt lat="-37.9540788" lon="145.1197233"></trkpt>
      <trkpt lat="-37.9540954" lon="145.1197611"></trkpt>
      <trkpt lat="-37.9541091" lon="145.1198004"></trkpt>
      <trkpt lat="-37.9541342" lon="145.1198927"></trkpt>
      <trkpt lat="-37.9541645" lon="145.1200560"></trkpt>
      <trkpt lat="-37.9541812" lon="145.1202112"></trkpt>
      <trkpt lat="-37.9541808" lon="145.1202560"></trkpt>
      <trkpt lat="-37.9541778" lon="145.1202917"></trkpt>
      <trkpt lat="-37.9541726" lon="145.1203161"></trkpt>
      <trkpt lat="-37.9541582" lon="145.1203593"></trkpt>
      <trkpt lat="-37.9541492" lon="145.1203809"></trkpt>
      <trkpt lat="-37.9541371" lon="145.1204027"></trkpt>
      <trkpt lat="-37.9541071" lon="145.1204392"></trkpt>
      <trkpt lat="-37.9540744" lon="145.1204704"></trkpt>
      <trkpt lat="-37.9540587" lon="145.1204809"></trkpt>
      <trkpt lat="-37.9540426" lon="145.1204881"></trkpt>
      <trkpt lat="-37.9540145" lon="145.1204965"></trkpt>
      <trkpt lat="-37.9539872" lon="145.1205014"></trkpt>
      <trkpt lat="-37.9539638" lon="145.1205008"></trkpt>
      <trkpt lat="-37.9538360" lon="145.1204761"></trkpt>
      <trkpt lat="-37.9537842" lon="145.1204600"></trkpt>
      <trkpt lat="-37.9537368" lon="145.1204374"></trkpt>
      <trkpt lat="-37.9536948" lon="145.1204029"></trkpt>
      <trkpt lat="-37.9536620" lon="145.1203667"></trkpt>
      <trkpt lat="-37.9536517" lon="145.1203513"></trkpt>
      <trkpt lat="-37.9536440" lon="145.1203352"></trkpt>
      <trkpt lat="-37.9536331" lon="145.1203078"></trkpt>
      <trkpt lat="-37.9536245" lon="145.1202765"></trkpt>
      <trkpt lat="-37.9536208" lon="145.1202380"></trkpt>
      <trkpt lat="-37.9536207" lon="145.1201994"></trkpt>
      <trkpt lat="-37.9536262" lon="145.1201432"></trkpt>
      <trkpt lat="-37.9536432" lon="145.1200664"></trkpt>
      <trkpt lat="-37.9536580" lon="145.1199867"></trkpt>
      <trkpt lat="-37.9536587" lon="145.1199585"></trkpt>
      <trkpt lat="-37.9536569" lon="145.1199332"></trkpt>
      <trkpt lat="-37.9536533" lon="145.1199108"></trkpt>
      <trkpt lat="-37.9536496" lon="145.1198961"></trkpt>
      <trkpt lat="-37.9536448" lon="145.1198831"></trkpt>
      <trkpt lat="-37.9536381" lon="145.1198707"></trkpt>
      <trkpt lat="-37.9536258" lon="145.1198546"></trkpt>
      <trkpt lat="-37.9536106" lon="145.1198395"></trkpt>
      <trkpt lat="-37.9535958" lon="145.1198286"></trkpt>
      <trkpt lat="-37.9535861" lon="145.1198244"></trkpt>
      <trkpt lat="-37.9535766" lon="145.1198226"></trkpt>
      <trkpt lat="-37.9535667" lon="145.1198219"></trkpt>
      <trkpt lat="-37.9535484" lon="145.1198228"></trkpt>
      <trkpt lat="-37.9535297" lon="145.1198268"></trkpt>
      <trkpt lat="-37.9535106" lon="145.1198342"></trkpt>
      <trkpt lat="-37.9534919" lon="145.1198448"></trkpt>
      <trkpt lat="-37.9534726" lon="145.1198600"></trkpt>
      <trkpt lat="-37.9534544" lon="145.1198785"></trkpt>
      <trkpt lat="-37.9534376" lon="145.1199001"></trkpt>
      <trkpt lat="-37.9534230" lon="145.1199237"></trkpt>
      <trkpt lat="-37.9534116" lon="145.1199483"></trkpt>
      <trkpt lat="-37.9534031" lon="145.1199718"></trkpt>
      <trkpt lat="-37.9533996" lon="145.1199839"></trkpt>
      <trkpt lat="-37.9533973" lon="145.1199974"></trkpt>
      <trkpt lat="-37.9533943" lon="145.1200407"></trkpt>
    </trkseg>
  </trk>
</gpx>
