<?xml version="1.0" encoding="UTF-8"?>
<gpx version="1.1" creator="tkk2gpx (Aus_Kart.ztracks converter)"
     xmlns="http://www.topografix.com/GPX/1/1"
     xmlns:xsi="http://www.w3.org/2001/XMLSchema-instance"
     xsi:schemaLocation="http://www.topografix.com/GPX/1/1 http://www.topografix.com/GPX/1/1/gpx.xsd">
  <metadata>
    <name>RockhamptonK</name>
    <desc>Kart track, QLD AU. One lap starting and ending at the Start/Finish line. Declared length 846 m.</desc>
  </metadata>
  <wpt lat="-23.5869742" lon="150.5803467">
    <name>Start/Finish</name>
    <desc>Start/Finish line location</desc>
    <sym>Flag, Checkered</sym>
  </wpt>
  <trk>
    <name>RockhamptonK - 1 lap</name>
    <trkseg>
      <trkpt lat="-23.5869799" lon="150.5802621"></trkpt>
      <trkpt lat="-23.5869138" lon="150.5805702"></trkpt>
      <trkpt lat="-23.5869045" lon="150.5806562"></trkpt>
      <trkpt lat="-23.5869026" lon="150.5807337"></trkpt>
      <trkpt lat="-23.5869072" lon="150.5808019"></trkpt>
      <trkpt lat="-23.5869172" lon="150.5808650"></trkpt>
      <trkpt lat="-23.5869294" lon="150.5809125"></trkpt>
      <trkpt lat="-23.5869454" lon="150.5809565"></trkpt>
      <trkpt lat="-23.5869647" lon="150.5809978"></trkpt>
      <trkpt lat="-23.5869877" lon="150.5810362"></trkpt>
      <trkpt lat="-23.5870133" lon="150.5810698"></trkpt>
      <trkpt lat="-23.5870421" lon="150.5810993"></trkpt>
      <trkpt lat="-23.5870730" lon="150.5811231"></trkpt>
      <trkpt lat="-23.5871062" lon="150.5811420"></trkpt>
      <trkpt lat="-23.5871404" lon="150.5811550"></trkpt>
      <trkpt lat="-23.5871757" lon="150.5811627"></trkpt>
      <trkpt lat="-23.5872104" lon="150.5811647"></trkpt>
      <trkpt lat="-23.5872446" lon="150.5811613"></trkpt>
      <trkpt lat="-23.5872771" lon="150.5811522"></trkpt>
      <trkpt lat="-23.5873078" lon="150.5811378"></trkpt>
      <trkpt lat="-23.5873366" lon="150.5811178"></trkpt>
      <trkpt lat="-23.5873627" lon="150.5810933"></trkpt>
      <trkpt lat="-23.5873862" lon="150.5810645"></trkpt>
      <trkpt lat="-23.5874067" lon="150.5810310"></trkpt>
      <trkpt lat="-23.5874274" lon="150.5809866"></trkpt>
      <trkpt lat="-23.5874461" lon="150.5809282"></trkpt>
      <trkpt lat="-23.5874943" lon="150.5806835"></trkpt>
      <trkpt lat="-23.5875261" lon="150.5804436"></trkpt>
      <trkpt lat="-23.5875269" lon="150.5803963"></trkpt>
      <trkpt lat="-23.5875236" lon="150.5803693"></trkpt>
      <trkpt lat="-23.5875167" lon="150.5803430"></trkpt>
      <trkpt lat="-23.5875092" lon="150.5803264"></trkpt>
      <trkpt lat="-23.5874999" lon="150.5803106"></trkpt>
      <trkpt lat="-23.5874892" lon="150.5802977"></trkpt>
      <trkpt lat="-23.5874791" lon="150.5802895"></trkpt>
      <trkpt lat="-23.5874681" lon="150.5802833"></trkpt>
      <trkpt lat="-23.5874564" lon="150.5802791"></trkpt>
      <trkpt lat="-23.5874430" lon="150.5802765"></trkpt>
      <trkpt lat="-23.5874289" lon="150.5802761"></trkpt>
      <trkpt lat="-23.5874151" lon="150.5802778"></trkpt>
      <trkpt lat="-23.5874014" lon="150.5802821"></trkpt>
      <trkpt lat="-23.5873881" lon="150.5802888"></trkpt>
      <trkpt lat="-23.5873760" lon="150.5802966"></trkpt>
      <trkpt lat="-23.5873622" lon="150.5803090"></trkpt>
      <trkpt lat="-23.5873500" lon="150.5803237"></trkpt>
      <trkpt lat="-23.5873369" lon="150.5803435"></trkpt>
      <trkpt lat="-23.5873260" lon="150.5803647"></trkpt>
      <trkpt lat="-23.5873197" lon="150.5803826"></trkpt>
      <trkpt lat="-23.5873151" lon="150.5804008"></trkpt>
      <trkpt lat="-23.5873079" lon="150.5804422"></trkpt>
      <trkpt lat="-23.5873023" lon="150.5805173"></trkpt>
      <trkpt lat="-23.5872930" lon="150.5805932"></trkpt>
      <trkpt lat="-23.5872869" lon="150.5806120"></trkpt>
      <trkpt lat="-23.5872796" lon="150.5806274"></trkpt>
      <trkpt lat="-23.5872708" lon="150.5806411"></trkpt>
      <trkpt lat="-23.5872606" lon="150.5806533"></trkpt>
      <trkpt lat="-23.5872490" lon="150.5806639"></trkpt>
      <trkpt lat="-23.5872365" lon="150.5806725"></trkpt>
      <trkpt lat="-23.5872230" lon="150.5806788"></trkpt>
      <trkpt lat="-23.5872087" lon="150.5806832"></trkpt>
      <trkpt lat="-23.5871943" lon="150.5806850"></trkpt>
      <trkpt lat="-23.5871802" lon="150.5806843"></trkpt>
      <trkpt lat="-23.5871662" lon="150.5806812"></trkpt>
      <trkpt lat="-23.5871532" lon="150.5806758"></trkpt>
      <trkpt lat="-23.5871417" lon="150.5806679"></trkpt>
      <trkpt lat="-23.5871313" lon="150.5806578"></trkpt>
      <trkpt lat="-23.5871224" lon="150.5806463"></trkpt>
      <trkpt lat="-23.5871152" lon="150.5806335"></trkpt>
      <trkpt lat="-23.5871096" lon="150.5806192"></trkpt>
      <trkpt lat="-23.5871056" lon="150.5806036"></trkpt>
      <trkpt lat="-23.5871029" lon="150.5805842"></trkpt>
      <trkpt lat="-23.5871026" lon="150.5805630"></trkpt>
      <trkpt lat="-23.5871051" lon="150.5805363"></trkpt>
      <trkpt lat="-23.5871982" lon="150.5802028"></trkpt>
      <trkpt lat="-23.5872745" lon="150.5799129"></trkpt>
      <trkpt lat="-23.5872837" lon="150.5798466"></trkpt>
      <trkpt lat="-23.5872859" lon="150.5797890"></trkpt>
      <trkpt lat="-23.5872826" lon="150.5797430"></trkpt>
      <trkpt lat="-23.5872745" lon="150.5796997"></trkpt>
      <trkpt lat="-23.5872615" lon="150.5796577"></trkpt>
      <trkpt lat="-23.5872325" lon="150.5795959"></trkpt>
      <trkpt lat="-23.5872171" lon="150.5795743"></trkpt>
      <trkpt lat="-23.5871921" lon="150.5795467"></trkpt>
      <trkpt lat="-23.5871626" lon="150.5795218"></trkpt>
      <trkpt lat="-23.5871307" lon="150.5795032"></trkpt>
      <trkpt lat="-23.5870964" lon="150.5794895"></trkpt>
      <trkpt lat="-23.5870608" lon="150.5794812"></trkpt>
      <trkpt lat="-23.5870228" lon="150.5794777"></trkpt>
      <trkpt lat="-23.5869744" lon="150.5794795"></trkpt>
      <trkpt lat="-23.5869193" lon="150.5794875"></trkpt>
      <trkpt lat="-23.5867028" lon="150.5795449"></trkpt>
      <trkpt lat="-23.5866465" lon="150.5795695"></trkpt>
      <trkpt lat="-23.5865990" lon="150.5795970"></trkpt>
      <trkpt lat="-23.5865628" lon="150.5796239"></trkpt>
      <trkpt lat="-23.5865309" lon="150.5796538"></trkpt>
      <trkpt lat="-23.5865015" lon="150.5796878"></trkpt>
      <trkpt lat="-23.5864759" lon="150.5797249"></trkpt>
      <trkpt lat="-23.5864546" lon="150.5797640"></trkpt>
      <trkpt lat="-23.5864373" lon="150.5798068"></trkpt>
      <trkpt lat="-23.5864214" lon="150.5798639"></trkpt>
      <trkpt lat="-23.5864219" lon="150.5799349"></trkpt>
      <trkpt lat="-23.5864303" lon="150.5801955"></trkpt>
      <trkpt lat="-23.5864375" lon="150.5804075"></trkpt>
      <trkpt lat="-23.5864563" lon="150.5809649"></trkpt>
      <trkpt lat="-23.5864631" lon="150.5810815"></trkpt>
      <trkpt lat="-23.5864693" lon="150.5811062"></trkpt>
      <trkpt lat="-23.5864749" lon="150.5811213"></trkpt>
      <trkpt lat="-23.5864823" lon="150.5811364"></trkpt>
      <trkpt lat="-23.5865011" lon="150.5811643"></trkpt>
      <trkpt lat="-23.5865231" lon="150.5811896"></trkpt>
      <trkpt lat="-23.5865324" lon="150.5811972"></trkpt>
      <trkpt lat="-23.5865416" lon="150.5812029"></trkpt>
      <trkpt lat="-23.5865519" lon="150.5812075"></trkpt>
      <trkpt lat="-23.5865667" lon="150.5812121"></trkpt>
      <trkpt lat="-23.5865830" lon="150.5812151"></trkpt>
      <trkpt lat="-23.5865992" lon="150.5812157"></trkpt>
      <trkpt lat="-23.5866150" lon="150.5812137"></trkpt>
      <trkpt lat="-23.5866306" lon="150.5812093"></trkpt>
      <trkpt lat="-23.5866454" lon="150.5812029"></trkpt>
      <trkpt lat="-23.5866664" lon="150.5811888"></trkpt>
      <trkpt lat="-23.5866844" lon="150.5811719"></trkpt>
      <trkpt lat="-23.5866955" lon="150.5811574"></trkpt>
      <trkpt lat="-23.5867043" lon="150.5811426"></trkpt>
      <trkpt lat="-23.5867105" lon="150.5811300"></trkpt>
      <trkpt lat="-23.5867155" lon="150.5811172"></trkpt>
      <trkpt lat="-23.5867232" lon="150.5810887"></trkpt>
      <trkpt lat="-23.5867279" lon="150.5810523"></trkpt>
      <trkpt lat="-23.5867279" lon="150.5810024"></trkpt>
      <trkpt lat="-23.5866356" lon="150.5802128"></trkpt>
      <trkpt lat="-23.5866379" lon="150.5801530"></trkpt>
      <trkpt lat="-23.5866460" lon="150.5801087"></trkpt>
      <trkpt lat="-23.5866506" lon="150.5800914"></trkpt>
      <trkpt lat="-23.5866570" lon="150.5800739"></trkpt>
      <trkpt lat="-23.5866710" lon="150.5800451"></trkpt>
      <trkpt lat="-23.5866897" lon="150.5800168"></trkpt>
      <trkpt lat="-23.5867153" lon="150.5799926"></trkpt>
      <trkpt lat="-23.5867402" lon="150.5799752"></trkpt>
      <trkpt lat="-23.5867490" lon="150.5799710"></trkpt>
      <trkpt lat="-23.5867583" lon="150.5799684"></trkpt>
      <trkpt lat="-23.5867837" lon="150.5799631"></trkpt>
      <trkpt lat="-23.5868145" lon="150.5799597"></trkpt>
      <trkpt lat="-23.5868590" lon="150.5799593"></trkpt>
      <trkpt lat="-23.5869010" lon="150.5799640"></trkpt>
      <trkpt lat="-23.5869151" lon="150.5799681"></trkpt>
      <trkpt lat="-23.5869272" lon="150.5799735"></trkpt>
      <trkpt lat="-23.5869378" lon="150.5799807"></trkpt>
      <trkpt lat="-23.5869467" lon="150.5799898"></trkpt>
      <trkpt lat="-23.5869543" lon="150.5800006"></trkpt>
      <trkpt lat="-23.5869607" lon="150.5800125"></trkpt>
      <trkpt lat="-23.5869683" lon="150.5800344"></trkpt>
      <trkpt lat="-23.5869738" lon="150.5800587"></trkpt>
      <trkpt lat="-23.5869838" lon="150.5801183"></trkpt>
      <trkpt lat="-23.5869860" lon="150.5801855"></trkpt>
      <trkpt lat="-23.5869799" lon="150.5802621"></trkpt>
    </trkseg>
  </trk>
</gpx>
