<?xml version="1.0" encoding="UTF-8"?>
<gpx version="1.1" creator="tkk2gpx (Aus_Kart.ztracks converter)"
     xmlns="http://www.topografix.com/GPX/1/1"
     xmlns:xsi="http://www.w3.org/2001/XMLSchema-instance"
     xsi:schemaLocation="http://www.topografix.com/GPX/1/1 http://www.topografix.com/GPX/1/1/gpx.xsd">
  <metadata>
    <name>SPKP Var3</name>
    <desc>Kart track, NSW AU. One lap starting and ending at the Start/Finish line. Declared length 830 m.</desc>
  </metadata>
  <wpt lat="-33.8048403" lon="150.8817451">
    <name>Start/Finish</name>
    <desc>Start/Finish line location</desc>
    <sym>Flag, Checkered</sym>
  </wpt>
  <trk>
    <name>SPKP Var3 - 1 lap</name>
    <trkseg>
      <trkpt lat="-33.8048403" lon="150.8817451"></trkpt>
      <trkpt lat="-33.8048918" lon="150.8816428"></trkpt>
      <trkpt lat="-33.8049139" lon="150.8815758"></trkpt>
      <trkpt lat="-33.8049317" lon="150.8814991"></trkpt>
      <trkpt lat="-33.8049637" lon="150.8812231"></trkpt>
      <trkpt lat="-33.8049932" lon="150.8807665"></trkpt>
      <trkpt lat="-33.8049891" lon="150.8807110"></trkpt>
      <trkpt lat="-33.8049797" lon="150.8806661"></trkpt>
      <trkpt lat="-33.8049640" lon="150.8806214"></trkpt>
      <trkpt lat="-33.8049440" lon="150.8805818"></trkpt>
      <trkpt lat="-33.8049359" lon="150.8805685"></trkpt>
      <trkpt lat="-33.8049260" lon="150.8805559"></trkpt>
      <trkpt lat="-33.8049012" lon="150.8805332"></trkpt>
      <trkpt lat="-33.8048759" lon="150.8805146"></trkpt>
      <trkpt lat="-33.8048674" lon="150.8805103"></trkpt>
      <trkpt lat="-33.8048591" lon="150.8805076"></trkpt>
      <trkpt lat="-33.8048253" lon="150.8805007"></trkpt>
      <trkpt lat="-33.8047906" lon="150.8805001"></trkpt>
      <trkpt lat="-33.8047639" lon="150.8805052"></trkpt>
      <trkpt lat="-33.8047389" lon="150.8805151"></trkpt>
      <trkpt lat="-33.8047142" lon="150.8805298"></trkpt>
      <trkpt lat="-33.8046909" lon="150.8805495"></trkpt>
      <trkpt lat="-33.8046636" lon="150.8805817"></trkpt>
      <trkpt lat="-33.8046391" lon="150.8806208"></trkpt>
      <trkpt lat="-33.8046150" lon="150.8806752"></trkpt>
      <trkpt lat="-33.8045966" lon="150.8807350"></trkpt>
      <trkpt lat="-33.8045854" lon="150.8807942"></trkpt>
      <trkpt lat="-33.8045798" lon="150.8808643"></trkpt>
      <trkpt lat="-33.8045936" lon="150.8812939"></trkpt>
      <trkpt lat="-33.8045847" lon="150.8813748"></trkpt>
      <trkpt lat="-33.8045687" lon="150.8814443"></trkpt>
      <trkpt lat="-33.8045446" lon="150.8815151"></trkpt>
      <trkpt lat="-33.8045138" lon="150.8815787"></trkpt>
      <trkpt lat="-33.8044854" lon="150.8816187"></trkpt>
      <trkpt lat="-33.8044514" lon="150.8816550"></trkpt>
      <trkpt lat="-33.8043916" lon="150.8817024"></trkpt>
      <trkpt lat="-33.8043328" lon="150.8817532"></trkpt>
      <trkpt lat="-33.8043138" lon="150.8817795"></trkpt>
      <trkpt lat="-33.8043008" lon="150.8818057"></trkpt>
      <trkpt lat="-33.8042919" lon="150.8818331"></trkpt>
      <trkpt lat="-33.8042862" lon="150.8818590"></trkpt>
      <trkpt lat="-33.8042826" lon="150.8818872"></trkpt>
      <trkpt lat="-33.8042823" lon="150.8819307"></trkpt>
      <trkpt lat="-33.8042879" lon="150.8819740"></trkpt>
      <trkpt lat="-33.8042997" lon="150.8820144"></trkpt>
      <trkpt lat="-33.8043170" lon="150.8820556"></trkpt>
      <trkpt lat="-33.8043493" lon="150.8821134"></trkpt>
      <trkpt lat="-33.8043804" lon="150.8821723"></trkpt>
      <trkpt lat="-33.8043887" lon="150.8821962"></trkpt>
      <trkpt lat="-33.8043938" lon="150.8822182"></trkpt>
      <trkpt lat="-33.8044003" lon="150.8822654"></trkpt>
      <trkpt lat="-33.8044000" lon="150.8823266"></trkpt>
      <trkpt lat="-33.8043933" lon="150.8823918"></trkpt>
      <trkpt lat="-33.8043635" lon="150.8825461"></trkpt>
      <trkpt lat="-33.8043617" lon="150.8825887"></trkpt>
      <trkpt lat="-33.8043644" lon="150.8826279"></trkpt>
      <trkpt lat="-33.8043710" lon="150.8826673"></trkpt>
      <trkpt lat="-33.8043824" lon="150.8827068"></trkpt>
      <trkpt lat="-33.8044028" lon="150.8827548"></trkpt>
      <trkpt lat="-33.8044283" lon="150.8827996"></trkpt>
      <trkpt lat="-33.8044511" lon="150.8828294"></trkpt>
      <trkpt lat="-33.8044776" lon="150.8828555"></trkpt>
      <trkpt lat="-33.8045181" lon="150.8828847"></trkpt>
      <trkpt lat="-33.8045594" lon="150.8829083"></trkpt>
      <trkpt lat="-33.8046045" lon="150.8829255"></trkpt>
      <trkpt lat="-33.8046445" lon="150.8829357"></trkpt>
      <trkpt lat="-33.8048030" lon="150.8829521"></trkpt>
      <trkpt lat="-33.8052151" lon="150.8829620"></trkpt>
      <trkpt lat="-33.8052723" lon="150.8829749"></trkpt>
      <trkpt lat="-33.8053188" lon="150.8829940"></trkpt>
      <trkpt lat="-33.8053672" lon="150.8830215"></trkpt>
      <trkpt lat="-33.8054113" lon="150.8830562"></trkpt>
      <trkpt lat="-33.8054485" lon="150.8830982"></trkpt>
      <trkpt lat="-33.8054828" lon="150.8831475"></trkpt>
      <trkpt lat="-33.8055726" lon="150.8833032"></trkpt>
      <trkpt lat="-33.8055998" lon="150.8833359"></trkpt>
      <trkpt lat="-33.8056290" lon="150.8833624"></trkpt>
      <trkpt lat="-33.8056685" lon="150.8833904"></trkpt>
      <trkpt lat="-33.8057117" lon="150.8834123"></trkpt>
      <trkpt lat="-33.8057537" lon="150.8834244"></trkpt>
      <trkpt lat="-33.8057962" lon="150.8834284"></trkpt>
      <trkpt lat="-33.8058383" lon="150.8834227"></trkpt>
      <trkpt lat="-33.8058774" lon="150.8834100"></trkpt>
      <trkpt lat="-33.8059060" lon="150.8833949"></trkpt>
      <trkpt lat="-33.8059310" lon="150.8833757"></trkpt>
      <trkpt lat="-33.8059537" lon="150.8833523"></trkpt>
      <trkpt lat="-33.8059729" lon="150.8833255"></trkpt>
      <trkpt lat="-33.8059884" lon="150.8832959"></trkpt>
      <trkpt lat="-33.8059999" lon="150.8832630"></trkpt>
      <trkpt lat="-33.8060084" lon="150.8832187"></trkpt>
      <trkpt lat="-33.8060110" lon="150.8831703"></trkpt>
      <trkpt lat="-33.8060054" lon="150.8831112"></trkpt>
      <trkpt lat="-33.8059928" lon="150.8830507"></trkpt>
      <trkpt lat="-33.8059746" lon="150.8829906"></trkpt>
      <trkpt lat="-33.8059509" lon="150.8829319"></trkpt>
      <trkpt lat="-33.8059220" lon="150.8828750"></trkpt>
      <trkpt lat="-33.8058878" lon="150.8828211"></trkpt>
      <trkpt lat="-33.8058481" lon="150.8827707"></trkpt>
      <trkpt lat="-33.8058032" lon="150.8827252"></trkpt>
      <trkpt lat="-33.8057539" lon="150.8826868"></trkpt>
      <trkpt lat="-33.8056991" lon="150.8826539"></trkpt>
      <trkpt lat="-33.8056310" lon="150.8826234"></trkpt>
      <trkpt lat="-33.8055566" lon="150.8825992"></trkpt>
      <trkpt lat="-33.8053974" lon="150.8825770"></trkpt>
      <trkpt lat="-33.8053632" lon="150.8825742"></trkpt>
      <trkpt lat="-33.8052688" lon="150.8825664"></trkpt>
      <trkpt lat="-33.8050206" lon="150.8825543"></trkpt>
      <trkpt lat="-33.8048642" lon="150.8825439"></trkpt>
      <trkpt lat="-33.8048203" lon="150.8825253"></trkpt>
      <trkpt lat="-33.8047786" lon="150.8824989"></trkpt>
      <trkpt lat="-33.8047423" lon="150.8824680"></trkpt>
      <trkpt lat="-33.8047186" lon="150.8824399"></trkpt>
      <trkpt lat="-33.8046978" lon="150.8824105"></trkpt>
      <trkpt lat="-33.8046809" lon="150.8823775"></trkpt>
      <trkpt lat="-33.8046678" lon="150.8823411"></trkpt>
      <trkpt lat="-33.8046570" lon="150.8822917"></trkpt>
      <trkpt lat="-33.8046522" lon="150.8822376"></trkpt>
      <trkpt lat="-33.8046552" lon="150.8821724"></trkpt>
      <trkpt lat="-33.8046663" lon="150.8821043"></trkpt>
      <trkpt lat="-33.8046864" lon="150.8820298"></trkpt>
      <trkpt lat="-33.8047166" lon="150.8819526"></trkpt>
      <trkpt lat="-33.8048403" lon="150.8817451"></trkpt>
    </trkseg>
  </trk>
</gpx>
