<?xml version="1.0" encoding="UTF-8"?>
<gpx version="1.1" creator="tkk2gpx (Aus_Kart.ztracks converter)"
     xmlns="http://www.topografix.com/GPX/1/1"
     xmlns:xsi="http://www.w3.org/2001/XMLSchema-instance"
     xsi:schemaLocation="http://www.topografix.com/GPX/1/1 http://www.topografix.com/GPX/1/1/gpx.xsd">
  <metadata>
    <name>WarwickK</name>
    <desc>Kart track, QLD AU. One lap starting and ending at the Start/Finish line. Declared length 962 m.</desc>
  </metadata>
  <wpt lat="-28.1853862" lon="151.9472764">
    <name>Start/Finish</name>
    <desc>Start/Finish line location</desc>
    <sym>Flag, Checkered</sym>
  </wpt>
  <trk>
    <name>WarwickK - 1 lap</name>
    <trkseg>
      <trkpt lat="-28.1854390" lon="151.9472989"></trkpt>
      <trkpt lat="-28.1853564" lon="151.9473473"></trkpt>
      <trkpt lat="-28.1848816" lon="151.9475505"></trkpt>
      <trkpt lat="-28.1848389" lon="151.9475777"></trkpt>
      <trkpt lat="-28.1848035" lon="151.9476074"></trkpt>
      <trkpt lat="-28.1847886" lon="151.9476233"></trkpt>
      <trkpt lat="-28.1847747" lon="151.9476414"></trkpt>
      <trkpt lat="-28.1847580" lon="151.9476679"></trkpt>
      <trkpt lat="-28.1847441" lon="151.9476973"></trkpt>
      <trkpt lat="-28.1847382" lon="151.9477169"></trkpt>
      <trkpt lat="-28.1847343" lon="151.9477371"></trkpt>
      <trkpt lat="-28.1847326" lon="151.9477573"></trkpt>
      <trkpt lat="-28.1847333" lon="151.9477773"></trkpt>
      <trkpt lat="-28.1847361" lon="151.9477972"></trkpt>
      <trkpt lat="-28.1847404" lon="151.9478153"></trkpt>
      <trkpt lat="-28.1847474" lon="151.9478339"></trkpt>
      <trkpt lat="-28.1847570" lon="151.9478509"></trkpt>
      <trkpt lat="-28.1847897" lon="151.9478896"></trkpt>
      <trkpt lat="-28.1848284" lon="151.9479294"></trkpt>
      <trkpt lat="-28.1849009" lon="151.9480126"></trkpt>
      <trkpt lat="-28.1849130" lon="151.9480316"></trkpt>
      <trkpt lat="-28.1849223" lon="151.9480514"></trkpt>
      <trkpt lat="-28.1849313" lon="151.9480750"></trkpt>
      <trkpt lat="-28.1849395" lon="151.9481018"></trkpt>
      <trkpt lat="-28.1849438" lon="151.9481271"></trkpt>
      <trkpt lat="-28.1849436" lon="151.9481455"></trkpt>
      <trkpt lat="-28.1849408" lon="151.9481630"></trkpt>
      <trkpt lat="-28.1849359" lon="151.9481796"></trkpt>
      <trkpt lat="-28.1849287" lon="151.9481957"></trkpt>
      <trkpt lat="-28.1849192" lon="151.9482108"></trkpt>
      <trkpt lat="-28.1849082" lon="151.9482242"></trkpt>
      <trkpt lat="-28.1848952" lon="151.9482358"></trkpt>
      <trkpt lat="-28.1848805" lon="151.9482457"></trkpt>
      <trkpt lat="-28.1848656" lon="151.9482532"></trkpt>
      <trkpt lat="-28.1848457" lon="151.9482592"></trkpt>
      <trkpt lat="-28.1848250" lon="151.9482617"></trkpt>
      <trkpt lat="-28.1847994" lon="151.9482615"></trkpt>
      <trkpt lat="-28.1847742" lon="151.9482584"></trkpt>
      <trkpt lat="-28.1847558" lon="151.9482541"></trkpt>
      <trkpt lat="-28.1847385" lon="151.9482480"></trkpt>
      <trkpt lat="-28.1847038" lon="151.9482304"></trkpt>
      <trkpt lat="-28.1846647" lon="151.9482006"></trkpt>
      <trkpt lat="-28.1846249" lon="151.9481584"></trkpt>
      <trkpt lat="-28.1845435" lon="151.9480427"></trkpt>
      <trkpt lat="-28.1844905" lon="151.9479499"></trkpt>
      <trkpt lat="-28.1844488" lon="151.9478644"></trkpt>
      <trkpt lat="-28.1844398" lon="151.9478374"></trkpt>
      <trkpt lat="-28.1844347" lon="151.9478131"></trkpt>
      <trkpt lat="-28.1844285" lon="151.9477548"></trkpt>
      <trkpt lat="-28.1844302" lon="151.9476958"></trkpt>
      <trkpt lat="-28.1844393" lon="151.9476377"></trkpt>
      <trkpt lat="-28.1844547" lon="151.9475837"></trkpt>
      <trkpt lat="-28.1844708" lon="151.9475460"></trkpt>
      <trkpt lat="-28.1844920" lon="151.9475118"></trkpt>
      <trkpt lat="-28.1845238" lon="151.9474745"></trkpt>
      <trkpt lat="-28.1845420" lon="151.9474570"></trkpt>
      <trkpt lat="-28.1845656" lon="151.9474388"></trkpt>
      <trkpt lat="-28.1847482" lon="151.9473410"></trkpt>
      <trkpt lat="-28.1849528" lon="151.9472507"></trkpt>
      <trkpt lat="-28.1850179" lon="151.9472117"></trkpt>
      <trkpt lat="-28.1850757" lon="151.9471686"></trkpt>
      <trkpt lat="-28.1852839" lon="151.9469479"></trkpt>
      <trkpt lat="-28.1853305" lon="151.9469131"></trkpt>
      <trkpt lat="-28.1853831" lon="151.9468854"></trkpt>
      <trkpt lat="-28.1854752" lon="151.9468599"></trkpt>
      <trkpt lat="-28.1855684" lon="151.9468390"></trkpt>
      <trkpt lat="-28.1856700" lon="151.9468035"></trkpt>
      <trkpt lat="-28.1856914" lon="151.9467924"></trkpt>
      <trkpt lat="-28.1857100" lon="151.9467799"></trkpt>
      <trkpt lat="-28.1857330" lon="151.9467611"></trkpt>
      <trkpt lat="-28.1857523" lon="151.9467407"></trkpt>
      <trkpt lat="-28.1857580" lon="151.9467318"></trkpt>
      <trkpt lat="-28.1857622" lon="151.9467230"></trkpt>
      <trkpt lat="-28.1857656" lon="151.9467132"></trkpt>
      <trkpt lat="-28.1857703" lon="151.9466925"></trkpt>
      <trkpt lat="-28.1857721" lon="151.9466699"></trkpt>
      <trkpt lat="-28.1857714" lon="151.9466524"></trkpt>
      <trkpt lat="-28.1857689" lon="151.9466343"></trkpt>
      <trkpt lat="-28.1857644" lon="151.9466176"></trkpt>
      <trkpt lat="-28.1857580" lon="151.9466034"></trkpt>
      <trkpt lat="-28.1857497" lon="151.9465905"></trkpt>
      <trkpt lat="-28.1857407" lon="151.9465793"></trkpt>
      <trkpt lat="-28.1857278" lon="151.9465679"></trkpt>
      <trkpt lat="-28.1857134" lon="151.9465591"></trkpt>
      <trkpt lat="-28.1856949" lon="151.9465511"></trkpt>
      <trkpt lat="-28.1856753" lon="151.9465459"></trkpt>
      <trkpt lat="-28.1856573" lon="151.9465445"></trkpt>
      <trkpt lat="-28.1856389" lon="151.9465455"></trkpt>
      <trkpt lat="-28.1855955" lon="151.9465533"></trkpt>
      <trkpt lat="-28.1853633" lon="151.9466331"></trkpt>
      <trkpt lat="-28.1850596" lon="151.9467687"></trkpt>
      <trkpt lat="-28.1850022" lon="151.9467823"></trkpt>
      <trkpt lat="-28.1849511" lon="151.9467864"></trkpt>
      <trkpt lat="-28.1848981" lon="151.9467838"></trkpt>
      <trkpt lat="-28.1848473" lon="151.9467728"></trkpt>
      <trkpt lat="-28.1848242" lon="151.9467633"></trkpt>
      <trkpt lat="-28.1848021" lon="151.9467517"></trkpt>
      <trkpt lat="-28.1847822" lon="151.9467399"></trkpt>
      <trkpt lat="-28.1847622" lon="151.9467247"></trkpt>
      <trkpt lat="-28.1847283" lon="151.9466922"></trkpt>
      <trkpt lat="-28.1846983" lon="151.9466536"></trkpt>
      <trkpt lat="-28.1846843" lon="151.9466187"></trkpt>
      <trkpt lat="-28.1846767" lon="151.9465869"></trkpt>
      <trkpt lat="-28.1846748" lon="151.9465743"></trkpt>
      <trkpt lat="-28.1846743" lon="151.9465625"></trkpt>
      <trkpt lat="-28.1846758" lon="151.9465254"></trkpt>
      <trkpt lat="-28.1846826" lon="151.9464889"></trkpt>
      <trkpt lat="-28.1846934" lon="151.9464560"></trkpt>
      <trkpt lat="-28.1847091" lon="151.9464243"></trkpt>
      <trkpt lat="-28.1847352" lon="151.9463873"></trkpt>
      <trkpt lat="-28.1847623" lon="151.9463584"></trkpt>
      <trkpt lat="-28.1847904" lon="151.9463332"></trkpt>
      <trkpt lat="-28.1848044" lon="151.9463238"></trkpt>
      <trkpt lat="-28.1848181" lon="151.9463166"></trkpt>
      <trkpt lat="-28.1848550" lon="151.9463013"></trkpt>
      <trkpt lat="-28.1848750" lon="151.9462953"></trkpt>
      <trkpt lat="-28.1849023" lon="151.9462911"></trkpt>
      <trkpt lat="-28.1851338" lon="151.9462949"></trkpt>
      <trkpt lat="-28.1854138" lon="151.9463088"></trkpt>
      <trkpt lat="-28.1854378" lon="151.9463100"></trkpt>
      <trkpt lat="-28.1859089" lon="151.9463248"></trkpt>
      <trkpt lat="-28.1859715" lon="151.9463387"></trkpt>
      <trkpt lat="-28.1860227" lon="151.9463584"></trkpt>
      <trkpt lat="-28.1860753" lon="151.9463859"></trkpt>
      <trkpt lat="-28.1861236" lon="151.9464202"></trkpt>
      <trkpt lat="-28.1861668" lon="151.9464618"></trkpt>
      <trkpt lat="-28.1862041" lon="151.9465093"></trkpt>
      <trkpt lat="-28.1862342" lon="151.9465584"></trkpt>
      <trkpt lat="-28.1862474" lon="151.9465862"></trkpt>
      <trkpt lat="-28.1862598" lon="151.9466204"></trkpt>
      <trkpt lat="-28.1863089" lon="151.9468395"></trkpt>
      <trkpt lat="-28.1863438" lon="151.9471207"></trkpt>
      <trkpt lat="-28.1863429" lon="151.9471484"></trkpt>
      <trkpt lat="-28.1863396" lon="151.9471706"></trkpt>
      <trkpt lat="-28.1863344" lon="151.9471939"></trkpt>
      <trkpt lat="-28.1863274" lon="151.9472164"></trkpt>
      <trkpt lat="-28.1863092" lon="151.9472585"></trkpt>
      <trkpt lat="-28.1862991" lon="151.9472773"></trkpt>
      <trkpt lat="-28.1862870" lon="151.9472955"></trkpt>
      <trkpt lat="-28.1862744" lon="151.9473116"></trkpt>
      <trkpt lat="-28.1862598" lon="151.9473276"></trkpt>
      <trkpt lat="-28.1862445" lon="151.9473398"></trkpt>
      <trkpt lat="-28.1862311" lon="151.9473462"></trkpt>
      <trkpt lat="-28.1862171" lon="151.9473497"></trkpt>
      <trkpt lat="-28.1862020" lon="151.9473507"></trkpt>
      <trkpt lat="-28.1861801" lon="151.9473480"></trkpt>
      <trkpt lat="-28.1861566" lon="151.9473414"></trkpt>
      <trkpt lat="-28.1861352" lon="151.9473325"></trkpt>
      <trkpt lat="-28.1861206" lon="151.9473243"></trkpt>
      <trkpt lat="-28.1861076" lon="151.9473145"></trkpt>
      <trkpt lat="-28.1860938" lon="151.9473002"></trkpt>
      <trkpt lat="-28.1860433" lon="151.9472166"></trkpt>
      <trkpt lat="-28.1859961" lon="151.9471317"></trkpt>
      <trkpt lat="-28.1859673" lon="151.9470966"></trkpt>
      <trkpt lat="-28.1859318" lon="151.9470651"></trkpt>
      <trkpt lat="-28.1858943" lon="151.9470399"></trkpt>
      <trkpt lat="-28.1858647" lon="151.9470259"></trkpt>
      <trkpt lat="-28.1858348" lon="151.9470171"></trkpt>
      <trkpt lat="-28.1858035" lon="151.9470130"></trkpt>
      <trkpt lat="-28.1857720" lon="151.9470138"></trkpt>
      <trkpt lat="-28.1857403" lon="151.9470198"></trkpt>
      <trkpt lat="-28.1857158" lon="151.9470287"></trkpt>
      <trkpt lat="-28.1856932" lon="151.9470396"></trkpt>
      <trkpt lat="-28.1856842" lon="151.9470457"></trkpt>
      <trkpt lat="-28.1856745" lon="151.9470546"></trkpt>
      <trkpt lat="-28.1855994" lon="151.9471430"></trkpt>
      <trkpt lat="-28.1855115" lon="151.9472430"></trkpt>
      <trkpt lat="-28.1854390" lon="151.9472989"></trkpt>
    </trkseg>
  </trk>
</gpx>
