<?xml version="1.0" encoding="UTF-8"?>
<gpx version="1.1" creator="tkk2gpx (Aus_Kart.ztracks converter)"
     xmlns="http://www.topografix.com/GPX/1/1"
     xmlns:xsi="http://www.w3.org/2001/XMLSchema-instance"
     xsi:schemaLocation="http://www.topografix.com/GPX/1/1 http://www.topografix.com/GPX/1/1/gpx.xsd">
  <metadata>
    <name>CanberraLong</name>
    <desc>Kart track,  AU. One lap starting and ending at the Start/Finish line. Declared length 1077 m.</desc>
  </metadata>
  <wpt lat="-35.3275845" lon="149.2327033">
    <name>Start/Finish</name>
    <desc>Start/Finish line location</desc>
    <sym>Flag, Checkered</sym>
  </wpt>
  <trk>
    <name>CanberraLong - 1 lap</name>
    <trkseg>
      <trkpt lat="-35.3277621" lon="149.2327535"></trkpt>
      <trkpt lat="-35.3277444" lon="149.2329509"></trkpt>
      <trkpt lat="-35.3277378" lon="149.2329770"></trkpt>
      <trkpt lat="-35.3277300" lon="149.2329981"></trkpt>
      <trkpt lat="-35.3277105" lon="149.2330396"></trkpt>
      <trkpt lat="-35.3276998" lon="149.2330581"></trkpt>
      <trkpt lat="-35.3276870" lon="149.2330762"></trkpt>
      <trkpt lat="-35.3276637" lon="149.2331019"></trkpt>
      <trkpt lat="-35.3276371" lon="149.2331252"></trkpt>
      <trkpt lat="-35.3276124" lon="149.2331404"></trkpt>
      <trkpt lat="-35.3275879" lon="149.2331512"></trkpt>
      <trkpt lat="-35.3275687" lon="149.2331568"></trkpt>
      <trkpt lat="-35.3275495" lon="149.2331599"></trkpt>
      <trkpt lat="-35.3275056" lon="149.2331617"></trkpt>
      <trkpt lat="-35.3273214" lon="149.2331396"></trkpt>
      <trkpt lat="-35.3272743" lon="149.2331443"></trkpt>
      <trkpt lat="-35.3272291" lon="149.2331559"></trkpt>
      <trkpt lat="-35.3271595" lon="149.2331818"></trkpt>
      <trkpt lat="-35.3270865" lon="149.2332179"></trkpt>
      <trkpt lat="-35.3269344" lon="149.2333240"></trkpt>
      <trkpt lat="-35.3267523" lon="149.2334838"></trkpt>
      <trkpt lat="-35.3266439" lon="149.2336195"></trkpt>
      <trkpt lat="-35.3265798" lon="149.2337302"></trkpt>
      <trkpt lat="-35.3265203" lon="149.2338287"></trkpt>
      <trkpt lat="-35.3265014" lon="149.2338507"></trkpt>
      <trkpt lat="-35.3264837" lon="149.2338671"></trkpt>
      <trkpt lat="-35.3264650" lon="149.2338797"></trkpt>
      <trkpt lat="-35.3264448" lon="149.2338885"></trkpt>
      <trkpt lat="-35.3264236" lon="149.2338938"></trkpt>
      <trkpt lat="-35.3264037" lon="149.2338961"></trkpt>
      <trkpt lat="-35.3263817" lon="149.2338945"></trkpt>
      <trkpt lat="-35.3263626" lon="149.2338899"></trkpt>
      <trkpt lat="-35.3263529" lon="149.2338867"></trkpt>
      <trkpt lat="-35.3263434" lon="149.2338814"></trkpt>
      <trkpt lat="-35.3263281" lon="149.2338694"></trkpt>
      <trkpt lat="-35.3263106" lon="149.2338528"></trkpt>
      <trkpt lat="-35.3262952" lon="149.2338339"></trkpt>
      <trkpt lat="-35.3262826" lon="149.2338124"></trkpt>
      <trkpt lat="-35.3262722" lon="149.2337884"></trkpt>
      <trkpt lat="-35.3262643" lon="149.2337628"></trkpt>
      <trkpt lat="-35.3262588" lon="149.2337331"></trkpt>
      <trkpt lat="-35.3262562" lon="149.2337017"></trkpt>
      <trkpt lat="-35.3262568" lon="149.2336707"></trkpt>
      <trkpt lat="-35.3262646" lon="149.2336257"></trkpt>
      <trkpt lat="-35.3262774" lon="149.2335847"></trkpt>
      <trkpt lat="-35.3262890" lon="149.2335590"></trkpt>
      <trkpt lat="-35.3263025" lon="149.2335361"></trkpt>
      <trkpt lat="-35.3263355" lon="149.2334905"></trkpt>
      <trkpt lat="-35.3263776" lon="149.2334482"></trkpt>
      <trkpt lat="-35.3264299" lon="149.2334097"></trkpt>
      <trkpt lat="-35.3266530" lon="149.2333069"></trkpt>
      <trkpt lat="-35.3268303" lon="149.2331822"></trkpt>
      <trkpt lat="-35.3272240" lon="149.2328570"></trkpt>
      <trkpt lat="-35.3272625" lon="149.2328132"></trkpt>
      <trkpt lat="-35.3272893" lon="149.2327728"></trkpt>
      <trkpt lat="-35.3273102" lon="149.2327326"></trkpt>
      <trkpt lat="-35.3273188" lon="149.2327118"></trkpt>
      <trkpt lat="-35.3273268" lon="149.2326861"></trkpt>
      <trkpt lat="-35.3273423" lon="149.2325912"></trkpt>
      <trkpt lat="-35.3273586" lon="149.2324957"></trkpt>
      <trkpt lat="-35.3273674" lon="149.2324690"></trkpt>
      <trkpt lat="-35.3273789" lon="149.2324459"></trkpt>
      <trkpt lat="-35.3274096" lon="149.2323996"></trkpt>
      <trkpt lat="-35.3274419" lon="149.2323597"></trkpt>
      <trkpt lat="-35.3274530" lon="149.2323494"></trkpt>
      <trkpt lat="-35.3274642" lon="149.2323418"></trkpt>
      <trkpt lat="-35.3274824" lon="149.2323316"></trkpt>
      <trkpt lat="-35.3275062" lon="149.2323215"></trkpt>
      <trkpt lat="-35.3276759" lon="149.2322749"></trkpt>
      <trkpt lat="-35.3277425" lon="149.2322437"></trkpt>
      <trkpt lat="-35.3277996" lon="149.2322098"></trkpt>
      <trkpt lat="-35.3278665" lon="149.2321621"></trkpt>
      <trkpt lat="-35.3279308" lon="149.2321066"></trkpt>
      <trkpt lat="-35.3279486" lon="149.2320884"></trkpt>
      <trkpt lat="-35.3279690" lon="149.2320667"></trkpt>
      <trkpt lat="-35.3279883" lon="149.2320450"></trkpt>
      <trkpt lat="-35.3280076" lon="149.2320156"></trkpt>
      <trkpt lat="-35.3280218" lon="149.2319940"></trkpt>
      <trkpt lat="-35.3280739" lon="149.2319186"></trkpt>
      <trkpt lat="-35.3281617" lon="149.2317895"></trkpt>
      <trkpt lat="-35.3282872" lon="149.2316134"></trkpt>
      <trkpt lat="-35.3283093" lon="149.2315897"></trkpt>
      <trkpt lat="-35.3283314" lon="149.2315711"></trkpt>
      <trkpt lat="-35.3283699" lon="149.2315449"></trkpt>
      <trkpt lat="-35.3284085" lon="149.2315240"></trkpt>
      <trkpt lat="-35.3284281" lon="149.2315167"></trkpt>
      <trkpt lat="-35.3284470" lon="149.2315127"></trkpt>
      <trkpt lat="-35.3284718" lon="149.2315105"></trkpt>
      <trkpt lat="-35.3284974" lon="149.2315109"></trkpt>
      <trkpt lat="-35.3285473" lon="149.2315189"></trkpt>
      <trkpt lat="-35.3285833" lon="149.2315318"></trkpt>
      <trkpt lat="-35.3286003" lon="149.2315410"></trkpt>
      <trkpt lat="-35.3286172" lon="149.2315525"></trkpt>
      <trkpt lat="-35.3286602" lon="149.2315920"></trkpt>
      <trkpt lat="-35.3287012" lon="149.2316444"></trkpt>
      <trkpt lat="-35.3287454" lon="149.2317245"></trkpt>
      <trkpt lat="-35.3287866" lon="149.2318215"></trkpt>
      <trkpt lat="-35.3288449" lon="149.2319819"></trkpt>
      <trkpt lat="-35.3288914" lon="149.2321496"></trkpt>
      <trkpt lat="-35.3289086" lon="149.2322683"></trkpt>
      <trkpt lat="-35.3289127" lon="149.2323769"></trkpt>
      <trkpt lat="-35.3289072" lon="149.2324538"></trkpt>
      <trkpt lat="-35.3288940" lon="149.2325259"></trkpt>
      <trkpt lat="-35.3288719" lon="149.2326019"></trkpt>
      <trkpt lat="-35.3288431" lon="149.2326725"></trkpt>
      <trkpt lat="-35.3288139" lon="149.2327254"></trkpt>
      <trkpt lat="-35.3287788" lon="149.2327731"></trkpt>
      <trkpt lat="-35.3287270" lon="149.2328259"></trkpt>
      <trkpt lat="-35.3286707" lon="149.2328692"></trkpt>
      <trkpt lat="-35.3286114" lon="149.2329073"></trkpt>
      <trkpt lat="-35.3285787" lon="149.2329231"></trkpt>
      <trkpt lat="-35.3285432" lon="149.2329353"></trkpt>
      <trkpt lat="-35.3283500" lon="149.2329762"></trkpt>
      <trkpt lat="-35.3281681" lon="149.2329933"></trkpt>
      <trkpt lat="-35.3281466" lon="149.2329925"></trkpt>
      <trkpt lat="-35.3281283" lon="149.2329890"></trkpt>
      <trkpt lat="-35.3281031" lon="149.2329802"></trkpt>
      <trkpt lat="-35.3280791" lon="149.2329676"></trkpt>
      <trkpt lat="-35.3280622" lon="149.2329552"></trkpt>
      <trkpt lat="-35.3280471" lon="149.2329391"></trkpt>
      <trkpt lat="-35.3280343" lon="149.2329204"></trkpt>
      <trkpt lat="-35.3280222" lon="149.2328981"></trkpt>
      <trkpt lat="-35.3280131" lon="149.2328746"></trkpt>
      <trkpt lat="-35.3280079" lon="149.2328504"></trkpt>
      <trkpt lat="-35.3280055" lon="149.2328251"></trkpt>
      <trkpt lat="-35.3280059" lon="149.2328005"></trkpt>
      <trkpt lat="-35.3280088" lon="149.2327781"></trkpt>
      <trkpt lat="-35.3280141" lon="149.2327564"></trkpt>
      <trkpt lat="-35.3280220" lon="149.2327358"></trkpt>
      <trkpt lat="-35.3280335" lon="149.2327150"></trkpt>
      <trkpt lat="-35.3280479" lon="149.2326955"></trkpt>
      <trkpt lat="-35.3280644" lon="149.2326781"></trkpt>
      <trkpt lat="-35.3280858" lon="149.2326611"></trkpt>
      <trkpt lat="-35.3281098" lon="149.2326467"></trkpt>
      <trkpt lat="-35.3281335" lon="149.2326360"></trkpt>
      <trkpt lat="-35.3281623" lon="149.2326294"></trkpt>
      <trkpt lat="-35.3281913" lon="149.2326270"></trkpt>
      <trkpt lat="-35.3282576" lon="149.2326270"></trkpt>
      <trkpt lat="-35.3284489" lon="149.2326471"></trkpt>
      <trkpt lat="-35.3284737" lon="149.2326450"></trkpt>
      <trkpt lat="-35.3284941" lon="149.2326405"></trkpt>
      <trkpt lat="-35.3285328" lon="149.2326269"></trkpt>
      <trkpt lat="-35.3285495" lon="149.2326183"></trkpt>
      <trkpt lat="-35.3285660" lon="149.2326072"></trkpt>
      <trkpt lat="-35.3285898" lon="149.2325864"></trkpt>
      <trkpt lat="-35.3286121" lon="149.2325619"></trkpt>
      <trkpt lat="-35.3286273" lon="149.2325392"></trkpt>
      <trkpt lat="-35.3286394" lon="149.2325159"></trkpt>
      <trkpt lat="-35.3286473" lon="149.2324964"></trkpt>
      <trkpt lat="-35.3286534" lon="149.2324765"></trkpt>
      <trkpt lat="-35.3286585" lon="149.2324552"></trkpt>
      <trkpt lat="-35.3286621" lon="149.2324325"></trkpt>
      <trkpt lat="-35.3286650" lon="149.2323739"></trkpt>
      <trkpt lat="-35.3286621" lon="149.2323059"></trkpt>
      <trkpt lat="-35.3286510" lon="149.2321661"></trkpt>
      <trkpt lat="-35.3286316" lon="149.2320372"></trkpt>
      <trkpt lat="-35.3286242" lon="149.2320112"></trkpt>
      <trkpt lat="-35.3286150" lon="149.2319896"></trkpt>
      <trkpt lat="-35.3286030" lon="149.2319697"></trkpt>
      <trkpt lat="-35.3285887" lon="149.2319520"></trkpt>
      <trkpt lat="-35.3285713" lon="149.2319357"></trkpt>
      <trkpt lat="-35.3285525" lon="149.2319226"></trkpt>
      <trkpt lat="-35.3285350" lon="149.2319143"></trkpt>
      <trkpt lat="-35.3285169" lon="149.2319092"></trkpt>
      <trkpt lat="-35.3284977" lon="149.2319072"></trkpt>
      <trkpt lat="-35.3284782" lon="149.2319085"></trkpt>
      <trkpt lat="-35.3284650" lon="149.2319110"></trkpt>
      <trkpt lat="-35.3284519" lon="149.2319151"></trkpt>
      <trkpt lat="-35.3284393" lon="149.2319219"></trkpt>
      <trkpt lat="-35.3284249" lon="149.2319348"></trkpt>
      <trkpt lat="-35.3284113" lon="149.2319514"></trkpt>
      <trkpt lat="-35.3284008" lon="149.2319681"></trkpt>
      <trkpt lat="-35.3283940" lon="149.2319863"></trkpt>
      <trkpt lat="-35.3283904" lon="149.2320035"></trkpt>
      <trkpt lat="-35.3283890" lon="149.2320137"></trkpt>
      <trkpt lat="-35.3283887" lon="149.2320241"></trkpt>
      <trkpt lat="-35.3283927" lon="149.2320600"></trkpt>
      <trkpt lat="-35.3284004" lon="149.2320975"></trkpt>
      <trkpt lat="-35.3284059" lon="149.2321393"></trkpt>
      <trkpt lat="-35.3284041" lon="149.2321684"></trkpt>
      <trkpt lat="-35.3283991" lon="149.2321980"></trkpt>
      <trkpt lat="-35.3283913" lon="149.2322261"></trkpt>
      <trkpt lat="-35.3283810" lon="149.2322523"></trkpt>
      <trkpt lat="-35.3283680" lon="149.2322770"></trkpt>
      <trkpt lat="-35.3283526" lon="149.2322995"></trkpt>
      <trkpt lat="-35.3283223" lon="149.2323301"></trkpt>
      <trkpt lat="-35.3282906" lon="149.2323537"></trkpt>
      <trkpt lat="-35.3282711" lon="149.2323644"></trkpt>
      <trkpt lat="-35.3282519" lon="149.2323720"></trkpt>
      <trkpt lat="-35.3282078" lon="149.2323849"></trkpt>
      <trkpt lat="-35.3280620" lon="149.2324020"></trkpt>
      <trkpt lat="-35.3280091" lon="149.2324194"></trkpt>
      <trkpt lat="-35.3279606" lon="149.2324432"></trkpt>
      <trkpt lat="-35.3279162" lon="149.2324730"></trkpt>
      <trkpt lat="-35.3278761" lon="149.2325089"></trkpt>
      <trkpt lat="-35.3278423" lon="149.2325488"></trkpt>
      <trkpt lat="-35.3278134" lon="149.2325938"></trkpt>
      <trkpt lat="-35.3277895" lon="149.2326440"></trkpt>
      <trkpt lat="-35.3277716" lon="149.2326978"></trkpt>
      <trkpt lat="-35.3277621" lon="149.2327535"></trkpt>
    </trkseg>
  </trk>
</gpx>
