<?xml version="1.0" encoding="UTF-8"?>
<gpx version="1.1" creator="tkk2gpx (Aus_Kart.ztracks converter)"
     xmlns="http://www.topografix.com/GPX/1/1"
     xmlns:xsi="http://www.w3.org/2001/XMLSchema-instance"
     xsi:schemaLocation="http://www.topografix.com/GPX/1/1 http://www.topografix.com/GPX/1/1/gpx.xsd">
  <metadata>
    <name>ClubSA A CCW</name>
    <desc>Kart track, SA AU. One lap starting and ending at the Start/Finish line. Declared length 979 m.</desc>
  </metadata>
  <wpt lat="-35.1202681" lon="139.1742444">
    <name>Start/Finish</name>
    <desc>Start/Finish line location</desc>
    <sym>Flag, Checkered</sym>
  </wpt>
  <trk>
    <name>ClubSA A CCW - 1 lap</name>
    <trkseg>
      <trkpt lat="-35.1201035" lon="139.1741190"></trkpt>
      <trkpt lat="-35.1201137" lon="139.1740932"></trkpt>
      <trkpt lat="-35.1201209" lon="139.1740668"></trkpt>
      <trkpt lat="-35.1201248" lon="139.1740399"></trkpt>
      <trkpt lat="-35.1201256" lon="139.1740123"></trkpt>
      <trkpt lat="-35.1201233" lon="139.1739853"></trkpt>
      <trkpt lat="-35.1201176" lon="139.1739591"></trkpt>
      <trkpt lat="-35.1201089" lon="139.1739334"></trkpt>
      <trkpt lat="-35.1200983" lon="139.1739105"></trkpt>
      <trkpt lat="-35.1200883" lon="139.1738941"></trkpt>
      <trkpt lat="-35.1200770" lon="139.1738796"></trkpt>
      <trkpt lat="-35.1200635" lon="139.1738664"></trkpt>
      <trkpt lat="-35.1200354" lon="139.1738460"></trkpt>
      <trkpt lat="-35.1200013" lon="139.1738299"></trkpt>
      <trkpt lat="-35.1199530" lon="139.1738192"></trkpt>
      <trkpt lat="-35.1198902" lon="139.1738127"></trkpt>
      <trkpt lat="-35.1194102" lon="139.1737858"></trkpt>
      <trkpt lat="-35.1193595" lon="139.1737724"></trkpt>
      <trkpt lat="-35.1193204" lon="139.1737536"></trkpt>
      <trkpt lat="-35.1192801" lon="139.1737241"></trkpt>
      <trkpt lat="-35.1192457" lon="139.1736895"></trkpt>
      <trkpt lat="-35.1192233" lon="139.1736586"></trkpt>
      <trkpt lat="-35.1192060" lon="139.1736257"></trkpt>
      <trkpt lat="-35.1191925" lon="139.1735904"></trkpt>
      <trkpt lat="-35.1191834" lon="139.1735536"></trkpt>
      <trkpt lat="-35.1191790" lon="139.1735167"></trkpt>
      <trkpt lat="-35.1191794" lon="139.1734782"></trkpt>
      <trkpt lat="-35.1191870" lon="139.1734278"></trkpt>
      <trkpt lat="-35.1192004" lon="139.1733789"></trkpt>
      <trkpt lat="-35.1192152" lon="139.1733441"></trkpt>
      <trkpt lat="-35.1192338" lon="139.1733133"></trkpt>
      <trkpt lat="-35.1192561" lon="139.1732865"></trkpt>
      <trkpt lat="-35.1192820" lon="139.1732640"></trkpt>
      <trkpt lat="-35.1193102" lon="139.1732474"></trkpt>
      <trkpt lat="-35.1193429" lon="139.1732358"></trkpt>
      <trkpt lat="-35.1193917" lon="139.1732283"></trkpt>
      <trkpt lat="-35.1194551" lon="139.1732275"></trkpt>
      <trkpt lat="-35.1199497" lon="139.1732798"></trkpt>
      <trkpt lat="-35.1200081" lon="139.1732829"></trkpt>
      <trkpt lat="-35.1206443" lon="139.1733172"></trkpt>
      <trkpt lat="-35.1207057" lon="139.1733328"></trkpt>
      <trkpt lat="-35.1207525" lon="139.1733539"></trkpt>
      <trkpt lat="-35.1208008" lon="139.1733849"></trkpt>
      <trkpt lat="-35.1208438" lon="139.1734225"></trkpt>
      <trkpt lat="-35.1208790" lon="139.1734643"></trkpt>
      <trkpt lat="-35.1209076" lon="139.1735098"></trkpt>
      <trkpt lat="-35.1209281" lon="139.1735545"></trkpt>
      <trkpt lat="-35.1209416" lon="139.1736005"></trkpt>
      <trkpt lat="-35.1209462" lon="139.1736301"></trkpt>
      <trkpt lat="-35.1209477" lon="139.1736600"></trkpt>
      <trkpt lat="-35.1209463" lon="139.1736895"></trkpt>
      <trkpt lat="-35.1209369" lon="139.1737360"></trkpt>
      <trkpt lat="-35.1209246" lon="139.1737743"></trkpt>
      <trkpt lat="-35.1209150" lon="139.1737934"></trkpt>
      <trkpt lat="-35.1208819" lon="139.1738422"></trkpt>
      <trkpt lat="-35.1208386" lon="139.1738912"></trkpt>
      <trkpt lat="-35.1207881" lon="139.1739515"></trkpt>
      <trkpt lat="-35.1207636" lon="139.1739916"></trkpt>
      <trkpt lat="-35.1207470" lon="139.1740317"></trkpt>
      <trkpt lat="-35.1207393" lon="139.1740608"></trkpt>
      <trkpt lat="-35.1207346" lon="139.1740909"></trkpt>
      <trkpt lat="-35.1207330" lon="139.1741210"></trkpt>
      <trkpt lat="-35.1207344" lon="139.1741507"></trkpt>
      <trkpt lat="-35.1207387" lon="139.1741803"></trkpt>
      <trkpt lat="-35.1207460" lon="139.1742090"></trkpt>
      <trkpt lat="-35.1207624" lon="139.1742493"></trkpt>
      <trkpt lat="-35.1207852" lon="139.1742877"></trkpt>
      <trkpt lat="-35.1208159" lon="139.1743255"></trkpt>
      <trkpt lat="-35.1208589" lon="139.1743680"></trkpt>
      <trkpt lat="-35.1210551" lon="139.1745310"></trkpt>
      <trkpt lat="-35.1212467" lon="139.1746972"></trkpt>
      <trkpt lat="-35.1212835" lon="139.1747431"></trkpt>
      <trkpt lat="-35.1213080" lon="139.1747858"></trkpt>
      <trkpt lat="-35.1213302" lon="139.1748369"></trkpt>
      <trkpt lat="-35.1213460" lon="139.1748906"></trkpt>
      <trkpt lat="-35.1213548" lon="139.1749472"></trkpt>
      <trkpt lat="-35.1213571" lon="139.1750023"></trkpt>
      <trkpt lat="-35.1213542" lon="139.1750434"></trkpt>
      <trkpt lat="-35.1213467" lon="139.1750818"></trkpt>
      <trkpt lat="-35.1213349" lon="139.1751178"></trkpt>
      <trkpt lat="-35.1213188" lon="139.1751514"></trkpt>
      <trkpt lat="-35.1212991" lon="139.1751809"></trkpt>
      <trkpt lat="-35.1212759" lon="139.1752068"></trkpt>
      <trkpt lat="-35.1212503" lon="139.1752278"></trkpt>
      <trkpt lat="-35.1212221" lon="139.1752443"></trkpt>
      <trkpt lat="-35.1211919" lon="139.1752554"></trkpt>
      <trkpt lat="-35.1211590" lon="139.1752612"></trkpt>
      <trkpt lat="-35.1211153" lon="139.1752613"></trkpt>
      <trkpt lat="-35.1210692" lon="139.1752535"></trkpt>
      <trkpt lat="-35.1210172" lon="139.1752344"></trkpt>
      <trkpt lat="-35.1209645" lon="139.1752033"></trkpt>
      <trkpt lat="-35.1208953" lon="139.1751401"></trkpt>
      <trkpt lat="-35.1208201" lon="139.1750542"></trkpt>
      <trkpt lat="-35.1205029" lon="139.1746385"></trkpt>
      <trkpt lat="-35.1204638" lon="139.1745987"></trkpt>
      <trkpt lat="-35.1204287" lon="139.1745713"></trkpt>
      <trkpt lat="-35.1203928" lon="139.1745500"></trkpt>
      <trkpt lat="-35.1203559" lon="139.1745360"></trkpt>
      <trkpt lat="-35.1203331" lon="139.1745322"></trkpt>
      <trkpt lat="-35.1203102" lon="139.1745316"></trkpt>
      <trkpt lat="-35.1202880" lon="139.1745345"></trkpt>
      <trkpt lat="-35.1202667" lon="139.1745413"></trkpt>
      <trkpt lat="-35.1202463" lon="139.1745516"></trkpt>
      <trkpt lat="-35.1202272" lon="139.1745642"></trkpt>
      <trkpt lat="-35.1202087" lon="139.1745800"></trkpt>
      <trkpt lat="-35.1201917" lon="139.1745983"></trkpt>
      <trkpt lat="-35.1201777" lon="139.1746175"></trkpt>
      <trkpt lat="-35.1201683" lon="139.1746345"></trkpt>
      <trkpt lat="-35.1201613" lon="139.1746521"></trkpt>
      <trkpt lat="-35.1201559" lon="139.1746713"></trkpt>
      <trkpt lat="-35.1201499" lon="139.1747116"></trkpt>
      <trkpt lat="-35.1201491" lon="139.1747543"></trkpt>
      <trkpt lat="-35.1201533" lon="139.1747944"></trkpt>
      <trkpt lat="-35.1201624" lon="139.1748368"></trkpt>
      <trkpt lat="-35.1201879" lon="139.1749070"></trkpt>
      <trkpt lat="-35.1202110" lon="139.1749772"></trkpt>
      <trkpt lat="-35.1202142" lon="139.1750067"></trkpt>
      <trkpt lat="-35.1202140" lon="139.1750340"></trkpt>
      <trkpt lat="-35.1202114" lon="139.1750595"></trkpt>
      <trkpt lat="-35.1202076" lon="139.1750797"></trkpt>
      <trkpt lat="-35.1202020" lon="139.1750986"></trkpt>
      <trkpt lat="-35.1201946" lon="139.1751163"></trkpt>
      <trkpt lat="-35.1201855" lon="139.1751325"></trkpt>
      <trkpt lat="-35.1201747" lon="139.1751477"></trkpt>
      <trkpt lat="-35.1201623" lon="139.1751608"></trkpt>
      <trkpt lat="-35.1201486" lon="139.1751715"></trkpt>
      <trkpt lat="-35.1201335" lon="139.1751803"></trkpt>
      <trkpt lat="-35.1201168" lon="139.1751868"></trkpt>
      <trkpt lat="-35.1200953" lon="139.1751916"></trkpt>
      <trkpt lat="-35.1200719" lon="139.1751936"></trkpt>
      <trkpt lat="-35.1200489" lon="139.1751919"></trkpt>
      <trkpt lat="-35.1200280" lon="139.1751873"></trkpt>
      <trkpt lat="-35.1200075" lon="139.1751789"></trkpt>
      <trkpt lat="-35.1199831" lon="139.1751633"></trkpt>
      <trkpt lat="-35.1198029" lon="139.1749714"></trkpt>
      <trkpt lat="-35.1196007" lon="139.1747263"></trkpt>
      <trkpt lat="-35.1193834" lon="139.1744582"></trkpt>
      <trkpt lat="-35.1193606" lon="139.1744145"></trkpt>
      <trkpt lat="-35.1193482" lon="139.1743765"></trkpt>
      <trkpt lat="-35.1193443" lon="139.1743560"></trkpt>
      <trkpt lat="-35.1193429" lon="139.1743362"></trkpt>
      <trkpt lat="-35.1193437" lon="139.1743157"></trkpt>
      <trkpt lat="-35.1193477" lon="139.1742896"></trkpt>
      <trkpt lat="-35.1193547" lon="139.1742626"></trkpt>
      <trkpt lat="-35.1193637" lon="139.1742380"></trkpt>
      <trkpt lat="-35.1193727" lon="139.1742199"></trkpt>
      <trkpt lat="-35.1193833" lon="139.1742036"></trkpt>
      <trkpt lat="-35.1193954" lon="139.1741891"></trkpt>
      <trkpt lat="-35.1194090" lon="139.1741764"></trkpt>
      <trkpt lat="-35.1194242" lon="139.1741654"></trkpt>
      <trkpt lat="-35.1194404" lon="139.1741567"></trkpt>
      <trkpt lat="-35.1194663" lon="139.1741481"></trkpt>
      <trkpt lat="-35.1194954" lon="139.1741448"></trkpt>
      <trkpt lat="-35.1195410" lon="139.1741494"></trkpt>
      <trkpt lat="-35.1195942" lon="139.1741623"></trkpt>
      <trkpt lat="-35.1196980" lon="139.1742021"></trkpt>
      <trkpt lat="-35.1198007" lon="139.1742405"></trkpt>
      <trkpt lat="-35.1198479" lon="139.1742499"></trkpt>
      <trkpt lat="-35.1198908" lon="139.1742516"></trkpt>
      <trkpt lat="-35.1199357" lon="139.1742456"></trkpt>
      <trkpt lat="-35.1199788" lon="139.1742325"></trkpt>
      <trkpt lat="-35.1200180" lon="139.1742127"></trkpt>
      <trkpt lat="-35.1200520" lon="139.1741883"></trkpt>
      <trkpt lat="-35.1200738" lon="139.1741668"></trkpt>
      <trkpt lat="-35.1200914" lon="139.1741421"></trkpt>
      <trkpt lat="-35.1201035" lon="139.1741190"></trkpt>
    </trkseg>
  </trk>
</gpx>
