<?xml version="1.0" encoding="UTF-8"?>
<gpx version="1.1" creator="tkk2gpx (Aus_Kart.ztracks converter)"
     xmlns="http://www.topografix.com/GPX/1/1"
     xmlns:xsi="http://www.w3.org/2001/XMLSchema-instance"
     xsi:schemaLocation="http://www.topografix.com/GPX/1/1 http://www.topografix.com/GPX/1/1/gpx.xsd">
  <metadata>
    <name>ELKC</name>
    <desc>Kart track, VIC AU. One lap starting and ending at the Start/Finish line. Declared length 1032 m.</desc>
  </metadata>
  <wpt lat="-37.0121206" lon="145.0272907">
    <name>Start/Finish</name>
    <desc>Start/Finish line location</desc>
    <sym>Flag, Checkered</sym>
  </wpt>
  <trk>
    <name>ELKC - 1 lap</name>
    <trkseg>
      <trkpt lat="-37.0122285" lon="145.0270847"></trkpt>
      <trkpt lat="-37.0123159" lon="145.0271899"></trkpt>
      <trkpt lat="-37.0127166" lon="145.0275879"></trkpt>
      <trkpt lat="-37.0127719" lon="145.0276581"></trkpt>
      <trkpt lat="-37.0128119" lon="145.0277216"></trkpt>
      <trkpt lat="-37.0128425" lon="145.0277834"></trkpt>
      <trkpt lat="-37.0128658" lon="145.0278467"></trkpt>
      <trkpt lat="-37.0128829" lon="145.0279138"></trkpt>
      <trkpt lat="-37.0128933" lon="145.0279824"></trkpt>
      <trkpt lat="-37.0128972" lon="145.0280478"></trkpt>
      <trkpt lat="-37.0128936" lon="145.0281210"></trkpt>
      <trkpt lat="-37.0128658" lon="145.0282958"></trkpt>
      <trkpt lat="-37.0128264" lon="145.0284603"></trkpt>
      <trkpt lat="-37.0128082" lon="145.0285086"></trkpt>
      <trkpt lat="-37.0127873" lon="145.0285462"></trkpt>
      <trkpt lat="-37.0127715" lon="145.0285683"></trkpt>
      <trkpt lat="-37.0127541" lon="145.0285882"></trkpt>
      <trkpt lat="-37.0127359" lon="145.0286036"></trkpt>
      <trkpt lat="-37.0127210" lon="145.0286121"></trkpt>
      <trkpt lat="-37.0127057" lon="145.0286178"></trkpt>
      <trkpt lat="-37.0126901" lon="145.0286204"></trkpt>
      <trkpt lat="-37.0126741" lon="145.0286197"></trkpt>
      <trkpt lat="-37.0126578" lon="145.0286159"></trkpt>
      <trkpt lat="-37.0126423" lon="145.0286099"></trkpt>
      <trkpt lat="-37.0126272" lon="145.0286012"></trkpt>
      <trkpt lat="-37.0126129" lon="145.0285900"></trkpt>
      <trkpt lat="-37.0125993" lon="145.0285764"></trkpt>
      <trkpt lat="-37.0125758" lon="145.0285446"></trkpt>
      <trkpt lat="-37.0125551" lon="145.0285059"></trkpt>
      <trkpt lat="-37.0125360" lon="145.0284561"></trkpt>
      <trkpt lat="-37.0125197" lon="145.0283913"></trkpt>
      <trkpt lat="-37.0124859" lon="145.0281287"></trkpt>
      <trkpt lat="-37.0124538" lon="145.0278697"></trkpt>
      <trkpt lat="-37.0124405" lon="145.0278125"></trkpt>
      <trkpt lat="-37.0124253" lon="145.0277693"></trkpt>
      <trkpt lat="-37.0124093" lon="145.0277378"></trkpt>
      <trkpt lat="-37.0123904" lon="145.0277109"></trkpt>
      <trkpt lat="-37.0123695" lon="145.0276886"></trkpt>
      <trkpt lat="-37.0123460" lon="145.0276704"></trkpt>
      <trkpt lat="-37.0123213" lon="145.0276576"></trkpt>
      <trkpt lat="-37.0122952" lon="145.0276500"></trkpt>
      <trkpt lat="-37.0122675" lon="145.0276487"></trkpt>
      <trkpt lat="-37.0122413" lon="145.0276525"></trkpt>
      <trkpt lat="-37.0122236" lon="145.0276592"></trkpt>
      <trkpt lat="-37.0122081" lon="145.0276689"></trkpt>
      <trkpt lat="-37.0121935" lon="145.0276817"></trkpt>
      <trkpt lat="-37.0121808" lon="145.0276969"></trkpt>
      <trkpt lat="-37.0121701" lon="145.0277143"></trkpt>
      <trkpt lat="-37.0121614" lon="145.0277344"></trkpt>
      <trkpt lat="-37.0121525" lon="145.0277656"></trkpt>
      <trkpt lat="-37.0121474" lon="145.0278011"></trkpt>
      <trkpt lat="-37.0121472" lon="145.0278433"></trkpt>
      <trkpt lat="-37.0121541" lon="145.0278982"></trkpt>
      <trkpt lat="-37.0122336" lon="145.0282068"></trkpt>
      <trkpt lat="-37.0123144" lon="145.0285310"></trkpt>
      <trkpt lat="-37.0123232" lon="145.0286157"></trkpt>
      <trkpt lat="-37.0123216" lon="145.0286846"></trkpt>
      <trkpt lat="-37.0123128" lon="145.0287436"></trkpt>
      <trkpt lat="-37.0122977" lon="145.0287965"></trkpt>
      <trkpt lat="-37.0122813" lon="145.0288344"></trkpt>
      <trkpt lat="-37.0122609" lon="145.0288680"></trkpt>
      <trkpt lat="-37.0122371" lon="145.0288977"></trkpt>
      <trkpt lat="-37.0122097" lon="145.0289233"></trkpt>
      <trkpt lat="-37.0121797" lon="145.0289438"></trkpt>
      <trkpt lat="-37.0121473" lon="145.0289595"></trkpt>
      <trkpt lat="-37.0121133" lon="145.0289698"></trkpt>
      <trkpt lat="-37.0120782" lon="145.0289746"></trkpt>
      <trkpt lat="-37.0120428" lon="145.0289734"></trkpt>
      <trkpt lat="-37.0120080" lon="145.0289665"></trkpt>
      <trkpt lat="-37.0119744" lon="145.0289537"></trkpt>
      <trkpt lat="-37.0119430" lon="145.0289358"></trkpt>
      <trkpt lat="-37.0119144" lon="145.0289129"></trkpt>
      <trkpt lat="-37.0118894" lon="145.0288858"></trkpt>
      <trkpt lat="-37.0118687" lon="145.0288551"></trkpt>
      <trkpt lat="-37.0118521" lon="145.0288201"></trkpt>
      <trkpt lat="-37.0118383" lon="145.0287741"></trkpt>
      <trkpt lat="-37.0118285" lon="145.0287164"></trkpt>
      <trkpt lat="-37.0118205" lon="145.0285416"></trkpt>
      <trkpt lat="-37.0118120" lon="145.0283530"></trkpt>
      <trkpt lat="-37.0117740" lon="145.0281557"></trkpt>
      <trkpt lat="-37.0115436" lon="145.0273561"></trkpt>
      <trkpt lat="-37.0113811" lon="145.0267923"></trkpt>
      <trkpt lat="-37.0113541" lon="145.0266456"></trkpt>
      <trkpt lat="-37.0113440" lon="145.0265340"></trkpt>
      <trkpt lat="-37.0113444" lon="145.0264641"></trkpt>
      <trkpt lat="-37.0113521" lon="145.0264010"></trkpt>
      <trkpt lat="-37.0113665" lon="145.0263411"></trkpt>
      <trkpt lat="-37.0113880" lon="145.0262853"></trkpt>
      <trkpt lat="-37.0114158" lon="145.0262368"></trkpt>
      <trkpt lat="-37.0114481" lon="145.0261957"></trkpt>
      <trkpt lat="-37.0114756" lon="145.0261707"></trkpt>
      <trkpt lat="-37.0115051" lon="145.0261519"></trkpt>
      <trkpt lat="-37.0115364" lon="145.0261391"></trkpt>
      <trkpt lat="-37.0115691" lon="145.0261322"></trkpt>
      <trkpt lat="-37.0116016" lon="145.0261313"></trkpt>
      <trkpt lat="-37.0116348" lon="145.0261367"></trkpt>
      <trkpt lat="-37.0116746" lon="145.0261515"></trkpt>
      <trkpt lat="-37.0117171" lon="145.0261760"></trkpt>
      <trkpt lat="-37.0117947" lon="145.0262442"></trkpt>
      <trkpt lat="-37.0118691" lon="145.0263104"></trkpt>
      <trkpt lat="-37.0118999" lon="145.0263285"></trkpt>
      <trkpt lat="-37.0119285" lon="145.0263392"></trkpt>
      <trkpt lat="-37.0119572" lon="145.0263446"></trkpt>
      <trkpt lat="-37.0119855" lon="145.0263444"></trkpt>
      <trkpt lat="-37.0120027" lon="145.0263411"></trkpt>
      <trkpt lat="-37.0120194" lon="145.0263354"></trkpt>
      <trkpt lat="-37.0120347" lon="145.0263274"></trkpt>
      <trkpt lat="-37.0120486" lon="145.0263169"></trkpt>
      <trkpt lat="-37.0120611" lon="145.0263042"></trkpt>
      <trkpt lat="-37.0120718" lon="145.0262900"></trkpt>
      <trkpt lat="-37.0120809" lon="145.0262736"></trkpt>
      <trkpt lat="-37.0120880" lon="145.0262556"></trkpt>
      <trkpt lat="-37.0120932" lon="145.0262369"></trkpt>
      <trkpt lat="-37.0120966" lon="145.0262170"></trkpt>
      <trkpt lat="-37.0120980" lon="145.0261965"></trkpt>
      <trkpt lat="-37.0120975" lon="145.0261761"></trkpt>
      <trkpt lat="-37.0120955" lon="145.0261561"></trkpt>
      <trkpt lat="-37.0120916" lon="145.0261362"></trkpt>
      <trkpt lat="-37.0120854" lon="145.0261163"></trkpt>
      <trkpt lat="-37.0120692" lon="145.0260834"></trkpt>
      <trkpt lat="-37.0120456" lon="145.0260489"></trkpt>
      <trkpt lat="-37.0119878" lon="145.0259878"></trkpt>
      <trkpt lat="-37.0119329" lon="145.0259275"></trkpt>
      <trkpt lat="-37.0119212" lon="145.0259074"></trkpt>
      <trkpt lat="-37.0119132" lon="145.0258888"></trkpt>
      <trkpt lat="-37.0119073" lon="145.0258696"></trkpt>
      <trkpt lat="-37.0119029" lon="145.0258489"></trkpt>
      <trkpt lat="-37.0119005" lon="145.0258276"></trkpt>
      <trkpt lat="-37.0119003" lon="145.0258064"></trkpt>
      <trkpt lat="-37.0119022" lon="145.0257854"></trkpt>
      <trkpt lat="-37.0119062" lon="145.0257644"></trkpt>
      <trkpt lat="-37.0119121" lon="145.0257443"></trkpt>
      <trkpt lat="-37.0119195" lon="145.0257256"></trkpt>
      <trkpt lat="-37.0119286" lon="145.0257076"></trkpt>
      <trkpt lat="-37.0119401" lon="145.0256904"></trkpt>
      <trkpt lat="-37.0119566" lon="145.0256710"></trkpt>
      <trkpt lat="-37.0119762" lon="145.0256526"></trkpt>
      <trkpt lat="-37.0119976" lon="145.0256370"></trkpt>
      <trkpt lat="-37.0120335" lon="145.0256195"></trkpt>
      <trkpt lat="-37.0120723" lon="145.0256091"></trkpt>
      <trkpt lat="-37.0121136" lon="145.0256067"></trkpt>
      <trkpt lat="-37.0121550" lon="145.0256124"></trkpt>
      <trkpt lat="-37.0121964" lon="145.0256273"></trkpt>
      <trkpt lat="-37.0122353" lon="145.0256501"></trkpt>
      <trkpt lat="-37.0122717" lon="145.0256817"></trkpt>
      <trkpt lat="-37.0123043" lon="145.0257211"></trkpt>
      <trkpt lat="-37.0123381" lon="145.0257775"></trkpt>
      <trkpt lat="-37.0123675" lon="145.0258454"></trkpt>
      <trkpt lat="-37.0123960" lon="145.0259764"></trkpt>
      <trkpt lat="-37.0124136" lon="145.0260942"></trkpt>
      <trkpt lat="-37.0124281" lon="145.0261939"></trkpt>
      <trkpt lat="-37.0124342" lon="145.0262420"></trkpt>
      <trkpt lat="-37.0124415" lon="145.0263068"></trkpt>
      <trkpt lat="-37.0124440" lon="145.0263351"></trkpt>
      <trkpt lat="-37.0124443" lon="145.0263845"></trkpt>
      <trkpt lat="-37.0124404" lon="145.0264388"></trkpt>
      <trkpt lat="-37.0124329" lon="145.0264730"></trkpt>
      <trkpt lat="-37.0124216" lon="145.0265037"></trkpt>
      <trkpt lat="-37.0124127" lon="145.0265218"></trkpt>
      <trkpt lat="-37.0124023" lon="145.0265387"></trkpt>
      <trkpt lat="-37.0123894" lon="145.0265542"></trkpt>
      <trkpt lat="-37.0123613" lon="145.0265762"></trkpt>
      <trkpt lat="-37.0123280" lon="145.0265953"></trkpt>
      <trkpt lat="-37.0122818" lon="145.0266145"></trkpt>
      <trkpt lat="-37.0122394" lon="145.0266329"></trkpt>
      <trkpt lat="-37.0122223" lon="145.0266452"></trkpt>
      <trkpt lat="-37.0122083" lon="145.0266596"></trkpt>
      <trkpt lat="-37.0121896" lon="145.0266859"></trkpt>
      <trkpt lat="-37.0121735" lon="145.0267167"></trkpt>
      <trkpt lat="-37.0121617" lon="145.0267502"></trkpt>
      <trkpt lat="-37.0121541" lon="145.0267868"></trkpt>
      <trkpt lat="-37.0121501" lon="145.0268361"></trkpt>
      <trkpt lat="-37.0121523" lon="145.0268877"></trkpt>
      <trkpt lat="-37.0121621" lon="145.0269389"></trkpt>
      <trkpt lat="-37.0121783" lon="145.0269890"></trkpt>
      <trkpt lat="-37.0122003" lon="145.0270374"></trkpt>
      <trkpt lat="-37.0122285" lon="145.0270847"></trkpt>
    </trkseg>
  </trk>
</gpx>
