<?xml version="1.0" encoding="UTF-8"?>
<gpx version="1.1" creator="tkk2gpx (Aus_Kart.ztracks converter)"
     xmlns="http://www.topografix.com/GPX/1/1"
     xmlns:xsi="http://www.w3.org/2001/XMLSchema-instance"
     xsi:schemaLocation="http://www.topografix.com/GPX/1/1 http://www.topografix.com/GPX/1/1/gpx.xsd">
  <metadata>
    <name>Indy800C</name>
    <desc>Kart track, NSW AU. One lap starting and ending at the Start/Finish line. Declared length 767 m.</desc>
  </metadata>
  <wpt lat="-33.5716207" lon="150.8363789">
    <name>Start/Finish</name>
    <desc>Start/Finish line location</desc>
    <sym>Flag, Checkered</sym>
  </wpt>
  <trk>
    <name>Indy800C - 1 lap</name>
    <trkseg>
      <trkpt lat="-33.5716579" lon="150.8364751"></trkpt>
      <trkpt lat="-33.5717115" lon="150.8364503"></trkpt>
      <trkpt lat="-33.5717474" lon="150.8364269"></trkpt>
      <trkpt lat="-33.5717808" lon="150.8364005"></trkpt>
      <trkpt lat="-33.5718011" lon="150.8363795"></trkpt>
      <trkpt lat="-33.5718172" lon="150.8363595"></trkpt>
      <trkpt lat="-33.5718323" lon="150.8363362"></trkpt>
      <trkpt lat="-33.5718473" lon="150.8363056"></trkpt>
      <trkpt lat="-33.5718591" lon="150.8362723"></trkpt>
      <trkpt lat="-33.5718654" lon="150.8362401"></trkpt>
      <trkpt lat="-33.5718698" lon="150.8362036"></trkpt>
      <trkpt lat="-33.5718723" lon="150.8361195"></trkpt>
      <trkpt lat="-33.5718692" lon="150.8360904"></trkpt>
      <trkpt lat="-33.5718617" lon="150.8360558"></trkpt>
      <trkpt lat="-33.5718503" lon="150.8360222"></trkpt>
      <trkpt lat="-33.5718354" lon="150.8359936"></trkpt>
      <trkpt lat="-33.5718267" lon="150.8359806"></trkpt>
      <trkpt lat="-33.5718170" lon="150.8359687"></trkpt>
      <trkpt lat="-33.5718068" lon="150.8359583"></trkpt>
      <trkpt lat="-33.5717948" lon="150.8359484"></trkpt>
      <trkpt lat="-33.5717713" lon="150.8359329"></trkpt>
      <trkpt lat="-33.5717453" lon="150.8359197"></trkpt>
      <trkpt lat="-33.5717239" lon="150.8359129"></trkpt>
      <trkpt lat="-33.5717023" lon="150.8359104"></trkpt>
      <trkpt lat="-33.5716857" lon="150.8359115"></trkpt>
      <trkpt lat="-33.5716688" lon="150.8359150"></trkpt>
      <trkpt lat="-33.5716528" lon="150.8359210"></trkpt>
      <trkpt lat="-33.5716382" lon="150.8359300"></trkpt>
      <trkpt lat="-33.5716246" lon="150.8359415"></trkpt>
      <trkpt lat="-33.5716130" lon="150.8359537"></trkpt>
      <trkpt lat="-33.5716024" lon="150.8359685"></trkpt>
      <trkpt lat="-33.5715940" lon="150.8359855"></trkpt>
      <trkpt lat="-33.5715855" lon="150.8360122"></trkpt>
      <trkpt lat="-33.5715779" lon="150.8360444"></trkpt>
      <trkpt lat="-33.5715665" lon="150.8361097"></trkpt>
      <trkpt lat="-33.5715522" lon="150.8361727"></trkpt>
      <trkpt lat="-33.5715438" lon="150.8361914"></trkpt>
      <trkpt lat="-33.5715344" lon="150.8362068"></trkpt>
      <trkpt lat="-33.5715237" lon="150.8362202"></trkpt>
      <trkpt lat="-33.5715117" lon="150.8362319"></trkpt>
      <trkpt lat="-33.5714985" lon="150.8362417"></trkpt>
      <trkpt lat="-33.5714845" lon="150.8362493"></trkpt>
      <trkpt lat="-33.5714694" lon="150.8362546"></trkpt>
      <trkpt lat="-33.5714534" lon="150.8362576"></trkpt>
      <trkpt lat="-33.5714375" lon="150.8362579"></trkpt>
      <trkpt lat="-33.5714215" lon="150.8362553"></trkpt>
      <trkpt lat="-33.5714055" lon="150.8362501"></trkpt>
      <trkpt lat="-33.5713905" lon="150.8362425"></trkpt>
      <trkpt lat="-33.5713764" lon="150.8362325"></trkpt>
      <trkpt lat="-33.5713633" lon="150.8362201"></trkpt>
      <trkpt lat="-33.5713517" lon="150.8362060"></trkpt>
      <trkpt lat="-33.5713418" lon="150.8361899"></trkpt>
      <trkpt lat="-33.5713335" lon="150.8361720"></trkpt>
      <trkpt lat="-33.5713271" lon="150.8361533"></trkpt>
      <trkpt lat="-33.5713211" lon="150.8361219"></trkpt>
      <trkpt lat="-33.5713191" lon="150.8360918"></trkpt>
      <trkpt lat="-33.5713196" lon="150.8360758"></trkpt>
      <trkpt lat="-33.5713224" lon="150.8360591"></trkpt>
      <trkpt lat="-33.5713365" lon="150.8360112"></trkpt>
      <trkpt lat="-33.5713556" lon="150.8359620"></trkpt>
      <trkpt lat="-33.5713670" lon="150.8359397"></trkpt>
      <trkpt lat="-33.5713832" lon="150.8359155"></trkpt>
      <trkpt lat="-33.5716561" lon="150.8355863"></trkpt>
      <trkpt lat="-33.5716820" lon="150.8355620"></trkpt>
      <trkpt lat="-33.5717059" lon="150.8355449"></trkpt>
      <trkpt lat="-33.5717456" lon="150.8355216"></trkpt>
      <trkpt lat="-33.5717891" lon="150.8355036"></trkpt>
      <trkpt lat="-33.5718331" lon="150.8354946"></trkpt>
      <trkpt lat="-33.5718774" lon="150.8354941"></trkpt>
      <trkpt lat="-33.5719204" lon="150.8355033"></trkpt>
      <trkpt lat="-33.5719618" lon="150.8355204"></trkpt>
      <trkpt lat="-33.5720011" lon="150.8355444"></trkpt>
      <trkpt lat="-33.5720370" lon="150.8355749"></trkpt>
      <trkpt lat="-33.5720685" lon="150.8356112"></trkpt>
      <trkpt lat="-33.5720951" lon="150.8356525"></trkpt>
      <trkpt lat="-33.5721139" lon="150.8356922"></trkpt>
      <trkpt lat="-33.5721310" lon="150.8357466"></trkpt>
      <trkpt lat="-33.5722165" lon="150.8361603"></trkpt>
      <trkpt lat="-33.5722817" lon="150.8365572"></trkpt>
      <trkpt lat="-33.5722835" lon="150.8365908"></trkpt>
      <trkpt lat="-33.5722823" lon="150.8366145"></trkpt>
      <trkpt lat="-33.5722808" lon="150.8366317"></trkpt>
      <trkpt lat="-33.5722773" lon="150.8366492"></trkpt>
      <trkpt lat="-33.5722661" lon="150.8366854"></trkpt>
      <trkpt lat="-33.5722496" lon="150.8367212"></trkpt>
      <trkpt lat="-33.5722377" lon="150.8367374"></trkpt>
      <trkpt lat="-33.5722241" lon="150.8367512"></trkpt>
      <trkpt lat="-33.5722095" lon="150.8367627"></trkpt>
      <trkpt lat="-33.5721938" lon="150.8367719"></trkpt>
      <trkpt lat="-33.5721770" lon="150.8367787"></trkpt>
      <trkpt lat="-33.5721598" lon="150.8367830"></trkpt>
      <trkpt lat="-33.5721317" lon="150.8367837"></trkpt>
      <trkpt lat="-33.5721069" lon="150.8367804"></trkpt>
      <trkpt lat="-33.5720981" lon="150.8367782"></trkpt>
      <trkpt lat="-33.5720897" lon="150.8367744"></trkpt>
      <trkpt lat="-33.5720677" lon="150.8367610"></trkpt>
      <trkpt lat="-33.5720419" lon="150.8367410"></trkpt>
      <trkpt lat="-33.5720016" lon="150.8366984"></trkpt>
      <trkpt lat="-33.5719621" lon="150.8366564"></trkpt>
      <trkpt lat="-33.5719412" lon="150.8366394"></trkpt>
      <trkpt lat="-33.5719216" lon="150.8366274"></trkpt>
      <trkpt lat="-33.5719134" lon="150.8366233"></trkpt>
      <trkpt lat="-33.5719054" lon="150.8366198"></trkpt>
      <trkpt lat="-33.5718970" lon="150.8366174"></trkpt>
      <trkpt lat="-33.5718872" lon="150.8366164"></trkpt>
      <trkpt lat="-33.5718722" lon="150.8366146"></trkpt>
      <trkpt lat="-33.5718585" lon="150.8366137"></trkpt>
      <trkpt lat="-33.5718361" lon="150.8366161"></trkpt>
      <trkpt lat="-33.5718196" lon="150.8366232"></trkpt>
      <trkpt lat="-33.5717941" lon="150.8366411"></trkpt>
      <trkpt lat="-33.5717835" lon="150.8366551"></trkpt>
      <trkpt lat="-33.5717746" lon="150.8366705"></trkpt>
      <trkpt lat="-33.5717683" lon="150.8366833"></trkpt>
      <trkpt lat="-33.5717633" lon="150.8366966"></trkpt>
      <trkpt lat="-33.5717591" lon="150.8367120"></trkpt>
      <trkpt lat="-33.5717564" lon="150.8367292"></trkpt>
      <trkpt lat="-33.5717546" lon="150.8367564"></trkpt>
      <trkpt lat="-33.5717567" lon="150.8367872"></trkpt>
      <trkpt lat="-33.5717638" lon="150.8368186"></trkpt>
      <trkpt lat="-33.5717746" lon="150.8368521"></trkpt>
      <trkpt lat="-33.5717874" lon="150.8368804"></trkpt>
      <trkpt lat="-33.5718044" lon="150.8369032"></trkpt>
      <trkpt lat="-33.5718219" lon="150.8369199"></trkpt>
      <trkpt lat="-33.5718330" lon="150.8369285"></trkpt>
      <trkpt lat="-33.5718440" lon="150.8369352"></trkpt>
      <trkpt lat="-33.5718553" lon="150.8369413"></trkpt>
      <trkpt lat="-33.5718681" lon="150.8369465"></trkpt>
      <trkpt lat="-33.5719219" lon="150.8369563"></trkpt>
      <trkpt lat="-33.5720068" lon="150.8369672"></trkpt>
      <trkpt lat="-33.5720317" lon="150.8369758"></trkpt>
      <trkpt lat="-33.5720539" lon="150.8369885"></trkpt>
      <trkpt lat="-33.5720708" lon="150.8370026"></trkpt>
      <trkpt lat="-33.5720870" lon="150.8370195"></trkpt>
      <trkpt lat="-33.5721000" lon="150.8370368"></trkpt>
      <trkpt lat="-33.5721070" lon="150.8370492"></trkpt>
      <trkpt lat="-33.5721121" lon="150.8370617"></trkpt>
      <trkpt lat="-33.5721159" lon="150.8370756"></trkpt>
      <trkpt lat="-33.5721192" lon="150.8370955"></trkpt>
      <trkpt lat="-33.5721206" lon="150.8371174"></trkpt>
      <trkpt lat="-33.5721196" lon="150.8371389"></trkpt>
      <trkpt lat="-33.5721159" lon="150.8371596"></trkpt>
      <trkpt lat="-33.5721098" lon="150.8371798"></trkpt>
      <trkpt lat="-33.5721025" lon="150.8371976"></trkpt>
      <trkpt lat="-33.5720961" lon="150.8372094"></trkpt>
      <trkpt lat="-33.5720888" lon="150.8372196"></trkpt>
      <trkpt lat="-33.5720799" lon="150.8372290"></trkpt>
      <trkpt lat="-33.5720554" lon="150.8372457"></trkpt>
      <trkpt lat="-33.5720299" lon="150.8372579"></trkpt>
      <trkpt lat="-33.5720180" lon="150.8372619"></trkpt>
      <trkpt lat="-33.5720053" lon="150.8372637"></trkpt>
      <trkpt lat="-33.5719717" lon="150.8372632"></trkpt>
      <trkpt lat="-33.5719268" lon="150.8372565"></trkpt>
      <trkpt lat="-33.5717856" lon="150.8372182"></trkpt>
      <trkpt lat="-33.5716498" lon="150.8371672"></trkpt>
      <trkpt lat="-33.5716161" lon="150.8371459"></trkpt>
      <trkpt lat="-33.5715907" lon="150.8371222"></trkpt>
      <trkpt lat="-33.5715659" lon="150.8370906"></trkpt>
      <trkpt lat="-33.5715468" lon="150.8370598"></trkpt>
      <trkpt lat="-33.5715406" lon="150.8370477"></trkpt>
      <trkpt lat="-33.5715354" lon="150.8370340"></trkpt>
      <trkpt lat="-33.5715175" lon="150.8369705"></trkpt>
      <trkpt lat="-33.5714989" lon="150.8369070"></trkpt>
      <trkpt lat="-33.5714928" lon="150.8368927"></trkpt>
      <trkpt lat="-33.5714854" lon="150.8368806"></trkpt>
      <trkpt lat="-33.5714642" lon="150.8368546"></trkpt>
      <trkpt lat="-33.5714395" lon="150.8368316"></trkpt>
      <trkpt lat="-33.5714285" lon="150.8368250"></trkpt>
      <trkpt lat="-33.5714176" lon="150.8368205"></trkpt>
      <trkpt lat="-33.5714066" lon="150.8368177"></trkpt>
      <trkpt lat="-33.5713955" lon="150.8368164"></trkpt>
      <trkpt lat="-33.5713843" lon="150.8368167"></trkpt>
      <trkpt lat="-33.5713732" lon="150.8368185"></trkpt>
      <trkpt lat="-33.5713567" lon="150.8368242"></trkpt>
      <trkpt lat="-33.5713410" lon="150.8368332"></trkpt>
      <trkpt lat="-33.5713264" lon="150.8368454"></trkpt>
      <trkpt lat="-33.5713133" lon="150.8368602"></trkpt>
      <trkpt lat="-33.5713023" lon="150.8368767"></trkpt>
      <trkpt lat="-33.5712916" lon="150.8368973"></trkpt>
      <trkpt lat="-33.5712694" lon="150.8369549"></trkpt>
      <trkpt lat="-33.5712474" lon="150.8370099"></trkpt>
      <trkpt lat="-33.5712383" lon="150.8370240"></trkpt>
      <trkpt lat="-33.5712292" lon="150.8370348"></trkpt>
      <trkpt lat="-33.5712080" lon="150.8370558"></trkpt>
      <trkpt lat="-33.5711970" lon="150.8370642"></trkpt>
      <trkpt lat="-33.5711844" lon="150.8370716"></trkpt>
      <trkpt lat="-33.5711595" lon="150.8370814"></trkpt>
      <trkpt lat="-33.5711341" lon="150.8370881"></trkpt>
      <trkpt lat="-33.5711215" lon="150.8370895"></trkpt>
      <trkpt lat="-33.5711089" lon="150.8370887"></trkpt>
      <trkpt lat="-33.5710836" lon="150.8370833"></trkpt>
      <trkpt lat="-33.5710587" lon="150.8370748"></trkpt>
      <trkpt lat="-33.5710461" lon="150.8370681"></trkpt>
      <trkpt lat="-33.5710350" lon="150.8370605"></trkpt>
      <trkpt lat="-33.5710133" lon="150.8370419"></trkpt>
      <trkpt lat="-33.5709941" lon="150.8370188"></trkpt>
      <trkpt lat="-33.5709858" lon="150.8370059"></trkpt>
      <trkpt lat="-33.5709784" lon="150.8369921"></trkpt>
      <trkpt lat="-33.5709721" lon="150.8369772"></trkpt>
      <trkpt lat="-33.5709669" lon="150.8369615"></trkpt>
      <trkpt lat="-33.5709626" lon="150.8369463"></trkpt>
      <trkpt lat="-33.5709596" lon="150.8369286"></trkpt>
      <trkpt lat="-33.5709579" lon="150.8368823"></trkpt>
      <trkpt lat="-33.5709617" lon="150.8368311"></trkpt>
      <trkpt lat="-33.5709726" lon="150.8367897"></trkpt>
      <trkpt lat="-33.5709875" lon="150.8367525"></trkpt>
      <trkpt lat="-33.5710009" lon="150.8367269"></trkpt>
      <trkpt lat="-33.5710159" lon="150.8367041"></trkpt>
      <trkpt lat="-33.5710522" lon="150.8366617"></trkpt>
      <trkpt lat="-33.5710938" lon="150.8366235"></trkpt>
      <trkpt lat="-33.5711404" lon="150.8365914"></trkpt>
      <trkpt lat="-33.5711906" lon="150.8365653"></trkpt>
      <trkpt lat="-33.5712452" lon="150.8365515"></trkpt>
      <trkpt lat="-33.5715412" lon="150.8365079"></trkpt>
      <trkpt lat="-33.5715723" lon="150.8364992"></trkpt>
      <trkpt lat="-33.5716579" lon="150.8364751"></trkpt>
    </trkseg>
  </trk>
</gpx>
