<?xml version="1.0" encoding="UTF-8"?>
<gpx version="1.1" creator="tkk2gpx (Aus_Kart.ztracks converter)"
     xmlns="http://www.topografix.com/GPX/1/1"
     xmlns:xsi="http://www.w3.org/2001/XMLSchema-instance"
     xsi:schemaLocation="http://www.topografix.com/GPX/1/1 http://www.topografix.com/GPX/1/1/gpx.xsd">
  <metadata>
    <name>OakleighK</name>
    <desc>Kart track, VIC AU. One lap starting and ending at the Start/Finish line. Declared length 793 m.</desc>
  </metadata>
  <wpt lat="-37.9537666" lon="145.1200243">
    <name>Start/Finish</name>
    <desc>Start/Finish line location</desc>
    <sym>Flag, Checkered</sym>
  </wpt>
  <trk>
    <name>OakleighK - 1 lap</name>
    <trkseg>
      <trkpt lat="-37.9537034" lon="145.1200118"></trkpt>
      <trkpt lat="-37.9537039" lon="145.1199908"></trkpt>
      <trkpt lat="-37.9537018" lon="145.1199626"></trkpt>
      <trkpt lat="-37.9536965" lon="145.1199338"></trkpt>
      <trkpt lat="-37.9536903" lon="145.1199133"></trkpt>
      <trkpt lat="-37.9536823" lon="145.1198931"></trkpt>
      <trkpt lat="-37.9536728" lon="145.1198751"></trkpt>
      <trkpt lat="-37.9536625" lon="145.1198610"></trkpt>
      <trkpt lat="-37.9536508" lon="145.1198489"></trkpt>
      <trkpt lat="-37.9536383" lon="145.1198390"></trkpt>
      <trkpt lat="-37.9536247" lon="145.1198314"></trkpt>
      <trkpt lat="-37.9536102" lon="145.1198259"></trkpt>
      <trkpt lat="-37.9535961" lon="145.1198226"></trkpt>
      <trkpt lat="-37.9535783" lon="145.1198219"></trkpt>
      <trkpt lat="-37.9535606" lon="145.1198245"></trkpt>
      <trkpt lat="-37.9535404" lon="145.1198298"></trkpt>
      <trkpt lat="-37.9535194" lon="145.1198392"></trkpt>
      <trkpt lat="-37.9534904" lon="145.1198592"></trkpt>
      <trkpt lat="-37.9534635" lon="145.1198848"></trkpt>
      <trkpt lat="-37.9534459" lon="145.1199111"></trkpt>
      <trkpt lat="-37.9534329" lon="145.1199375"></trkpt>
      <trkpt lat="-37.9534271" lon="145.1199535"></trkpt>
      <trkpt lat="-37.9534232" lon="145.1199691"></trkpt>
      <trkpt lat="-37.9534178" lon="145.1200023"></trkpt>
      <trkpt lat="-37.9534170" lon="145.1200350"></trkpt>
      <trkpt lat="-37.9534206" lon="145.1200726"></trkpt>
      <trkpt lat="-37.9534430" lon="145.1201728"></trkpt>
      <trkpt lat="-37.9534643" lon="145.1202736"></trkpt>
      <trkpt lat="-37.9534659" lon="145.1202948"></trkpt>
      <trkpt lat="-37.9534650" lon="145.1203135"></trkpt>
      <trkpt lat="-37.9534612" lon="145.1203464"></trkpt>
      <trkpt lat="-37.9534533" lon="145.1203807"></trkpt>
      <trkpt lat="-37.9534448" lon="145.1204032"></trkpt>
      <trkpt lat="-37.9534342" lon="145.1204249"></trkpt>
      <trkpt lat="-37.9534218" lon="145.1204440"></trkpt>
      <trkpt lat="-37.9534079" lon="145.1204594"></trkpt>
      <trkpt lat="-37.9533925" lon="145.1204723"></trkpt>
      <trkpt lat="-37.9533774" lon="145.1204822"></trkpt>
      <trkpt lat="-37.9533619" lon="145.1204888"></trkpt>
      <trkpt lat="-37.9533437" lon="145.1204928"></trkpt>
      <trkpt lat="-37.9532757" lon="145.1204991"></trkpt>
      <trkpt lat="-37.9532062" lon="145.1205073"></trkpt>
      <trkpt lat="-37.9531898" lon="145.1205123"></trkpt>
      <trkpt lat="-37.9531762" lon="145.1205182"></trkpt>
      <trkpt lat="-37.9531641" lon="145.1205262"></trkpt>
      <trkpt lat="-37.9531532" lon="145.1205364"></trkpt>
      <trkpt lat="-37.9531436" lon="145.1205486"></trkpt>
      <trkpt lat="-37.9531358" lon="145.1205620"></trkpt>
      <trkpt lat="-37.9531300" lon="145.1205763"></trkpt>
      <trkpt lat="-37.9531258" lon="145.1205917"></trkpt>
      <trkpt lat="-37.9531236" lon="145.1206074"></trkpt>
      <trkpt lat="-37.9531235" lon="145.1206233"></trkpt>
      <trkpt lat="-37.9531253" lon="145.1206394"></trkpt>
      <trkpt lat="-37.9531289" lon="145.1206547"></trkpt>
      <trkpt lat="-37.9531348" lon="145.1206695"></trkpt>
      <trkpt lat="-37.9531425" lon="145.1206835"></trkpt>
      <trkpt lat="-37.9531508" lon="145.1206955"></trkpt>
      <trkpt lat="-37.9531615" lon="145.1207068"></trkpt>
      <trkpt lat="-37.9531735" lon="145.1207155"></trkpt>
      <trkpt lat="-37.9531909" lon="145.1207240"></trkpt>
      <trkpt lat="-37.9532085" lon="145.1207298"></trkpt>
      <trkpt lat="-37.9532188" lon="145.1207320"></trkpt>
      <trkpt lat="-37.9532296" lon="145.1207326"></trkpt>
      <trkpt lat="-37.9532825" lon="145.1207240"></trkpt>
      <trkpt lat="-37.9533459" lon="145.1207082"></trkpt>
      <trkpt lat="-37.9535683" lon="145.1206771"></trkpt>
      <trkpt lat="-37.9536476" lon="145.1206797"></trkpt>
      <trkpt lat="-37.9538590" lon="145.1207091"></trkpt>
      <trkpt lat="-37.9539731" lon="145.1207198"></trkpt>
      <trkpt lat="-37.9540858" lon="145.1207170"></trkpt>
      <trkpt lat="-37.9541382" lon="145.1207060"></trkpt>
      <trkpt lat="-37.9541850" lon="145.1206894"></trkpt>
      <trkpt lat="-37.9542240" lon="145.1206680"></trkpt>
      <trkpt lat="-37.9542596" lon="145.1206413"></trkpt>
      <trkpt lat="-37.9542954" lon="145.1206069"></trkpt>
      <trkpt lat="-37.9543276" lon="145.1205676"></trkpt>
      <trkpt lat="-37.9543560" lon="145.1205235"></trkpt>
      <trkpt lat="-37.9543789" lon="145.1204763"></trkpt>
      <trkpt lat="-37.9543946" lon="145.1204285"></trkpt>
      <trkpt lat="-37.9544047" lon="145.1203767"></trkpt>
      <trkpt lat="-37.9544097" lon="145.1203079"></trkpt>
      <trkpt lat="-37.9544087" lon="145.1202245"></trkpt>
      <trkpt lat="-37.9543740" lon="145.1197593"></trkpt>
      <trkpt lat="-37.9543594" lon="145.1196670"></trkpt>
      <trkpt lat="-37.9543416" lon="145.1195917"></trkpt>
      <trkpt lat="-37.9543254" lon="145.1195413"></trkpt>
      <trkpt lat="-37.9543052" lon="145.1194962"></trkpt>
      <trkpt lat="-37.9542786" lon="145.1194524"></trkpt>
      <trkpt lat="-37.9542468" lon="145.1194131"></trkpt>
      <trkpt lat="-37.9542121" lon="145.1193818"></trkpt>
      <trkpt lat="-37.9541729" lon="145.1193561"></trkpt>
      <trkpt lat="-37.9541260" lon="145.1193344"></trkpt>
      <trkpt lat="-37.9540751" lon="145.1193201"></trkpt>
      <trkpt lat="-37.9540237" lon="145.1193159"></trkpt>
      <trkpt lat="-37.9539598" lon="145.1193193"></trkpt>
      <trkpt lat="-37.9537565" lon="145.1193413"></trkpt>
      <trkpt lat="-37.9537235" lon="145.1193449"></trkpt>
      <trkpt lat="-37.9536596" lon="145.1193518"></trkpt>
      <trkpt lat="-37.9533782" lon="145.1194002"></trkpt>
      <trkpt lat="-37.9533577" lon="145.1194064"></trkpt>
      <trkpt lat="-37.9533416" lon="145.1194141"></trkpt>
      <trkpt lat="-37.9533197" lon="145.1194284"></trkpt>
      <trkpt lat="-37.9532987" lon="145.1194472"></trkpt>
      <trkpt lat="-37.9532852" lon="145.1194634"></trkpt>
      <trkpt lat="-37.9532728" lon="145.1194818"></trkpt>
      <trkpt lat="-37.9532632" lon="145.1195017"></trkpt>
      <trkpt lat="-37.9532569" lon="145.1195238"></trkpt>
      <trkpt lat="-37.9532533" lon="145.1195473"></trkpt>
      <trkpt lat="-37.9532525" lon="145.1195685"></trkpt>
      <trkpt lat="-37.9532539" lon="145.1195816"></trkpt>
      <trkpt lat="-37.9532569" lon="145.1195935"></trkpt>
      <trkpt lat="-37.9532610" lon="145.1196051"></trkpt>
      <trkpt lat="-37.9532700" lon="145.1196248"></trkpt>
      <trkpt lat="-37.9532816" lon="145.1196431"></trkpt>
      <trkpt lat="-37.9532968" lon="145.1196593"></trkpt>
      <trkpt lat="-37.9533124" lon="145.1196722"></trkpt>
      <trkpt lat="-37.9533213" lon="145.1196782"></trkpt>
      <trkpt lat="-37.9533305" lon="145.1196830"></trkpt>
      <trkpt lat="-37.9533602" lon="145.1196939"></trkpt>
      <trkpt lat="-37.9533765" lon="145.1196971"></trkpt>
      <trkpt lat="-37.9533938" lon="145.1196985"></trkpt>
      <trkpt lat="-37.9534423" lon="145.1196942"></trkpt>
      <trkpt lat="-37.9535031" lon="145.1196810"></trkpt>
      <trkpt lat="-37.9539165" lon="145.1195626"></trkpt>
      <trkpt lat="-37.9539365" lon="145.1195598"></trkpt>
      <trkpt lat="-37.9539522" lon="145.1195603"></trkpt>
      <trkpt lat="-37.9539754" lon="145.1195639"></trkpt>
      <trkpt lat="-37.9539986" lon="145.1195718"></trkpt>
      <trkpt lat="-37.9540139" lon="145.1195804"></trkpt>
      <trkpt lat="-37.9540286" lon="145.1195912"></trkpt>
      <trkpt lat="-37.9540410" lon="145.1196042"></trkpt>
      <trkpt lat="-37.9540496" lon="145.1196183"></trkpt>
      <trkpt lat="-37.9540563" lon="145.1196341"></trkpt>
      <trkpt lat="-37.9540611" lon="145.1196502"></trkpt>
      <trkpt lat="-37.9540640" lon="145.1196645"></trkpt>
      <trkpt lat="-37.9540654" lon="145.1196790"></trkpt>
      <trkpt lat="-37.9540652" lon="145.1196945"></trkpt>
      <trkpt lat="-37.9540594" lon="145.1197299"></trkpt>
      <trkpt lat="-37.9540499" lon="145.1197634"></trkpt>
      <trkpt lat="-37.9540429" lon="145.1197801"></trkpt>
      <trkpt lat="-37.9540348" lon="145.1197947"></trkpt>
      <trkpt lat="-37.9540255" lon="145.1198099"></trkpt>
      <trkpt lat="-37.9540125" lon="145.1198270"></trkpt>
      <trkpt lat="-37.9539468" lon="145.1198926"></trkpt>
      <trkpt lat="-37.9538825" lon="145.1199575"></trkpt>
      <trkpt lat="-37.9538719" lon="145.1199720"></trkpt>
      <trkpt lat="-37.9538643" lon="145.1199865"></trkpt>
      <trkpt lat="-37.9538561" lon="145.1200064"></trkpt>
      <trkpt lat="-37.9538485" lon="145.1200296"></trkpt>
      <trkpt lat="-37.9538435" lon="145.1200525"></trkpt>
      <trkpt lat="-37.9538420" lon="145.1200718"></trkpt>
      <trkpt lat="-37.9538427" lon="145.1200909"></trkpt>
      <trkpt lat="-37.9538453" lon="145.1201094"></trkpt>
      <trkpt lat="-37.9538499" lon="145.1201275"></trkpt>
      <trkpt lat="-37.9538565" lon="145.1201450"></trkpt>
      <trkpt lat="-37.9538645" lon="145.1201612"></trkpt>
      <trkpt lat="-37.9538809" lon="145.1201839"></trkpt>
      <trkpt lat="-37.9538976" lon="145.1202014"></trkpt>
      <trkpt lat="-37.9539047" lon="145.1202070"></trkpt>
      <trkpt lat="-37.9539120" lon="145.1202111"></trkpt>
      <trkpt lat="-37.9539259" lon="145.1202167"></trkpt>
      <trkpt lat="-37.9539415" lon="145.1202212"></trkpt>
      <trkpt lat="-37.9539759" lon="145.1202267"></trkpt>
      <trkpt lat="-37.9540377" lon="145.1202285"></trkpt>
      <trkpt lat="-37.9541001" lon="145.1202358"></trkpt>
      <trkpt lat="-37.9541158" lon="145.1202430"></trkpt>
      <trkpt lat="-37.9541285" lon="145.1202521"></trkpt>
      <trkpt lat="-37.9541396" lon="145.1202629"></trkpt>
      <trkpt lat="-37.9541493" lon="145.1202753"></trkpt>
      <trkpt lat="-37.9541576" lon="145.1202892"></trkpt>
      <trkpt lat="-37.9541638" lon="145.1203030"></trkpt>
      <trkpt lat="-37.9541670" lon="145.1203130"></trkpt>
      <trkpt lat="-37.9541689" lon="145.1203230"></trkpt>
      <trkpt lat="-37.9541695" lon="145.1203342"></trkpt>
      <trkpt lat="-37.9541682" lon="145.1203543"></trkpt>
      <trkpt lat="-37.9541644" lon="145.1203769"></trkpt>
      <trkpt lat="-37.9541580" lon="145.1203980"></trkpt>
      <trkpt lat="-37.9541479" lon="145.1204173"></trkpt>
      <trkpt lat="-37.9541351" lon="145.1204351"></trkpt>
      <trkpt lat="-37.9541219" lon="145.1204496"></trkpt>
      <trkpt lat="-37.9541056" lon="145.1204617"></trkpt>
      <trkpt lat="-37.9540897" lon="145.1204697"></trkpt>
      <trkpt lat="-37.9540799" lon="145.1204736"></trkpt>
      <trkpt lat="-37.9540688" lon="145.1204760"></trkpt>
      <trkpt lat="-37.9539909" lon="145.1204790"></trkpt>
      <trkpt lat="-37.9538451" lon="145.1204588"></trkpt>
      <trkpt lat="-37.9538175" lon="145.1204515"></trkpt>
      <trkpt lat="-37.9537935" lon="145.1204418"></trkpt>
      <trkpt lat="-37.9537652" lon="145.1204255"></trkpt>
      <trkpt lat="-37.9537402" lon="145.1204071"></trkpt>
      <trkpt lat="-37.9537280" lon="145.1203959"></trkpt>
      <trkpt lat="-37.9537171" lon="145.1203830"></trkpt>
      <trkpt lat="-37.9536987" lon="145.1203570"></trkpt>
      <trkpt lat="-37.9536819" lon="145.1203260"></trkpt>
      <trkpt lat="-37.9536698" lon="145.1202889"></trkpt>
      <trkpt lat="-37.9536628" lon="145.1202548"></trkpt>
      <trkpt lat="-37.9536617" lon="145.1202433"></trkpt>
      <trkpt lat="-37.9536622" lon="145.1202317"></trkpt>
      <trkpt lat="-37.9536752" lon="145.1201586"></trkpt>
      <trkpt lat="-37.9537006" lon="145.1200348"></trkpt>
      <trkpt lat="-37.9537034" lon="145.1200118"></trkpt>
    </trkseg>
  </trk>
</gpx>
