<?xml version="1.0" encoding="UTF-8"?>
<gpx version="1.1" creator="tkk2gpx (Aus_Kart.ztracks converter)"
     xmlns="http://www.topografix.com/GPX/1/1"
     xmlns:xsi="http://www.w3.org/2001/XMLSchema-instance"
     xsi:schemaLocation="http://www.topografix.com/GPX/1/1 http://www.topografix.com/GPX/1/1/gpx.xsd">
  <metadata>
    <name>StonyCreek</name>
    <desc>Kart track, VIC AU. One lap starting and ending at the Start/Finish line. Declared length 731 m.</desc>
  </metadata>
  <wpt lat="-38.5803768" lon="146.0418074">
    <name>Start/Finish</name>
    <desc>Start/Finish line location</desc>
    <sym>Flag, Checkered</sym>
  </wpt>
  <trk>
    <name>StonyCreek - 1 lap</name>
    <trkseg>
      <trkpt lat="-38.5805156" lon="146.0417267"></trkpt>
      <trkpt lat="-38.5805226" lon="146.0417492"></trkpt>
      <trkpt lat="-38.5805324" lon="146.0417697"></trkpt>
      <trkpt lat="-38.5805444" lon="146.0417871"></trkpt>
      <trkpt lat="-38.5805589" lon="146.0418027"></trkpt>
      <trkpt lat="-38.5805752" lon="146.0418148"></trkpt>
      <trkpt lat="-38.5805934" lon="146.0418228"></trkpt>
      <trkpt lat="-38.5806133" lon="146.0418276"></trkpt>
      <trkpt lat="-38.5806326" lon="146.0418292"></trkpt>
      <trkpt lat="-38.5806539" lon="146.0418266"></trkpt>
      <trkpt lat="-38.5806795" lon="146.0418180"></trkpt>
      <trkpt lat="-38.5810072" lon="146.0416588"></trkpt>
      <trkpt lat="-38.5810904" lon="146.0416023"></trkpt>
      <trkpt lat="-38.5811177" lon="146.0415772"></trkpt>
      <trkpt lat="-38.5811413" lon="146.0415508"></trkpt>
      <trkpt lat="-38.5811806" lon="146.0414939"></trkpt>
      <trkpt lat="-38.5812129" lon="146.0414362"></trkpt>
      <trkpt lat="-38.5812290" lon="146.0414128"></trkpt>
      <trkpt lat="-38.5812475" lon="146.0413921"></trkpt>
      <trkpt lat="-38.5812635" lon="146.0413789"></trkpt>
      <trkpt lat="-38.5812813" lon="146.0413672"></trkpt>
      <trkpt lat="-38.5812997" lon="146.0413592"></trkpt>
      <trkpt lat="-38.5813176" lon="146.0413556"></trkpt>
      <trkpt lat="-38.5813361" lon="146.0413553"></trkpt>
      <trkpt lat="-38.5813535" lon="146.0413585"></trkpt>
      <trkpt lat="-38.5813658" lon="146.0413637"></trkpt>
      <trkpt lat="-38.5813777" lon="146.0413711"></trkpt>
      <trkpt lat="-38.5813887" lon="146.0413803"></trkpt>
      <trkpt lat="-38.5813982" lon="146.0413905"></trkpt>
      <trkpt lat="-38.5814068" lon="146.0414030"></trkpt>
      <trkpt lat="-38.5814139" lon="146.0414172"></trkpt>
      <trkpt lat="-38.5814195" lon="146.0414323"></trkpt>
      <trkpt lat="-38.5814235" lon="146.0414478"></trkpt>
      <trkpt lat="-38.5814262" lon="146.0414701"></trkpt>
      <trkpt lat="-38.5814258" lon="146.0414934"></trkpt>
      <trkpt lat="-38.5814228" lon="146.0415164"></trkpt>
      <trkpt lat="-38.5814120" lon="146.0415517"></trkpt>
      <trkpt lat="-38.5813974" lon="146.0415853"></trkpt>
      <trkpt lat="-38.5813693" lon="146.0416384"></trkpt>
      <trkpt lat="-38.5813331" lon="146.0416904"></trkpt>
      <trkpt lat="-38.5812882" lon="146.0417377"></trkpt>
      <trkpt lat="-38.5812435" lon="146.0417763"></trkpt>
      <trkpt lat="-38.5811792" lon="146.0418188"></trkpt>
      <trkpt lat="-38.5805902" lon="146.0420467"></trkpt>
      <trkpt lat="-38.5801801" lon="146.0421910"></trkpt>
      <trkpt lat="-38.5800867" lon="146.0422048"></trkpt>
      <trkpt lat="-38.5800529" lon="146.0422047"></trkpt>
      <trkpt lat="-38.5800210" lon="146.0422009"></trkpt>
      <trkpt lat="-38.5799612" lon="146.0421824"></trkpt>
      <trkpt lat="-38.5799067" lon="146.0421583"></trkpt>
      <trkpt lat="-38.5798819" lon="146.0421503"></trkpt>
      <trkpt lat="-38.5798573" lon="146.0421460"></trkpt>
      <trkpt lat="-38.5798338" lon="146.0421471"></trkpt>
      <trkpt lat="-38.5798111" lon="146.0421525"></trkpt>
      <trkpt lat="-38.5797890" lon="146.0421626"></trkpt>
      <trkpt lat="-38.5797686" lon="146.0421768"></trkpt>
      <trkpt lat="-38.5797500" lon="146.0421957"></trkpt>
      <trkpt lat="-38.5797340" lon="146.0422178"></trkpt>
      <trkpt lat="-38.5797216" lon="146.0422444"></trkpt>
      <trkpt lat="-38.5797096" lon="146.0422725"></trkpt>
      <trkpt lat="-38.5796928" lon="146.0423039"></trkpt>
      <trkpt lat="-38.5796725" lon="146.0423314"></trkpt>
      <trkpt lat="-38.5796619" lon="146.0423405"></trkpt>
      <trkpt lat="-38.5796505" lon="146.0423484"></trkpt>
      <trkpt lat="-38.5796384" lon="146.0423543"></trkpt>
      <trkpt lat="-38.5796260" lon="146.0423575"></trkpt>
      <trkpt lat="-38.5796151" lon="146.0423578"></trkpt>
      <trkpt lat="-38.5796034" lon="146.0423564"></trkpt>
      <trkpt lat="-38.5795918" lon="146.0423532"></trkpt>
      <trkpt lat="-38.5795808" lon="146.0423486"></trkpt>
      <trkpt lat="-38.5795715" lon="146.0423425"></trkpt>
      <trkpt lat="-38.5795632" lon="146.0423338"></trkpt>
      <trkpt lat="-38.5795559" lon="146.0423228"></trkpt>
      <trkpt lat="-38.5795500" lon="146.0423104"></trkpt>
      <trkpt lat="-38.5795453" lon="146.0422975"></trkpt>
      <trkpt lat="-38.5795420" lon="146.0422850"></trkpt>
      <trkpt lat="-38.5795401" lon="146.0422704"></trkpt>
      <trkpt lat="-38.5795402" lon="146.0422554"></trkpt>
      <trkpt lat="-38.5795421" lon="146.0422404"></trkpt>
      <trkpt lat="-38.5795453" lon="146.0422259"></trkpt>
      <trkpt lat="-38.5795580" lon="146.0421988"></trkpt>
      <trkpt lat="-38.5795730" lon="146.0421716"></trkpt>
      <trkpt lat="-38.5795863" lon="146.0421406"></trkpt>
      <trkpt lat="-38.5795956" lon="146.0421083"></trkpt>
      <trkpt lat="-38.5795976" lon="146.0420861"></trkpt>
      <trkpt lat="-38.5795967" lon="146.0420636"></trkpt>
      <trkpt lat="-38.5795928" lon="146.0420422"></trkpt>
      <trkpt lat="-38.5795880" lon="146.0420277"></trkpt>
      <trkpt lat="-38.5795815" lon="146.0420136"></trkpt>
      <trkpt lat="-38.5795736" lon="146.0420005"></trkpt>
      <trkpt lat="-38.5795644" lon="146.0419893"></trkpt>
      <trkpt lat="-38.5795504" lon="146.0419774"></trkpt>
      <trkpt lat="-38.5795341" lon="146.0419681"></trkpt>
      <trkpt lat="-38.5795170" lon="146.0419623"></trkpt>
      <trkpt lat="-38.5794891" lon="146.0419634"></trkpt>
      <trkpt lat="-38.5794600" lon="146.0419675"></trkpt>
      <trkpt lat="-38.5794298" lon="146.0419683"></trkpt>
      <trkpt lat="-38.5794010" lon="146.0419640"></trkpt>
      <trkpt lat="-38.5793838" lon="146.0419556"></trkpt>
      <trkpt lat="-38.5793678" lon="146.0419438"></trkpt>
      <trkpt lat="-38.5793543" lon="146.0419298"></trkpt>
      <trkpt lat="-38.5793457" lon="146.0419172"></trkpt>
      <trkpt lat="-38.5793386" lon="146.0419031"></trkpt>
      <trkpt lat="-38.5793330" lon="146.0418880"></trkpt>
      <trkpt lat="-38.5793293" lon="146.0418728"></trkpt>
      <trkpt lat="-38.5793274" lon="146.0418569"></trkpt>
      <trkpt lat="-38.5793273" lon="146.0418404"></trkpt>
      <trkpt lat="-38.5793290" lon="146.0418239"></trkpt>
      <trkpt lat="-38.5793324" lon="146.0418082"></trkpt>
      <trkpt lat="-38.5793397" lon="146.0417883"></trkpt>
      <trkpt lat="-38.5793501" lon="146.0417694"></trkpt>
      <trkpt lat="-38.5793629" lon="146.0417529"></trkpt>
      <trkpt lat="-38.5793782" lon="146.0417398"></trkpt>
      <trkpt lat="-38.5793959" lon="146.0417291"></trkpt>
      <trkpt lat="-38.5794136" lon="146.0417204"></trkpt>
      <trkpt lat="-38.5794364" lon="146.0417125"></trkpt>
      <trkpt lat="-38.5794597" lon="146.0417073"></trkpt>
      <trkpt lat="-38.5795107" lon="146.0417003"></trkpt>
      <trkpt lat="-38.5795663" lon="146.0417039"></trkpt>
      <trkpt lat="-38.5795940" lon="146.0417104"></trkpt>
      <trkpt lat="-38.5796236" lon="146.0417216"></trkpt>
      <trkpt lat="-38.5797369" lon="146.0417925"></trkpt>
      <trkpt lat="-38.5797998" lon="146.0418219"></trkpt>
      <trkpt lat="-38.5798671" lon="146.0418366"></trkpt>
      <trkpt lat="-38.5799136" lon="146.0418382"></trkpt>
      <trkpt lat="-38.5799522" lon="146.0418313"></trkpt>
      <trkpt lat="-38.5800027" lon="146.0418167"></trkpt>
      <trkpt lat="-38.5800093" lon="146.0418138"></trkpt>
      <trkpt lat="-38.5800503" lon="146.0417957"></trkpt>
      <trkpt lat="-38.5800950" lon="146.0417706"></trkpt>
      <trkpt lat="-38.5801436" lon="146.0417353"></trkpt>
      <trkpt lat="-38.5801831" lon="146.0416945"></trkpt>
      <trkpt lat="-38.5802207" lon="146.0416398"></trkpt>
      <trkpt lat="-38.5802819" lon="146.0415257"></trkpt>
      <trkpt lat="-38.5803160" lon="146.0414780"></trkpt>
      <trkpt lat="-38.5803501" lon="146.0414379"></trkpt>
      <trkpt lat="-38.5803916" lon="146.0414020"></trkpt>
      <trkpt lat="-38.5804375" lon="146.0413730"></trkpt>
      <trkpt lat="-38.5805889" lon="146.0413165"></trkpt>
      <trkpt lat="-38.5807628" lon="146.0412786"></trkpt>
      <trkpt lat="-38.5809195" lon="146.0412570"></trkpt>
      <trkpt lat="-38.5809520" lon="146.0412574"></trkpt>
      <trkpt lat="-38.5809774" lon="146.0412632"></trkpt>
      <trkpt lat="-38.5809949" lon="146.0412710"></trkpt>
      <trkpt lat="-38.5810114" lon="146.0412816"></trkpt>
      <trkpt lat="-38.5810259" lon="146.0412943"></trkpt>
      <trkpt lat="-38.5810386" lon="146.0413096"></trkpt>
      <trkpt lat="-38.5810493" lon="146.0413270"></trkpt>
      <trkpt lat="-38.5810575" lon="146.0413453"></trkpt>
      <trkpt lat="-38.5810630" lon="146.0413645"></trkpt>
      <trkpt lat="-38.5810660" lon="146.0413847"></trkpt>
      <trkpt lat="-38.5810663" lon="146.0414046"></trkpt>
      <trkpt lat="-38.5810637" lon="146.0414242"></trkpt>
      <trkpt lat="-38.5810585" lon="146.0414435"></trkpt>
      <trkpt lat="-38.5810508" lon="146.0414614"></trkpt>
      <trkpt lat="-38.5810406" lon="146.0414775"></trkpt>
      <trkpt lat="-38.5810281" lon="146.0414923"></trkpt>
      <trkpt lat="-38.5810138" lon="146.0415048"></trkpt>
      <trkpt lat="-38.5809973" lon="146.0415149"></trkpt>
      <trkpt lat="-38.5809791" lon="146.0415226"></trkpt>
      <trkpt lat="-38.5809610" lon="146.0415280"></trkpt>
      <trkpt lat="-38.5809397" lon="146.0415309"></trkpt>
      <trkpt lat="-38.5809142" lon="146.0415303"></trkpt>
      <trkpt lat="-38.5808022" lon="146.0415137"></trkpt>
      <trkpt lat="-38.5806881" lon="146.0414989"></trkpt>
      <trkpt lat="-38.5806573" lon="146.0415011"></trkpt>
      <trkpt lat="-38.5806321" lon="146.0415074"></trkpt>
      <trkpt lat="-38.5806071" lon="146.0415175"></trkpt>
      <trkpt lat="-38.5805842" lon="146.0415311"></trkpt>
      <trkpt lat="-38.5805643" lon="146.0415476"></trkpt>
      <trkpt lat="-38.5805469" lon="146.0415679"></trkpt>
      <trkpt lat="-38.5805349" lon="146.0415875"></trkpt>
      <trkpt lat="-38.5805246" lon="146.0416098"></trkpt>
      <trkpt lat="-38.5805170" lon="146.0416327"></trkpt>
      <trkpt lat="-38.5805124" lon="146.0416561"></trkpt>
      <trkpt lat="-38.5805104" lon="146.0416801"></trkpt>
      <trkpt lat="-38.5805115" lon="146.0417037"></trkpt>
      <trkpt lat="-38.5805156" lon="146.0417267"></trkpt>
    </trkseg>
  </trk>
</gpx>
