<?xml version="1.0" encoding="UTF-8"?>
<gpx version="1.1" creator="tkk2gpx (Aus_Kart.ztracks converter)"
     xmlns="http://www.topografix.com/GPX/1/1"
     xmlns:xsi="http://www.w3.org/2001/XMLSchema-instance"
     xsi:schemaLocation="http://www.topografix.com/GPX/1/1 http://www.topografix.com/GPX/1/1/gpx.xsd">
  <metadata>
    <name>TowersKart2</name>
    <desc>Kart track, QLD AU. One lap starting and ending at the Start/Finish line. Declared length 498 m.</desc>
  </metadata>
  <wpt lat="-20.0566781" lon="146.3094332">
    <name>Start/Finish</name>
    <desc>Start/Finish line location</desc>
    <sym>Flag, Checkered</sym>
  </wpt>
  <trk>
    <name>TowersKart2 - 1 lap</name>
    <trkseg>
      <trkpt lat="-20.0565922" lon="146.3094999"></trkpt>
      <trkpt lat="-20.0565840" lon="146.3094890"></trkpt>
      <trkpt lat="-20.0565744" lon="146.3094792"></trkpt>
      <trkpt lat="-20.0565638" lon="146.3094712"></trkpt>
      <trkpt lat="-20.0565520" lon="146.3094655"></trkpt>
      <trkpt lat="-20.0565393" lon="146.3094615"></trkpt>
      <trkpt lat="-20.0565285" lon="146.3094592"></trkpt>
      <trkpt lat="-20.0565222" lon="146.3094585"></trkpt>
      <trkpt lat="-20.0565158" lon="146.3094590"></trkpt>
      <trkpt lat="-20.0564956" lon="146.3094642"></trkpt>
      <trkpt lat="-20.0564721" lon="146.3094723"></trkpt>
      <trkpt lat="-20.0564258" lon="146.3094910"></trkpt>
      <trkpt lat="-20.0563569" lon="146.3095120"></trkpt>
      <trkpt lat="-20.0562873" lon="146.3095245"></trkpt>
      <trkpt lat="-20.0562681" lon="146.3095226"></trkpt>
      <trkpt lat="-20.0562518" lon="146.3095179"></trkpt>
      <trkpt lat="-20.0562381" lon="146.3095113"></trkpt>
      <trkpt lat="-20.0562297" lon="146.3095053"></trkpt>
      <trkpt lat="-20.0562229" lon="146.3094982"></trkpt>
      <trkpt lat="-20.0562170" lon="146.3094899"></trkpt>
      <trkpt lat="-20.0562110" lon="146.3094782"></trkpt>
      <trkpt lat="-20.0562062" lon="146.3094649"></trkpt>
      <trkpt lat="-20.0562035" lon="146.3094514"></trkpt>
      <trkpt lat="-20.0562034" lon="146.3094378"></trkpt>
      <trkpt lat="-20.0562054" lon="146.3094239"></trkpt>
      <trkpt lat="-20.0562087" lon="146.3094113"></trkpt>
      <trkpt lat="-20.0562120" lon="146.3094022"></trkpt>
      <trkpt lat="-20.0562163" lon="146.3093939"></trkpt>
      <trkpt lat="-20.0562224" lon="146.3093855"></trkpt>
      <trkpt lat="-20.0562394" lon="146.3093696"></trkpt>
      <trkpt lat="-20.0562612" lon="146.3093533"></trkpt>
      <trkpt lat="-20.0562793" lon="146.3093420"></trkpt>
      <trkpt lat="-20.0562864" lon="146.3093390"></trkpt>
      <trkpt lat="-20.0562949" lon="146.3093371"></trkpt>
      <trkpt lat="-20.0565510" lon="146.3092962"></trkpt>
      <trkpt lat="-20.0565927" lon="146.3092828"></trkpt>
      <trkpt lat="-20.0566485" lon="146.3092548"></trkpt>
      <trkpt lat="-20.0566686" lon="146.3092393"></trkpt>
      <trkpt lat="-20.0566794" lon="146.3092291"></trkpt>
      <trkpt lat="-20.0566898" lon="146.3092167"></trkpt>
      <trkpt lat="-20.0566992" lon="146.3092029"></trkpt>
      <trkpt lat="-20.0567082" lon="146.3091870"></trkpt>
      <trkpt lat="-20.0567147" lon="146.3091707"></trkpt>
      <trkpt lat="-20.0567177" lon="146.3091551"></trkpt>
      <trkpt lat="-20.0567184" lon="146.3091392"></trkpt>
      <trkpt lat="-20.0567172" lon="146.3091242"></trkpt>
      <trkpt lat="-20.0567146" lon="146.3091124"></trkpt>
      <trkpt lat="-20.0567106" lon="146.3091014"></trkpt>
      <trkpt lat="-20.0567055" lon="146.3090910"></trkpt>
      <trkpt lat="-20.0566960" lon="146.3090764"></trkpt>
      <trkpt lat="-20.0566843" lon="146.3090634"></trkpt>
      <trkpt lat="-20.0566699" lon="146.3090519"></trkpt>
      <trkpt lat="-20.0566524" lon="146.3090417"></trkpt>
      <trkpt lat="-20.0565805" lon="146.3090147"></trkpt>
      <trkpt lat="-20.0565065" lon="146.3089954"></trkpt>
      <trkpt lat="-20.0564358" lon="146.3089737"></trkpt>
      <trkpt lat="-20.0564153" lon="146.3089633"></trkpt>
      <trkpt lat="-20.0563984" lon="146.3089523"></trkpt>
      <trkpt lat="-20.0563839" lon="146.3089397"></trkpt>
      <trkpt lat="-20.0563729" lon="146.3089269"></trkpt>
      <trkpt lat="-20.0563638" lon="146.3089129"></trkpt>
      <trkpt lat="-20.0563567" lon="146.3088980"></trkpt>
      <trkpt lat="-20.0563516" lon="146.3088820"></trkpt>
      <trkpt lat="-20.0563485" lon="146.3088651"></trkpt>
      <trkpt lat="-20.0563477" lon="146.3088476"></trkpt>
      <trkpt lat="-20.0563499" lon="146.3088264"></trkpt>
      <trkpt lat="-20.0563549" lon="146.3088046"></trkpt>
      <trkpt lat="-20.0563622" lon="146.3087859"></trkpt>
      <trkpt lat="-20.0563695" lon="146.3087748"></trkpt>
      <trkpt lat="-20.0563781" lon="146.3087657"></trkpt>
      <trkpt lat="-20.0563874" lon="146.3087577"></trkpt>
      <trkpt lat="-20.0564013" lon="146.3087479"></trkpt>
      <trkpt lat="-20.0564176" lon="146.3087404"></trkpt>
      <trkpt lat="-20.0564487" lon="146.3087335"></trkpt>
      <trkpt lat="-20.0564795" lon="146.3087306"></trkpt>
      <trkpt lat="-20.0564930" lon="146.3087309"></trkpt>
      <trkpt lat="-20.0565051" lon="146.3087326"></trkpt>
      <trkpt lat="-20.0565172" lon="146.3087349"></trkpt>
      <trkpt lat="-20.0565305" lon="146.3087392"></trkpt>
      <trkpt lat="-20.0565963" lon="146.3087768"></trkpt>
      <trkpt lat="-20.0567501" lon="146.3088479"></trkpt>
      <trkpt lat="-20.0569255" lon="146.3089331"></trkpt>
      <trkpt lat="-20.0569958" lon="146.3089678"></trkpt>
      <trkpt lat="-20.0570515" lon="146.3089942"></trkpt>
      <trkpt lat="-20.0570797" lon="146.3090137"></trkpt>
      <trkpt lat="-20.0570973" lon="146.3090265"></trkpt>
      <trkpt lat="-20.0571225" lon="146.3090512"></trkpt>
      <trkpt lat="-20.0571367" lon="146.3090712"></trkpt>
      <trkpt lat="-20.0571441" lon="146.3090881"></trkpt>
      <trkpt lat="-20.0571494" lon="146.3091057"></trkpt>
      <trkpt lat="-20.0571524" lon="146.3091239"></trkpt>
      <trkpt lat="-20.0571528" lon="146.3091443"></trkpt>
      <trkpt lat="-20.0571507" lon="146.3091654"></trkpt>
      <trkpt lat="-20.0571466" lon="146.3091855"></trkpt>
      <trkpt lat="-20.0571367" lon="146.3092127"></trkpt>
      <trkpt lat="-20.0571247" lon="146.3092365"></trkpt>
      <trkpt lat="-20.0571083" lon="146.3092621"></trkpt>
      <trkpt lat="-20.0570673" lon="146.3093069"></trkpt>
      <trkpt lat="-20.0569598" lon="146.3094085"></trkpt>
      <trkpt lat="-20.0569265" lon="146.3094499"></trkpt>
      <trkpt lat="-20.0568974" lon="146.3094960"></trkpt>
      <trkpt lat="-20.0568741" lon="146.3095468"></trkpt>
      <trkpt lat="-20.0568573" lon="146.3096010"></trkpt>
      <trkpt lat="-20.0568467" lon="146.3096580"></trkpt>
      <trkpt lat="-20.0568325" lon="146.3098135"></trkpt>
      <trkpt lat="-20.0568074" lon="146.3099699"></trkpt>
      <trkpt lat="-20.0567939" lon="146.3099970"></trkpt>
      <trkpt lat="-20.0567785" lon="146.3100172"></trkpt>
      <trkpt lat="-20.0567622" lon="146.3100349"></trkpt>
      <trkpt lat="-20.0567164" lon="146.3100733"></trkpt>
      <trkpt lat="-20.0566939" lon="146.3100973"></trkpt>
      <trkpt lat="-20.0566706" lon="146.3101184"></trkpt>
      <trkpt lat="-20.0566552" lon="146.3101265"></trkpt>
      <trkpt lat="-20.0566390" lon="146.3101320"></trkpt>
      <trkpt lat="-20.0566222" lon="146.3101351"></trkpt>
      <trkpt lat="-20.0566034" lon="146.3101357"></trkpt>
      <trkpt lat="-20.0565840" lon="146.3101334"></trkpt>
      <trkpt lat="-20.0565649" lon="146.3101282"></trkpt>
      <trkpt lat="-20.0565435" lon="146.3101176"></trkpt>
      <trkpt lat="-20.0565224" lon="146.3101035"></trkpt>
      <trkpt lat="-20.0565058" lon="146.3100902"></trkpt>
      <trkpt lat="-20.0564968" lon="146.3100812"></trkpt>
      <trkpt lat="-20.0564895" lon="146.3100711"></trkpt>
      <trkpt lat="-20.0564775" lon="146.3100508"></trkpt>
      <trkpt lat="-20.0564665" lon="146.3100258"></trkpt>
      <trkpt lat="-20.0564552" lon="146.3099859"></trkpt>
      <trkpt lat="-20.0564495" lon="146.3099446"></trkpt>
      <trkpt lat="-20.0564525" lon="146.3099167"></trkpt>
      <trkpt lat="-20.0564594" lon="146.3098897"></trkpt>
      <trkpt lat="-20.0564813" lon="146.3098255"></trkpt>
      <trkpt lat="-20.0565440" lon="146.3097118"></trkpt>
      <trkpt lat="-20.0566013" lon="146.3095987"></trkpt>
      <trkpt lat="-20.0566067" lon="146.3095761"></trkpt>
      <trkpt lat="-20.0566083" lon="146.3095570"></trkpt>
      <trkpt lat="-20.0566071" lon="146.3095394"></trkpt>
      <trkpt lat="-20.0566040" lon="146.3095251"></trkpt>
      <trkpt lat="-20.0565989" lon="146.3095119"></trkpt>
      <trkpt lat="-20.0565922" lon="146.3094999"></trkpt>
    </trkseg>
  </trk>
</gpx>
