<?xml version="1.0" encoding="UTF-8"?>
<gpx version="1.1" creator="tkk2gpx (Aus_Kart.ztracks converter)"
     xmlns="http://www.topografix.com/GPX/1/1"
     xmlns:xsi="http://www.w3.org/2001/XMLSchema-instance"
     xsi:schemaLocation="http://www.topografix.com/GPX/1/1 http://www.topografix.com/GPX/1/1/gpx.xsd">
  <metadata>
    <name>WimmeraK</name>
    <desc>Kart track, VIC AU. One lap starting and ending at the Start/Finish line. Declared length 501 m.</desc>
  </metadata>
  <wpt lat="-36.6674738" lon="142.2473051">
    <name>Start/Finish</name>
    <desc>Start/Finish line location</desc>
    <sym>Flag, Checkered</sym>
  </wpt>
  <trk>
    <name>WimmeraK - 1 lap</name>
    <trkseg>
      <trkpt lat="-36.6673619" lon="142.2472077"></trkpt>
      <trkpt lat="-36.6673722" lon="142.2471901"></trkpt>
      <trkpt lat="-36.6673826" lon="142.2471683"></trkpt>
      <trkpt lat="-36.6673924" lon="142.2471433"></trkpt>
      <trkpt lat="-36.6673989" lon="142.2471190"></trkpt>
      <trkpt lat="-36.6674009" lon="142.2471004"></trkpt>
      <trkpt lat="-36.6674006" lon="142.2470823"></trkpt>
      <trkpt lat="-36.6673981" lon="142.2470649"></trkpt>
      <trkpt lat="-36.6673934" lon="142.2470484"></trkpt>
      <trkpt lat="-36.6673866" lon="142.2470326"></trkpt>
      <trkpt lat="-36.6673783" lon="142.2470181"></trkpt>
      <trkpt lat="-36.6673681" lon="142.2470045"></trkpt>
      <trkpt lat="-36.6673564" lon="142.2469923"></trkpt>
      <trkpt lat="-36.6673442" lon="142.2469822"></trkpt>
      <trkpt lat="-36.6673278" lon="142.2469725"></trkpt>
      <trkpt lat="-36.6673103" lon="142.2469661"></trkpt>
      <trkpt lat="-36.6672889" lon="142.2469614"></trkpt>
      <trkpt lat="-36.6672669" lon="142.2469603"></trkpt>
      <trkpt lat="-36.6672456" lon="142.2469637"></trkpt>
      <trkpt lat="-36.6672260" lon="142.2469697"></trkpt>
      <trkpt lat="-36.6672147" lon="142.2469743"></trkpt>
      <trkpt lat="-36.6672022" lon="142.2469812"></trkpt>
      <trkpt lat="-36.6670855" lon="142.2470667"></trkpt>
      <trkpt lat="-36.6669717" lon="142.2471676"></trkpt>
      <trkpt lat="-36.6669354" lon="142.2472059"></trkpt>
      <trkpt lat="-36.6669077" lon="142.2472432"></trkpt>
      <trkpt lat="-36.6668814" lon="142.2472889"></trkpt>
      <trkpt lat="-36.6668610" lon="142.2473384"></trkpt>
      <trkpt lat="-36.6668479" lon="142.2473932"></trkpt>
      <trkpt lat="-36.6668417" lon="142.2474499"></trkpt>
      <trkpt lat="-36.6668419" lon="142.2475071"></trkpt>
      <trkpt lat="-36.6668483" lon="142.2475644"></trkpt>
      <trkpt lat="-36.6668609" lon="142.2476224"></trkpt>
      <trkpt lat="-36.6668797" lon="142.2476786"></trkpt>
      <trkpt lat="-36.6669051" lon="142.2477311"></trkpt>
      <trkpt lat="-36.6669349" lon="142.2477782"></trkpt>
      <trkpt lat="-36.6669614" lon="142.2478106"></trkpt>
      <trkpt lat="-36.6669904" lon="142.2478380"></trkpt>
      <trkpt lat="-36.6670215" lon="142.2478613"></trkpt>
      <trkpt lat="-36.6670564" lon="142.2478802"></trkpt>
      <trkpt lat="-36.6671043" lon="142.2478960"></trkpt>
      <trkpt lat="-36.6671537" lon="142.2479048"></trkpt>
      <trkpt lat="-36.6671909" lon="142.2479055"></trkpt>
      <trkpt lat="-36.6672279" lon="142.2479002"></trkpt>
      <trkpt lat="-36.6672736" lon="142.2478870"></trkpt>
      <trkpt lat="-36.6673236" lon="142.2478651"></trkpt>
      <trkpt lat="-36.6674073" lon="142.2478151"></trkpt>
      <trkpt lat="-36.6675139" lon="142.2477358"></trkpt>
      <trkpt lat="-36.6679060" lon="142.2474441"></trkpt>
      <trkpt lat="-36.6680392" lon="142.2473341"></trkpt>
      <trkpt lat="-36.6680742" lon="142.2472878"></trkpt>
      <trkpt lat="-36.6680923" lon="142.2472429"></trkpt>
      <trkpt lat="-36.6681016" lon="142.2472060"></trkpt>
      <trkpt lat="-36.6681058" lon="142.2471692"></trkpt>
      <trkpt lat="-36.6681056" lon="142.2471334"></trkpt>
      <trkpt lat="-36.6681006" lon="142.2470917"></trkpt>
      <trkpt lat="-36.6680729" lon="142.2469535"></trkpt>
      <trkpt lat="-36.6680528" lon="142.2468665"></trkpt>
      <trkpt lat="-36.6680297" lon="142.2467901"></trkpt>
      <trkpt lat="-36.6680197" lon="142.2467690"></trkpt>
      <trkpt lat="-36.6680092" lon="142.2467520"></trkpt>
      <trkpt lat="-36.6679975" lon="142.2467377"></trkpt>
      <trkpt lat="-36.6679849" lon="142.2467264"></trkpt>
      <trkpt lat="-36.6679712" lon="142.2467173"></trkpt>
      <trkpt lat="-36.6679575" lon="142.2467107"></trkpt>
      <trkpt lat="-36.6679401" lon="142.2467058"></trkpt>
      <trkpt lat="-36.6679216" lon="142.2467047"></trkpt>
      <trkpt lat="-36.6678920" lon="142.2467085"></trkpt>
      <trkpt lat="-36.6678636" lon="142.2467173"></trkpt>
      <trkpt lat="-36.6678484" lon="142.2467266"></trkpt>
      <trkpt lat="-36.6678354" lon="142.2467379"></trkpt>
      <trkpt lat="-36.6678234" lon="142.2467503"></trkpt>
      <trkpt lat="-36.6678122" lon="142.2467644"></trkpt>
      <trkpt lat="-36.6677888" lon="142.2468010"></trkpt>
      <trkpt lat="-36.6676354" lon="142.2471413"></trkpt>
      <trkpt lat="-36.6674744" lon="142.2474900"></trkpt>
      <trkpt lat="-36.6674549" lon="142.2475199"></trkpt>
      <trkpt lat="-36.6674370" lon="142.2475405"></trkpt>
      <trkpt lat="-36.6674075" lon="142.2475691"></trkpt>
      <trkpt lat="-36.6673788" lon="142.2475917"></trkpt>
      <trkpt lat="-36.6673672" lon="142.2475986"></trkpt>
      <trkpt lat="-36.6673551" lon="142.2476029"></trkpt>
      <trkpt lat="-36.6673360" lon="142.2476067"></trkpt>
      <trkpt lat="-36.6673134" lon="142.2476087"></trkpt>
      <trkpt lat="-36.6672923" lon="142.2476073"></trkpt>
      <trkpt lat="-36.6672768" lon="142.2476029"></trkpt>
      <trkpt lat="-36.6672625" lon="142.2475960"></trkpt>
      <trkpt lat="-36.6672491" lon="142.2475870"></trkpt>
      <trkpt lat="-36.6672365" lon="142.2475759"></trkpt>
      <trkpt lat="-36.6672250" lon="142.2475628"></trkpt>
      <trkpt lat="-36.6672150" lon="142.2475483"></trkpt>
      <trkpt lat="-36.6672067" lon="142.2475319"></trkpt>
      <trkpt lat="-36.6672000" lon="142.2475141"></trkpt>
      <trkpt lat="-36.6671951" lon="142.2474968"></trkpt>
      <trkpt lat="-36.6671917" lon="142.2474779"></trkpt>
      <trkpt lat="-36.6671913" lon="142.2474579"></trkpt>
      <trkpt lat="-36.6671937" lon="142.2474335"></trkpt>
      <trkpt lat="-36.6671987" lon="142.2474061"></trkpt>
      <trkpt lat="-36.6672065" lon="142.2473803"></trkpt>
      <trkpt lat="-36.6672170" lon="142.2473576"></trkpt>
      <trkpt lat="-36.6672303" lon="142.2473364"></trkpt>
      <trkpt lat="-36.6672467" lon="142.2473151"></trkpt>
      <trkpt lat="-36.6672989" lon="142.2472676"></trkpt>
      <trkpt lat="-36.6673484" lon="142.2472244"></trkpt>
      <trkpt lat="-36.6673619" lon="142.2472077"></trkpt>
    </trkseg>
  </trk>
</gpx>
