<?xml version="1.0" encoding="UTF-8"?>
<gpx version="1.1" creator="tkk2gpx (Aus_Kart.ztracks converter)"
     xmlns="http://www.topografix.com/GPX/1/1"
     xmlns:xsi="http://www.w3.org/2001/XMLSchema-instance"
     xsi:schemaLocation="http://www.topografix.com/GPX/1/1 http://www.topografix.com/GPX/1/1/gpx.xsd">
  <metadata>
    <name>A.WodongaK3</name>
    <desc>Kart track, VIC AU. One lap starting and ending at the Start/Finish line. Declared length 584 m.</desc>
  </metadata>
  <wpt lat="-36.0970729" lon="146.8553618">
    <name>Start/Finish</name>
    <desc>Start/Finish line location</desc>
    <sym>Flag, Checkered</sym>
  </wpt>
  <trk>
    <name>A.WodongaK3 - 1 lap</name>
    <trkseg>
      <trkpt lat="-36.0970366" lon="146.8553484"></trkpt>
      <trkpt lat="-36.0972490" lon="146.8554158"></trkpt>
      <trkpt lat="-36.0973127" lon="146.8554234"></trkpt>
      <trkpt lat="-36.0973726" lon="146.8554224"></trkpt>
      <trkpt lat="-36.0974325" lon="146.8554140"></trkpt>
      <trkpt lat="-36.0974972" lon="146.8553962"></trkpt>
      <trkpt lat="-36.0976246" lon="146.8553370"></trkpt>
      <trkpt lat="-36.0977446" lon="146.8552829"></trkpt>
      <trkpt lat="-36.0977850" lon="146.8552750"></trkpt>
      <trkpt lat="-36.0978205" lon="146.8552757"></trkpt>
      <trkpt lat="-36.0978616" lon="146.8552848"></trkpt>
      <trkpt lat="-36.0979007" lon="146.8553013"></trkpt>
      <trkpt lat="-36.0979318" lon="146.8553212"></trkpt>
      <trkpt lat="-36.0979600" lon="146.8553480"></trkpt>
      <trkpt lat="-36.0979920" lon="146.8553930"></trkpt>
      <trkpt lat="-36.0980184" lon="146.8554443"></trkpt>
      <trkpt lat="-36.0980337" lon="146.8554889"></trkpt>
      <trkpt lat="-36.0980427" lon="146.8555344"></trkpt>
      <trkpt lat="-36.0980456" lon="146.8555812"></trkpt>
      <trkpt lat="-36.0980424" lon="146.8556268"></trkpt>
      <trkpt lat="-36.0980374" lon="146.8556525"></trkpt>
      <trkpt lat="-36.0980302" lon="146.8556770"></trkpt>
      <trkpt lat="-36.0980208" lon="146.8556995"></trkpt>
      <trkpt lat="-36.0980096" lon="146.8557193"></trkpt>
      <trkpt lat="-36.0979964" lon="146.8557373"></trkpt>
      <trkpt lat="-36.0979813" lon="146.8557529"></trkpt>
      <trkpt lat="-36.0979642" lon="146.8557661"></trkpt>
      <trkpt lat="-36.0979451" lon="146.8557765"></trkpt>
      <trkpt lat="-36.0979216" lon="146.8557858"></trkpt>
      <trkpt lat="-36.0978281" lon="146.8558001"></trkpt>
      <trkpt lat="-36.0977233" lon="146.8558167"></trkpt>
      <trkpt lat="-36.0975676" lon="146.8558899"></trkpt>
      <trkpt lat="-36.0972016" lon="146.8560932"></trkpt>
      <trkpt lat="-36.0971456" lon="146.8561084"></trkpt>
      <trkpt lat="-36.0970997" lon="146.8561111"></trkpt>
      <trkpt lat="-36.0970768" lon="146.8561088"></trkpt>
      <trkpt lat="-36.0970557" lon="146.8561035"></trkpt>
      <trkpt lat="-36.0970358" lon="146.8560953"></trkpt>
      <trkpt lat="-36.0970178" lon="146.8560849"></trkpt>
      <trkpt lat="-36.0970011" lon="146.8560718"></trkpt>
      <trkpt lat="-36.0969861" lon="146.8560561"></trkpt>
      <trkpt lat="-36.0969725" lon="146.8560366"></trkpt>
      <trkpt lat="-36.0969608" lon="146.8560144"></trkpt>
      <trkpt lat="-36.0969518" lon="146.8559909"></trkpt>
      <trkpt lat="-36.0969459" lon="146.8559674"></trkpt>
      <trkpt lat="-36.0969427" lon="146.8559427"></trkpt>
      <trkpt lat="-36.0969416" lon="146.8559150"></trkpt>
      <trkpt lat="-36.0969513" lon="146.8558388"></trkpt>
      <trkpt lat="-36.0969604" lon="146.8557618"></trkpt>
      <trkpt lat="-36.0969582" lon="146.8557313"></trkpt>
      <trkpt lat="-36.0969533" lon="146.8557036"></trkpt>
      <trkpt lat="-36.0969458" lon="146.8556780"></trkpt>
      <trkpt lat="-36.0969362" lon="146.8556555"></trkpt>
      <trkpt lat="-36.0969244" lon="146.8556348"></trkpt>
      <trkpt lat="-36.0969108" lon="146.8556163"></trkpt>
      <trkpt lat="-36.0968906" lon="146.8555953"></trkpt>
      <trkpt lat="-36.0968603" lon="146.8555745"></trkpt>
      <trkpt lat="-36.0965535" lon="146.8554463"></trkpt>
      <trkpt lat="-36.0962351" lon="146.8553085"></trkpt>
      <trkpt lat="-36.0961892" lon="146.8552737"></trkpt>
      <trkpt lat="-36.0961579" lon="146.8552387"></trkpt>
      <trkpt lat="-36.0961399" lon="146.8552134"></trkpt>
      <trkpt lat="-36.0961245" lon="146.8551864"></trkpt>
      <trkpt lat="-36.0961128" lon="146.8551587"></trkpt>
      <trkpt lat="-36.0961057" lon="146.8551335"></trkpt>
      <trkpt lat="-36.0961015" lon="146.8551079"></trkpt>
      <trkpt lat="-36.0961001" lon="146.8550824"></trkpt>
      <trkpt lat="-36.0961010" lon="146.8550591"></trkpt>
      <trkpt lat="-36.0961047" lon="146.8550360"></trkpt>
      <trkpt lat="-36.0961125" lon="146.8550091"></trkpt>
      <trkpt lat="-36.0961737" lon="146.8548868"></trkpt>
      <trkpt lat="-36.0962507" lon="146.8547617"></trkpt>
      <trkpt lat="-36.0962925" lon="146.8547010"></trkpt>
      <trkpt lat="-36.0963329" lon="146.8546553"></trkpt>
      <trkpt lat="-36.0963544" lon="146.8546384"></trkpt>
      <trkpt lat="-36.0963759" lon="146.8546258"></trkpt>
      <trkpt lat="-36.0963974" lon="146.8546174"></trkpt>
      <trkpt lat="-36.0964167" lon="146.8546133"></trkpt>
      <trkpt lat="-36.0964358" lon="146.8546125"></trkpt>
      <trkpt lat="-36.0964542" lon="146.8546149"></trkpt>
      <trkpt lat="-36.0964711" lon="146.8546204"></trkpt>
      <trkpt lat="-36.0964872" lon="146.8546288"></trkpt>
      <trkpt lat="-36.0965016" lon="146.8546398"></trkpt>
      <trkpt lat="-36.0965138" lon="146.8546531"></trkpt>
      <trkpt lat="-36.0965244" lon="146.8546689"></trkpt>
      <trkpt lat="-36.0965327" lon="146.8546865"></trkpt>
      <trkpt lat="-36.0965387" lon="146.8547071"></trkpt>
      <trkpt lat="-36.0965421" lon="146.8547299"></trkpt>
      <trkpt lat="-36.0965435" lon="146.8547562"></trkpt>
      <trkpt lat="-36.0965342" lon="146.8548402"></trkpt>
      <trkpt lat="-36.0965250" lon="146.8549271"></trkpt>
      <trkpt lat="-36.0965292" lon="146.8549758"></trkpt>
      <trkpt lat="-36.0965392" lon="146.8550200"></trkpt>
      <trkpt lat="-36.0965558" lon="146.8550652"></trkpt>
      <trkpt lat="-36.0965781" lon="146.8551074"></trkpt>
      <trkpt lat="-36.0966062" lon="146.8551461"></trkpt>
      <trkpt lat="-36.0966395" lon="146.8551803"></trkpt>
      <trkpt lat="-36.0966789" lon="146.8552104"></trkpt>
      <trkpt lat="-36.0967278" lon="146.8552376"></trkpt>
      <trkpt lat="-36.0970366" lon="146.8553484"></trkpt>
    </trkseg>
  </trk>
</gpx>
