<?xml version="1.0" encoding="UTF-8"?>
<gpx version="1.1" creator="tkk2gpx (Aus_Kart.ztracks converter)"
     xmlns="http://www.topografix.com/GPX/1/1"
     xmlns:xsi="http://www.w3.org/2001/XMLSchema-instance"
     xsi:schemaLocation="http://www.topografix.com/GPX/1/1 http://www.topografix.com/GPX/1/1/gpx.xsd">
  <metadata>
    <name>BallaratK</name>
    <desc>Kart track, VIC AU. One lap starting and ending at the Start/Finish line. Declared length 641 m.</desc>
  </metadata>
  <wpt lat="-37.5891596" lon="143.7131518">
    <name>Start/Finish</name>
    <desc>Start/Finish line location</desc>
    <sym>Flag, Checkered</sym>
  </wpt>
  <trk>
    <name>BallaratK - 1 lap</name>
    <trkseg>
      <trkpt lat="-37.5891648" lon="143.7131487"></trkpt>
      <trkpt lat="-37.5891935" lon="143.7131400"></trkpt>
      <trkpt lat="-37.5892195" lon="143.7131266"></trkpt>
      <trkpt lat="-37.5892459" lon="143.7131078"></trkpt>
      <trkpt lat="-37.5892931" lon="143.7130626"></trkpt>
      <trkpt lat="-37.5893408" lon="143.7130186"></trkpt>
      <trkpt lat="-37.5893548" lon="143.7130095"></trkpt>
      <trkpt lat="-37.5893684" lon="143.7130035"></trkpt>
      <trkpt lat="-37.5893963" lon="143.7129956"></trkpt>
      <trkpt lat="-37.5894246" lon="143.7129911"></trkpt>
      <trkpt lat="-37.5894400" lon="143.7129910"></trkpt>
      <trkpt lat="-37.5894547" lon="143.7129929"></trkpt>
      <trkpt lat="-37.5894922" lon="143.7130028"></trkpt>
      <trkpt lat="-37.5895287" lon="143.7130199"></trkpt>
      <trkpt lat="-37.5895458" lon="143.7130314"></trkpt>
      <trkpt lat="-37.5895619" lon="143.7130447"></trkpt>
      <trkpt lat="-37.5895768" lon="143.7130593"></trkpt>
      <trkpt lat="-37.5895906" lon="143.7130755"></trkpt>
      <trkpt lat="-37.5896032" lon="143.7130937"></trkpt>
      <trkpt lat="-37.5896145" lon="143.7131131"></trkpt>
      <trkpt lat="-37.5896241" lon="143.7131317"></trkpt>
      <trkpt lat="-37.5896325" lon="143.7131532"></trkpt>
      <trkpt lat="-37.5896444" lon="143.7131970"></trkpt>
      <trkpt lat="-37.5896513" lon="143.7132461"></trkpt>
      <trkpt lat="-37.5896497" lon="143.7132790"></trkpt>
      <trkpt lat="-37.5896445" lon="143.7133119"></trkpt>
      <trkpt lat="-37.5896382" lon="143.7133391"></trkpt>
      <trkpt lat="-37.5896326" lon="143.7133553"></trkpt>
      <trkpt lat="-37.5896250" lon="143.7133704"></trkpt>
      <trkpt lat="-37.5895799" lon="143.7134436"></trkpt>
      <trkpt lat="-37.5895438" lon="143.7134868"></trkpt>
      <trkpt lat="-37.5895110" lon="143.7135268"></trkpt>
      <trkpt lat="-37.5894995" lon="143.7135461"></trkpt>
      <trkpt lat="-37.5894907" lon="143.7135660"></trkpt>
      <trkpt lat="-37.5894794" lon="143.7135990"></trkpt>
      <trkpt lat="-37.5894711" lon="143.7136340"></trkpt>
      <trkpt lat="-37.5894680" lon="143.7136621"></trkpt>
      <trkpt lat="-37.5894681" lon="143.7136896"></trkpt>
      <trkpt lat="-37.5894707" lon="143.7137164"></trkpt>
      <trkpt lat="-37.5894766" lon="143.7137428"></trkpt>
      <trkpt lat="-37.5894834" lon="143.7137624"></trkpt>
      <trkpt lat="-37.5894920" lon="143.7137817"></trkpt>
      <trkpt lat="-37.5895022" lon="143.7137988"></trkpt>
      <trkpt lat="-37.5895133" lon="143.7138122"></trkpt>
      <trkpt lat="-37.5895257" lon="143.7138236"></trkpt>
      <trkpt lat="-37.5895389" lon="143.7138329"></trkpt>
      <trkpt lat="-37.5895532" lon="143.7138401"></trkpt>
      <trkpt lat="-37.5895682" lon="143.7138451"></trkpt>
      <trkpt lat="-37.5895829" lon="143.7138478"></trkpt>
      <trkpt lat="-37.5896011" lon="143.7138475"></trkpt>
      <trkpt lat="-37.5896190" lon="143.7138436"></trkpt>
      <trkpt lat="-37.5896399" lon="143.7138356"></trkpt>
      <trkpt lat="-37.5896595" lon="143.7138245"></trkpt>
      <trkpt lat="-37.5896728" lon="143.7138136"></trkpt>
      <trkpt lat="-37.5896847" lon="143.7138011"></trkpt>
      <trkpt lat="-37.5897079" lon="143.7137701"></trkpt>
      <trkpt lat="-37.5897422" lon="143.7137054"></trkpt>
      <trkpt lat="-37.5897761" lon="143.7136425"></trkpt>
      <trkpt lat="-37.5897864" lon="143.7136287"></trkpt>
      <trkpt lat="-37.5897961" lon="143.7136186"></trkpt>
      <trkpt lat="-37.5898067" lon="143.7136091"></trkpt>
      <trkpt lat="-37.5898184" lon="143.7136007"></trkpt>
      <trkpt lat="-37.5898342" lon="143.7135915"></trkpt>
      <trkpt lat="-37.5898524" lon="143.7135837"></trkpt>
      <trkpt lat="-37.5898823" lon="143.7135751"></trkpt>
      <trkpt lat="-37.5899149" lon="143.7135707"></trkpt>
      <trkpt lat="-37.5899375" lon="143.7135715"></trkpt>
      <trkpt lat="-37.5899603" lon="143.7135751"></trkpt>
      <trkpt lat="-37.5899816" lon="143.7135820"></trkpt>
      <trkpt lat="-37.5899994" lon="143.7135918"></trkpt>
      <trkpt lat="-37.5900160" lon="143.7136044"></trkpt>
      <trkpt lat="-37.5900313" lon="143.7136192"></trkpt>
      <trkpt lat="-37.5900462" lon="143.7136364"></trkpt>
      <trkpt lat="-37.5900598" lon="143.7136559"></trkpt>
      <trkpt lat="-37.5900707" lon="143.7136771"></trkpt>
      <trkpt lat="-37.5900784" lon="143.7137007"></trkpt>
      <trkpt lat="-37.5900833" lon="143.7137261"></trkpt>
      <trkpt lat="-37.5900854" lon="143.7137504"></trkpt>
      <trkpt lat="-37.5900847" lon="143.7137698"></trkpt>
      <trkpt lat="-37.5900819" lon="143.7137884"></trkpt>
      <trkpt lat="-37.5900773" lon="143.7138061"></trkpt>
      <trkpt lat="-37.5900659" lon="143.7138319"></trkpt>
      <trkpt lat="-37.5900531" lon="143.7138528"></trkpt>
      <trkpt lat="-37.5900474" lon="143.7138599"></trkpt>
      <trkpt lat="-37.5900413" lon="143.7138658"></trkpt>
      <trkpt lat="-37.5900176" lon="143.7138843"></trkpt>
      <trkpt lat="-37.5900040" lon="143.7138924"></trkpt>
      <trkpt lat="-37.5899863" lon="143.7139002"></trkpt>
      <trkpt lat="-37.5898147" lon="143.7139431"></trkpt>
      <trkpt lat="-37.5896234" lon="143.7140295"></trkpt>
      <trkpt lat="-37.5895911" lon="143.7140368"></trkpt>
      <trkpt lat="-37.5895607" lon="143.7140373"></trkpt>
      <trkpt lat="-37.5895094" lon="143.7140277"></trkpt>
      <trkpt lat="-37.5894567" lon="143.7140079"></trkpt>
      <trkpt lat="-37.5894100" lon="143.7139789"></trkpt>
      <trkpt lat="-37.5893633" lon="143.7139386"></trkpt>
      <trkpt lat="-37.5890009" lon="143.7135075"></trkpt>
      <trkpt lat="-37.5889226" lon="143.7134297"></trkpt>
      <trkpt lat="-37.5888211" lon="143.7133288"></trkpt>
      <trkpt lat="-37.5884885" lon="143.7130731"></trkpt>
      <trkpt lat="-37.5884245" lon="143.7129862"></trkpt>
      <trkpt lat="-37.5883741" lon="143.7129110"></trkpt>
      <trkpt lat="-37.5883046" lon="143.7127724"></trkpt>
      <trkpt lat="-37.5882524" lon="143.7126367"></trkpt>
      <trkpt lat="-37.5882390" lon="143.7125813"></trkpt>
      <trkpt lat="-37.5882355" lon="143.7125574"></trkpt>
      <trkpt lat="-37.5882338" lon="143.7125314"></trkpt>
      <trkpt lat="-37.5882351" lon="143.7124784"></trkpt>
      <trkpt lat="-37.5882398" lon="143.7124275"></trkpt>
      <trkpt lat="-37.5882440" lon="143.7124079"></trkpt>
      <trkpt lat="-37.5882493" lon="143.7123912"></trkpt>
      <trkpt lat="-37.5882552" lon="143.7123750"></trkpt>
      <trkpt lat="-37.5882630" lon="143.7123587"></trkpt>
      <trkpt lat="-37.5882808" lon="143.7123313"></trkpt>
      <trkpt lat="-37.5883004" lon="143.7123066"></trkpt>
      <trkpt lat="-37.5883104" lon="143.7122965"></trkpt>
      <trkpt lat="-37.5883214" lon="143.7122885"></trkpt>
      <trkpt lat="-37.5883376" lon="143.7122797"></trkpt>
      <trkpt lat="-37.5883569" lon="143.7122716"></trkpt>
      <trkpt lat="-37.5883759" lon="143.7122668"></trkpt>
      <trkpt lat="-37.5883921" lon="143.7122662"></trkpt>
      <trkpt lat="-37.5884080" lon="143.7122683"></trkpt>
      <trkpt lat="-37.5884233" lon="143.7122727"></trkpt>
      <trkpt lat="-37.5884379" lon="143.7122792"></trkpt>
      <trkpt lat="-37.5884519" lon="143.7122879"></trkpt>
      <trkpt lat="-37.5884649" lon="143.7122991"></trkpt>
      <trkpt lat="-37.5884849" lon="143.7123258"></trkpt>
      <trkpt lat="-37.5885004" lon="143.7123539"></trkpt>
      <trkpt lat="-37.5885059" lon="143.7123662"></trkpt>
      <trkpt lat="-37.5885102" lon="143.7123813"></trkpt>
      <trkpt lat="-37.5885265" lon="143.7124874"></trkpt>
      <trkpt lat="-37.5885430" lon="143.7125997"></trkpt>
      <trkpt lat="-37.5885560" lon="143.7126468"></trkpt>
      <trkpt lat="-37.5885733" lon="143.7126881"></trkpt>
      <trkpt lat="-37.5885993" lon="143.7127326"></trkpt>
      <trkpt lat="-37.5886378" lon="143.7127818"></trkpt>
      <trkpt lat="-37.5887998" lon="143.7129459"></trkpt>
      <trkpt lat="-37.5889693" lon="143.7130934"></trkpt>
      <trkpt lat="-37.5890119" lon="143.7131203"></trkpt>
      <trkpt lat="-37.5890500" lon="143.7131364"></trkpt>
      <trkpt lat="-37.5890924" lon="143.7131478"></trkpt>
      <trkpt lat="-37.5891338" lon="143.7131520"></trkpt>
      <trkpt lat="-37.5891648" lon="143.7131487"></trkpt>
    </trkseg>
  </trk>
</gpx>
