<?xml version="1.0" encoding="UTF-8"?>
<gpx version="1.1" creator="tkk2gpx (Aus_Kart.ztracks converter)"
     xmlns="http://www.topografix.com/GPX/1/1"
     xmlns:xsi="http://www.w3.org/2001/XMLSchema-instance"
     xsi:schemaLocation="http://www.topografix.com/GPX/1/1 http://www.topografix.com/GPX/1/1/gpx.xsd">
  <metadata>
    <name>BurnettK</name>
    <desc>Kart track, QLD AU. One lap starting and ending at the Start/Finish line. Declared length 756 m.</desc>
  </metadata>
  <wpt lat="-26.6857630" lon="151.9904409">
    <name>Start/Finish</name>
    <desc>Start/Finish line location</desc>
    <sym>Flag, Checkered</sym>
  </wpt>
  <trk>
    <name>BurnettK - 1 lap</name>
    <trkseg>
      <trkpt lat="-26.6858605" lon="151.9904560"></trkpt>
      <trkpt lat="-26.6858541" lon="151.9905099"></trkpt>
      <trkpt lat="-26.6858440" lon="151.9905628"></trkpt>
      <trkpt lat="-26.6858366" lon="151.9905919"></trkpt>
      <trkpt lat="-26.6858274" lon="151.9906180"></trkpt>
      <trkpt lat="-26.6858146" lon="151.9906443"></trkpt>
      <trkpt lat="-26.6857991" lon="151.9906690"></trkpt>
      <trkpt lat="-26.6857817" lon="151.9906908"></trkpt>
      <trkpt lat="-26.6857594" lon="151.9907127"></trkpt>
      <trkpt lat="-26.6856342" lon="151.9908035"></trkpt>
      <trkpt lat="-26.6854787" lon="151.9909440"></trkpt>
      <trkpt lat="-26.6854409" lon="151.9909838"></trkpt>
      <trkpt lat="-26.6854257" lon="151.9910043"></trkpt>
      <trkpt lat="-26.6854124" lon="151.9910259"></trkpt>
      <trkpt lat="-26.6854014" lon="151.9910479"></trkpt>
      <trkpt lat="-26.6853929" lon="151.9910716"></trkpt>
      <trkpt lat="-26.6853868" lon="151.9911009"></trkpt>
      <trkpt lat="-26.6853846" lon="151.9911315"></trkpt>
      <trkpt lat="-26.6853876" lon="151.9911628"></trkpt>
      <trkpt lat="-26.6853943" lon="151.9911930"></trkpt>
      <trkpt lat="-26.6854027" lon="151.9912181"></trkpt>
      <trkpt lat="-26.6854134" lon="151.9912416"></trkpt>
      <trkpt lat="-26.6854267" lon="151.9912642"></trkpt>
      <trkpt lat="-26.6854422" lon="151.9912849"></trkpt>
      <trkpt lat="-26.6854590" lon="151.9913031"></trkpt>
      <trkpt lat="-26.6854781" lon="151.9913184"></trkpt>
      <trkpt lat="-26.6854944" lon="151.9913274"></trkpt>
      <trkpt lat="-26.6855123" lon="151.9913346"></trkpt>
      <trkpt lat="-26.6855304" lon="151.9913389"></trkpt>
      <trkpt lat="-26.6855488" lon="151.9913398"></trkpt>
      <trkpt lat="-26.6855675" lon="151.9913378"></trkpt>
      <trkpt lat="-26.6855851" lon="151.9913336"></trkpt>
      <trkpt lat="-26.6856065" lon="151.9913243"></trkpt>
      <trkpt lat="-26.6856260" lon="151.9913114"></trkpt>
      <trkpt lat="-26.6856444" lon="151.9912949"></trkpt>
      <trkpt lat="-26.6856606" lon="151.9912753"></trkpt>
      <trkpt lat="-26.6856744" lon="151.9912523"></trkpt>
      <trkpt lat="-26.6856855" lon="151.9912270"></trkpt>
      <trkpt lat="-26.6856939" lon="151.9912008"></trkpt>
      <trkpt lat="-26.6857006" lon="151.9911709"></trkpt>
      <trkpt lat="-26.6857174" lon="151.9910450"></trkpt>
      <trkpt lat="-26.6857292" lon="151.9909963"></trkpt>
      <trkpt lat="-26.6857477" lon="151.9909499"></trkpt>
      <trkpt lat="-26.6857728" lon="151.9909066"></trkpt>
      <trkpt lat="-26.6857878" lon="151.9908872"></trkpt>
      <trkpt lat="-26.6858043" lon="151.9908695"></trkpt>
      <trkpt lat="-26.6858410" lon="151.9908399"></trkpt>
      <trkpt lat="-26.6859211" lon="151.9907842"></trkpt>
      <trkpt lat="-26.6859577" lon="151.9907473"></trkpt>
      <trkpt lat="-26.6860252" lon="151.9906606"></trkpt>
      <trkpt lat="-26.6862285" lon="151.9903535"></trkpt>
      <trkpt lat="-26.6863418" lon="151.9901823"></trkpt>
      <trkpt lat="-26.6863684" lon="151.9901367"></trkpt>
      <trkpt lat="-26.6863782" lon="151.9901112"></trkpt>
      <trkpt lat="-26.6863855" lon="151.9900846"></trkpt>
      <trkpt lat="-26.6863905" lon="151.9900570"></trkpt>
      <trkpt lat="-26.6863933" lon="151.9900288"></trkpt>
      <trkpt lat="-26.6863932" lon="151.9899700"></trkpt>
      <trkpt lat="-26.6863859" lon="151.9899091"></trkpt>
      <trkpt lat="-26.6863703" lon="151.9898477"></trkpt>
      <trkpt lat="-26.6863482" lon="151.9897879"></trkpt>
      <trkpt lat="-26.6862982" lon="151.9896830"></trkpt>
      <trkpt lat="-26.6862705" lon="151.9896377"></trkpt>
      <trkpt lat="-26.6862543" lon="151.9896169"></trkpt>
      <trkpt lat="-26.6862366" lon="151.9895978"></trkpt>
      <trkpt lat="-26.6862181" lon="151.9895811"></trkpt>
      <trkpt lat="-26.6861978" lon="151.9895667"></trkpt>
      <trkpt lat="-26.6861731" lon="151.9895542"></trkpt>
      <trkpt lat="-26.6861468" lon="151.9895455"></trkpt>
      <trkpt lat="-26.6861199" lon="151.9895419"></trkpt>
      <trkpt lat="-26.6860934" lon="151.9895426"></trkpt>
      <trkpt lat="-26.6860710" lon="151.9895468"></trkpt>
      <trkpt lat="-26.6860495" lon="151.9895542"></trkpt>
      <trkpt lat="-26.6860069" lon="151.9895779"></trkpt>
      <trkpt lat="-26.6859645" lon="151.9896090"></trkpt>
      <trkpt lat="-26.6858847" lon="151.9896788"></trkpt>
      <trkpt lat="-26.6858095" lon="151.9897530"></trkpt>
      <trkpt lat="-26.6857923" lon="151.9897754"></trkpt>
      <trkpt lat="-26.6857811" lon="151.9897968"></trkpt>
      <trkpt lat="-26.6857750" lon="151.9898143"></trkpt>
      <trkpt lat="-26.6857708" lon="151.9898328"></trkpt>
      <trkpt lat="-26.6857694" lon="151.9898513"></trkpt>
      <trkpt lat="-26.6857704" lon="151.9898651"></trkpt>
      <trkpt lat="-26.6857728" lon="151.9898791"></trkpt>
      <trkpt lat="-26.6857769" lon="151.9898925"></trkpt>
      <trkpt lat="-26.6857825" lon="151.9899044"></trkpt>
      <trkpt lat="-26.6857899" lon="151.9899147"></trkpt>
      <trkpt lat="-26.6857991" lon="151.9899240"></trkpt>
      <trkpt lat="-26.6858094" lon="151.9899318"></trkpt>
      <trkpt lat="-26.6858202" lon="151.9899377"></trkpt>
      <trkpt lat="-26.6858364" lon="151.9899421"></trkpt>
      <trkpt lat="-26.6858539" lon="151.9899431"></trkpt>
      <trkpt lat="-26.6858711" lon="151.9899421"></trkpt>
      <trkpt lat="-26.6858945" lon="151.9899373"></trkpt>
      <trkpt lat="-26.6859173" lon="151.9899288"></trkpt>
      <trkpt lat="-26.6859636" lon="151.9899018"></trkpt>
      <trkpt lat="-26.6860109" lon="151.9898677"></trkpt>
      <trkpt lat="-26.6860342" lon="151.9898541"></trkpt>
      <trkpt lat="-26.6860579" lon="151.9898443"></trkpt>
      <trkpt lat="-26.6860736" lon="151.9898412"></trkpt>
      <trkpt lat="-26.6860895" lon="151.9898402"></trkpt>
      <trkpt lat="-26.6861051" lon="151.9898417"></trkpt>
      <trkpt lat="-26.6861206" lon="151.9898460"></trkpt>
      <trkpt lat="-26.6861357" lon="151.9898527"></trkpt>
      <trkpt lat="-26.6861494" lon="151.9898616"></trkpt>
      <trkpt lat="-26.6861616" lon="151.9898724"></trkpt>
      <trkpt lat="-26.6861724" lon="151.9898853"></trkpt>
      <trkpt lat="-26.6861807" lon="151.9898999"></trkpt>
      <trkpt lat="-26.6861854" lon="151.9899134"></trkpt>
      <trkpt lat="-26.6861885" lon="151.9899285"></trkpt>
      <trkpt lat="-26.6861899" lon="151.9899439"></trkpt>
      <trkpt lat="-26.6861895" lon="151.9899583"></trkpt>
      <trkpt lat="-26.6861861" lon="151.9899748"></trkpt>
      <trkpt lat="-26.6861800" lon="151.9899905"></trkpt>
      <trkpt lat="-26.6861719" lon="151.9900048"></trkpt>
      <trkpt lat="-26.6861612" lon="151.9900179"></trkpt>
      <trkpt lat="-26.6861483" lon="151.9900294"></trkpt>
      <trkpt lat="-26.6861344" lon="151.9900399"></trkpt>
      <trkpt lat="-26.6861121" lon="151.9900539"></trkpt>
      <trkpt lat="-26.6860847" lon="151.9900662"></trkpt>
      <trkpt lat="-26.6860156" lon="151.9900882"></trkpt>
      <trkpt lat="-26.6859327" lon="151.9901056"></trkpt>
      <trkpt lat="-26.6857290" lon="151.9901127"></trkpt>
      <trkpt lat="-26.6856292" lon="151.9901286"></trkpt>
      <trkpt lat="-26.6855844" lon="151.9901415"></trkpt>
      <trkpt lat="-26.6855413" lon="151.9901601"></trkpt>
      <trkpt lat="-26.6854990" lon="151.9901843"></trkpt>
      <trkpt lat="-26.6854580" lon="151.9902132"></trkpt>
      <trkpt lat="-26.6854184" lon="151.9902464"></trkpt>
      <trkpt lat="-26.6852811" lon="151.9904011"></trkpt>
      <trkpt lat="-26.6851874" lon="151.9905195"></trkpt>
      <trkpt lat="-26.6851698" lon="151.9905474"></trkpt>
      <trkpt lat="-26.6851565" lon="151.9905736"></trkpt>
      <trkpt lat="-26.6851463" lon="151.9906002"></trkpt>
      <trkpt lat="-26.6851390" lon="151.9906274"></trkpt>
      <trkpt lat="-26.6851345" lon="151.9906547"></trkpt>
      <trkpt lat="-26.6851327" lon="151.9906823"></trkpt>
      <trkpt lat="-26.6851338" lon="151.9907096"></trkpt>
      <trkpt lat="-26.6851376" lon="151.9907366"></trkpt>
      <trkpt lat="-26.6851440" lon="151.9907635"></trkpt>
      <trkpt lat="-26.6851528" lon="151.9907896"></trkpt>
      <trkpt lat="-26.6851638" lon="151.9908144"></trkpt>
      <trkpt lat="-26.6851775" lon="151.9908376"></trkpt>
      <trkpt lat="-26.6851960" lon="151.9908608"></trkpt>
      <trkpt lat="-26.6852173" lon="151.9908804"></trkpt>
      <trkpt lat="-26.6852316" lon="151.9908897"></trkpt>
      <trkpt lat="-26.6852467" lon="151.9908970"></trkpt>
      <trkpt lat="-26.6852622" lon="151.9909015"></trkpt>
      <trkpt lat="-26.6852780" lon="151.9909029"></trkpt>
      <trkpt lat="-26.6852942" lon="151.9909015"></trkpt>
      <trkpt lat="-26.6853097" lon="151.9908975"></trkpt>
      <trkpt lat="-26.6853247" lon="151.9908905"></trkpt>
      <trkpt lat="-26.6853390" lon="151.9908807"></trkpt>
      <trkpt lat="-26.6853518" lon="151.9908689"></trkpt>
      <trkpt lat="-26.6853634" lon="151.9908548"></trkpt>
      <trkpt lat="-26.6853733" lon="151.9908386"></trkpt>
      <trkpt lat="-26.6853810" lon="151.9908213"></trkpt>
      <trkpt lat="-26.6853874" lon="151.9907922"></trkpt>
      <trkpt lat="-26.6853894" lon="151.9907622"></trkpt>
      <trkpt lat="-26.6853878" lon="151.9907365"></trkpt>
      <trkpt lat="-26.6853855" lon="151.9907110"></trkpt>
      <trkpt lat="-26.6853882" lon="151.9906567"></trkpt>
      <trkpt lat="-26.6853931" lon="151.9906299"></trkpt>
      <trkpt lat="-26.6854010" lon="151.9906008"></trkpt>
      <trkpt lat="-26.6854467" lon="151.9904837"></trkpt>
      <trkpt lat="-26.6854713" lon="151.9904406"></trkpt>
      <trkpt lat="-26.6855079" lon="151.9903903"></trkpt>
      <trkpt lat="-26.6855279" lon="151.9903693"></trkpt>
      <trkpt lat="-26.6855495" lon="151.9903507"></trkpt>
      <trkpt lat="-26.6855734" lon="151.9903347"></trkpt>
      <trkpt lat="-26.6855988" lon="151.9903210"></trkpt>
      <trkpt lat="-26.6856536" lon="151.9902987"></trkpt>
      <trkpt lat="-26.6856805" lon="151.9902913"></trkpt>
      <trkpt lat="-26.6857073" lon="151.9902869"></trkpt>
      <trkpt lat="-26.6857322" lon="151.9902863"></trkpt>
      <trkpt lat="-26.6857562" lon="151.9902894"></trkpt>
      <trkpt lat="-26.6857783" lon="151.9902967"></trkpt>
      <trkpt lat="-26.6857989" lon="151.9903077"></trkpt>
      <trkpt lat="-26.6858115" lon="151.9903168"></trkpt>
      <trkpt lat="-26.6858233" lon="151.9903274"></trkpt>
      <trkpt lat="-26.6858337" lon="151.9903399"></trkpt>
      <trkpt lat="-26.6858436" lon="151.9903563"></trkpt>
      <trkpt lat="-26.6858519" lon="151.9903750"></trkpt>
      <trkpt lat="-26.6858578" lon="151.9903944"></trkpt>
      <trkpt lat="-26.6858613" lon="151.9904238"></trkpt>
      <trkpt lat="-26.6858605" lon="151.9904560"></trkpt>
    </trkseg>
  </trk>
</gpx>
