<?xml version="1.0" encoding="UTF-8"?>
<gpx version="1.1" creator="tkk2gpx (Aus_Kart.ztracks converter)"
     xmlns="http://www.topografix.com/GPX/1/1"
     xmlns:xsi="http://www.w3.org/2001/XMLSchema-instance"
     xsi:schemaLocation="http://www.topografix.com/GPX/1/1 http://www.topografix.com/GPX/1/1/gpx.xsd">
  <metadata>
    <name>CHKRC A</name>
    <desc>Kart track, NSW AU. One lap starting and ending at the Start/Finish line. Declared length 816 m.</desc>
  </metadata>
  <wpt lat="-30.3199032" lon="153.0983768">
    <name>Start/Finish</name>
    <desc>Start/Finish line location</desc>
    <sym>Flag, Checkered</sym>
  </wpt>
  <trk>
    <name>CHKRC A - 1 lap</name>
    <trkseg>
      <trkpt lat="-30.3199656" lon="153.0985645"></trkpt>
      <trkpt lat="-30.3200472" lon="153.0985511"></trkpt>
      <trkpt lat="-30.3201289" lon="153.0985385"></trkpt>
      <trkpt lat="-30.3201549" lon="153.0985312"></trkpt>
      <trkpt lat="-30.3201764" lon="153.0985213"></trkpt>
      <trkpt lat="-30.3201931" lon="153.0985100"></trkpt>
      <trkpt lat="-30.3202091" lon="153.0984962"></trkpt>
      <trkpt lat="-30.3202223" lon="153.0984809"></trkpt>
      <trkpt lat="-30.3202298" lon="153.0984691"></trkpt>
      <trkpt lat="-30.3202359" lon="153.0984564"></trkpt>
      <trkpt lat="-30.3202406" lon="153.0984433"></trkpt>
      <trkpt lat="-30.3202434" lon="153.0984300"></trkpt>
      <trkpt lat="-30.3202441" lon="153.0984122"></trkpt>
      <trkpt lat="-30.3202417" lon="153.0983940"></trkpt>
      <trkpt lat="-30.3202372" lon="153.0983761"></trkpt>
      <trkpt lat="-30.3202253" lon="153.0983489"></trkpt>
      <trkpt lat="-30.3202096" lon="153.0983224"></trkpt>
      <trkpt lat="-30.3201707" lon="153.0982682"></trkpt>
      <trkpt lat="-30.3201523" lon="153.0982411"></trkpt>
      <trkpt lat="-30.3201377" lon="153.0982131"></trkpt>
      <trkpt lat="-30.3201335" lon="153.0981992"></trkpt>
      <trkpt lat="-30.3201305" lon="153.0981849"></trkpt>
      <trkpt lat="-30.3201293" lon="153.0981705"></trkpt>
      <trkpt lat="-30.3201302" lon="153.0981566"></trkpt>
      <trkpt lat="-30.3201326" lon="153.0981451"></trkpt>
      <trkpt lat="-30.3201364" lon="153.0981333"></trkpt>
      <trkpt lat="-30.3201415" lon="153.0981219"></trkpt>
      <trkpt lat="-30.3201477" lon="153.0981118"></trkpt>
      <trkpt lat="-30.3201551" lon="153.0981038"></trkpt>
      <trkpt lat="-30.3201658" lon="153.0980973"></trkpt>
      <trkpt lat="-30.3201786" lon="153.0980931"></trkpt>
      <trkpt lat="-30.3201921" lon="153.0980909"></trkpt>
      <trkpt lat="-30.3202050" lon="153.0980903"></trkpt>
      <trkpt lat="-30.3202285" lon="153.0980948"></trkpt>
      <trkpt lat="-30.3202517" lon="153.0981039"></trkpt>
      <trkpt lat="-30.3203024" lon="153.0981305"></trkpt>
      <trkpt lat="-30.3205990" lon="153.0983241"></trkpt>
      <trkpt lat="-30.3206951" lon="153.0983781"></trkpt>
      <trkpt lat="-30.3207184" lon="153.0983878"></trkpt>
      <trkpt lat="-30.3207405" lon="153.0983932"></trkpt>
      <trkpt lat="-30.3207585" lon="153.0983947"></trkpt>
      <trkpt lat="-30.3207771" lon="153.0983939"></trkpt>
      <trkpt lat="-30.3207942" lon="153.0983895"></trkpt>
      <trkpt lat="-30.3208062" lon="153.0983829"></trkpt>
      <trkpt lat="-30.3208177" lon="153.0983740"></trkpt>
      <trkpt lat="-30.3208276" lon="153.0983634"></trkpt>
      <trkpt lat="-30.3208352" lon="153.0983517"></trkpt>
      <trkpt lat="-30.3208402" lon="153.0983377"></trkpt>
      <trkpt lat="-30.3208427" lon="153.0983218"></trkpt>
      <trkpt lat="-30.3208432" lon="153.0983054"></trkpt>
      <trkpt lat="-30.3208422" lon="153.0982898"></trkpt>
      <trkpt lat="-30.3208384" lon="153.0982715"></trkpt>
      <trkpt lat="-30.3208319" lon="153.0982539"></trkpt>
      <trkpt lat="-30.3208238" lon="153.0982366"></trkpt>
      <trkpt lat="-30.3208098" lon="153.0982129"></trkpt>
      <trkpt lat="-30.3207885" lon="153.0981840"></trkpt>
      <trkpt lat="-30.3205305" lon="153.0978707"></trkpt>
      <trkpt lat="-30.3204555" lon="153.0977796"></trkpt>
      <trkpt lat="-30.3204288" lon="153.0977546"></trkpt>
      <trkpt lat="-30.3204056" lon="153.0977375"></trkpt>
      <trkpt lat="-30.3203493" lon="153.0977056"></trkpt>
      <trkpt lat="-30.3202881" lon="153.0976834"></trkpt>
      <trkpt lat="-30.3202561" lon="153.0976767"></trkpt>
      <trkpt lat="-30.3202236" lon="153.0976737"></trkpt>
      <trkpt lat="-30.3201910" lon="153.0976755"></trkpt>
      <trkpt lat="-30.3201587" lon="153.0976808"></trkpt>
      <trkpt lat="-30.3200964" lon="153.0976986"></trkpt>
      <trkpt lat="-30.3200669" lon="153.0977121"></trkpt>
      <trkpt lat="-30.3200394" lon="153.0977289"></trkpt>
      <trkpt lat="-30.3200139" lon="153.0977494"></trkpt>
      <trkpt lat="-30.3199932" lon="153.0977790"></trkpt>
      <trkpt lat="-30.3199723" lon="153.0978190"></trkpt>
      <trkpt lat="-30.3199000" lon="153.0979812"></trkpt>
      <trkpt lat="-30.3198672" lon="153.0980344"></trkpt>
      <trkpt lat="-30.3198273" lon="153.0980802"></trkpt>
      <trkpt lat="-30.3197828" lon="153.0981207"></trkpt>
      <trkpt lat="-30.3197322" lon="153.0981534"></trkpt>
      <trkpt lat="-30.3196762" lon="153.0981761"></trkpt>
      <trkpt lat="-30.3196157" lon="153.0981924"></trkpt>
      <trkpt lat="-30.3195541" lon="153.0982034"></trkpt>
      <trkpt lat="-30.3195221" lon="153.0982042"></trkpt>
      <trkpt lat="-30.3194928" lon="153.0982015"></trkpt>
      <trkpt lat="-30.3194329" lon="153.0981894"></trkpt>
      <trkpt lat="-30.3192535" lon="153.0981123"></trkpt>
      <trkpt lat="-30.3191963" lon="153.0980896"></trkpt>
      <trkpt lat="-30.3191686" lon="153.0980834"></trkpt>
      <trkpt lat="-30.3191411" lon="153.0980807"></trkpt>
      <trkpt lat="-30.3191152" lon="153.0980821"></trkpt>
      <trkpt lat="-30.3190901" lon="153.0980871"></trkpt>
      <trkpt lat="-30.3190671" lon="153.0980951"></trkpt>
      <trkpt lat="-30.3190454" lon="153.0981072"></trkpt>
      <trkpt lat="-30.3190294" lon="153.0981202"></trkpt>
      <trkpt lat="-30.3190143" lon="153.0981360"></trkpt>
      <trkpt lat="-30.3190009" lon="153.0981532"></trkpt>
      <trkpt lat="-30.3189844" lon="153.0981827"></trkpt>
      <trkpt lat="-30.3189724" lon="153.0982137"></trkpt>
      <trkpt lat="-30.3189662" lon="153.0982399"></trkpt>
      <trkpt lat="-30.3189633" lon="153.0982663"></trkpt>
      <trkpt lat="-30.3189632" lon="153.0982949"></trkpt>
      <trkpt lat="-30.3189661" lon="153.0983239"></trkpt>
      <trkpt lat="-30.3189806" lon="153.0983843"></trkpt>
      <trkpt lat="-30.3190673" lon="153.0986362"></trkpt>
      <trkpt lat="-30.3191153" lon="153.0988901"></trkpt>
      <trkpt lat="-30.3191348" lon="153.0989550"></trkpt>
      <trkpt lat="-30.3191481" lon="153.0989832"></trkpt>
      <trkpt lat="-30.3191640" lon="153.0990091"></trkpt>
      <trkpt lat="-30.3191814" lon="153.0990310"></trkpt>
      <trkpt lat="-30.3192010" lon="153.0990497"></trkpt>
      <trkpt lat="-30.3192145" lon="153.0990596"></trkpt>
      <trkpt lat="-30.3192289" lon="153.0990680"></trkpt>
      <trkpt lat="-30.3192444" lon="153.0990741"></trkpt>
      <trkpt lat="-30.3192633" lon="153.0990783"></trkpt>
      <trkpt lat="-30.3192834" lon="153.0990798"></trkpt>
      <trkpt lat="-30.3193026" lon="153.0990779"></trkpt>
      <trkpt lat="-30.3193199" lon="153.0990721"></trkpt>
      <trkpt lat="-30.3193363" lon="153.0990629"></trkpt>
      <trkpt lat="-30.3193508" lon="153.0990516"></trkpt>
      <trkpt lat="-30.3193633" lon="153.0990378"></trkpt>
      <trkpt lat="-30.3193739" lon="153.0990216"></trkpt>
      <trkpt lat="-30.3193823" lon="153.0990042"></trkpt>
      <trkpt lat="-30.3193906" lon="153.0989752"></trkpt>
      <trkpt lat="-30.3193949" lon="153.0989423"></trkpt>
      <trkpt lat="-30.3193946" lon="153.0988868"></trkpt>
      <trkpt lat="-30.3193938" lon="153.0988318"></trkpt>
      <trkpt lat="-30.3193975" lon="153.0988016"></trkpt>
      <trkpt lat="-30.3194035" lon="153.0987742"></trkpt>
      <trkpt lat="-30.3194117" lon="153.0987466"></trkpt>
      <trkpt lat="-30.3194225" lon="153.0987206"></trkpt>
      <trkpt lat="-30.3194356" lon="153.0986979"></trkpt>
      <trkpt lat="-30.3194522" lon="153.0986778"></trkpt>
      <trkpt lat="-30.3194674" lon="153.0986650"></trkpt>
      <trkpt lat="-30.3194847" lon="153.0986537"></trkpt>
      <trkpt lat="-30.3195026" lon="153.0986452"></trkpt>
      <trkpt lat="-30.3195197" lon="153.0986399"></trkpt>
      <trkpt lat="-30.3195374" lon="153.0986370"></trkpt>
      <trkpt lat="-30.3195542" lon="153.0986376"></trkpt>
      <trkpt lat="-30.3195658" lon="153.0986406"></trkpt>
      <trkpt lat="-30.3195771" lon="153.0986456"></trkpt>
      <trkpt lat="-30.3195876" lon="153.0986520"></trkpt>
      <trkpt lat="-30.3195971" lon="153.0986595"></trkpt>
      <trkpt lat="-30.3196080" lon="153.0986718"></trkpt>
      <trkpt lat="-30.3196171" lon="153.0986864"></trkpt>
      <trkpt lat="-30.3196247" lon="153.0987020"></trkpt>
      <trkpt lat="-30.3196341" lon="153.0987287"></trkpt>
      <trkpt lat="-30.3196401" lon="153.0987574"></trkpt>
      <trkpt lat="-30.3196425" lon="153.0988237"></trkpt>
      <trkpt lat="-30.3196418" lon="153.0988787"></trkpt>
      <trkpt lat="-30.3196447" lon="153.0989330"></trkpt>
      <trkpt lat="-30.3196502" lon="153.0989560"></trkpt>
      <trkpt lat="-30.3196577" lon="153.0989768"></trkpt>
      <trkpt lat="-30.3196677" lon="153.0989955"></trkpt>
      <trkpt lat="-30.3196798" lon="153.0990114"></trkpt>
      <trkpt lat="-30.3196940" lon="153.0990255"></trkpt>
      <trkpt lat="-30.3197099" lon="153.0990369"></trkpt>
      <trkpt lat="-30.3197376" lon="153.0990481"></trkpt>
      <trkpt lat="-30.3197668" lon="153.0990542"></trkpt>
      <trkpt lat="-30.3197915" lon="153.0990565"></trkpt>
      <trkpt lat="-30.3198162" lon="153.0990562"></trkpt>
      <trkpt lat="-30.3198699" lon="153.0990499"></trkpt>
      <trkpt lat="-30.3203301" lon="153.0989659"></trkpt>
      <trkpt lat="-30.3203577" lon="153.0989569"></trkpt>
      <trkpt lat="-30.3203779" lon="153.0989460"></trkpt>
      <trkpt lat="-30.3203943" lon="153.0989333"></trkpt>
      <trkpt lat="-30.3204097" lon="153.0989179"></trkpt>
      <trkpt lat="-30.3204222" lon="153.0989009"></trkpt>
      <trkpt lat="-30.3204292" lon="153.0988874"></trkpt>
      <trkpt lat="-30.3204348" lon="153.0988729"></trkpt>
      <trkpt lat="-30.3204387" lon="153.0988579"></trkpt>
      <trkpt lat="-30.3204406" lon="153.0988432"></trkpt>
      <trkpt lat="-30.3204405" lon="153.0988288"></trkpt>
      <trkpt lat="-30.3204386" lon="153.0988141"></trkpt>
      <trkpt lat="-30.3204349" lon="153.0988000"></trkpt>
      <trkpt lat="-30.3204296" lon="153.0987872"></trkpt>
      <trkpt lat="-30.3204228" lon="153.0987763"></trkpt>
      <trkpt lat="-30.3204144" lon="153.0987663"></trkpt>
      <trkpt lat="-30.3204047" lon="153.0987573"></trkpt>
      <trkpt lat="-30.3203943" lon="153.0987497"></trkpt>
      <trkpt lat="-30.3203785" lon="153.0987413"></trkpt>
      <trkpt lat="-30.3203610" lon="153.0987351"></trkpt>
      <trkpt lat="-30.3203428" lon="153.0987315"></trkpt>
      <trkpt lat="-30.3203127" lon="153.0987319"></trkpt>
      <trkpt lat="-30.3202827" lon="153.0987369"></trkpt>
      <trkpt lat="-30.3202324" lon="153.0987518"></trkpt>
      <trkpt lat="-30.3200610" lon="153.0988174"></trkpt>
      <trkpt lat="-30.3200015" lon="153.0988302"></trkpt>
      <trkpt lat="-30.3199729" lon="153.0988315"></trkpt>
      <trkpt lat="-30.3199451" lon="153.0988287"></trkpt>
      <trkpt lat="-30.3199199" lon="153.0988212"></trkpt>
      <trkpt lat="-30.3198967" lon="153.0988097"></trkpt>
      <trkpt lat="-30.3198830" lon="153.0988003"></trkpt>
      <trkpt lat="-30.3198705" lon="153.0987894"></trkpt>
      <trkpt lat="-30.3198596" lon="153.0987765"></trkpt>
      <trkpt lat="-30.3198517" lon="153.0987639"></trkpt>
      <trkpt lat="-30.3198449" lon="153.0987496"></trkpt>
      <trkpt lat="-30.3198396" lon="153.0987347"></trkpt>
      <trkpt lat="-30.3198365" lon="153.0987199"></trkpt>
      <trkpt lat="-30.3198359" lon="153.0987058"></trkpt>
      <trkpt lat="-30.3198372" lon="153.0986914"></trkpt>
      <trkpt lat="-30.3198402" lon="153.0986772"></trkpt>
      <trkpt lat="-30.3198448" lon="153.0986638"></trkpt>
      <trkpt lat="-30.3198543" lon="153.0986465"></trkpt>
      <trkpt lat="-30.3198668" lon="153.0986303"></trkpt>
      <trkpt lat="-30.3198801" lon="153.0986157"></trkpt>
      <trkpt lat="-30.3198984" lon="153.0985988"></trkpt>
      <trkpt lat="-30.3199184" lon="153.0985847"></trkpt>
      <trkpt lat="-30.3199395" lon="153.0985736"></trkpt>
      <trkpt lat="-30.3199656" lon="153.0985645"></trkpt>
    </trkseg>
  </trk>
</gpx>
