<?xml version="1.0" encoding="UTF-8"?>
<gpx version="1.1" creator="tkk2gpx (Aus_Kart.ztracks converter)"
     xmlns="http://www.topografix.com/GPX/1/1"
     xmlns:xsi="http://www.w3.org/2001/XMLSchema-instance"
     xsi:schemaLocation="http://www.topografix.com/GPX/1/1 http://www.topografix.com/GPX/1/1/gpx.xsd">
  <metadata>
    <name>CHKRC A3</name>
    <desc>Kart track, NSW AU. One lap starting and ending at the Start/Finish line. Declared length 1020 m.</desc>
  </metadata>
  <wpt lat="-30.3198041" lon="153.0983877">
    <name>Start/Finish</name>
    <desc>Start/Finish line location</desc>
    <sym>Flag, Checkered</sym>
  </wpt>
  <trk>
    <name>CHKRC A3 - 1 lap</name>
    <trkseg>
      <trkpt lat="-30.3197414" lon="153.0982046"></trkpt>
      <trkpt lat="-30.3196795" lon="153.0982391"></trkpt>
      <trkpt lat="-30.3196127" lon="153.0982797"></trkpt>
      <trkpt lat="-30.3195943" lon="153.0982989"></trkpt>
      <trkpt lat="-30.3195810" lon="153.0983176"></trkpt>
      <trkpt lat="-30.3195625" lon="153.0983500"></trkpt>
      <trkpt lat="-30.3195481" lon="153.0983869"></trkpt>
      <trkpt lat="-30.3195369" lon="153.0984352"></trkpt>
      <trkpt lat="-30.3195315" lon="153.0984893"></trkpt>
      <trkpt lat="-30.3195351" lon="153.0985629"></trkpt>
      <trkpt lat="-30.3195457" lon="153.0986453"></trkpt>
      <trkpt lat="-30.3195896" lon="153.0989016"></trkpt>
      <trkpt lat="-30.3196042" lon="153.0989442"></trkpt>
      <trkpt lat="-30.3196214" lon="153.0989786"></trkpt>
      <trkpt lat="-30.3196434" lon="153.0990109"></trkpt>
      <trkpt lat="-30.3196681" lon="153.0990380"></trkpt>
      <trkpt lat="-30.3196893" lon="153.0990553"></trkpt>
      <trkpt lat="-30.3197126" lon="153.0990684"></trkpt>
      <trkpt lat="-30.3197441" lon="153.0990803"></trkpt>
      <trkpt lat="-30.3197805" lon="153.0990870"></trkpt>
      <trkpt lat="-30.3198387" lon="153.0990850"></trkpt>
      <trkpt lat="-30.3199091" lon="153.0990739"></trkpt>
      <trkpt lat="-30.3202321" lon="153.0989934"></trkpt>
      <trkpt lat="-30.3202880" lon="153.0989735"></trkpt>
      <trkpt lat="-30.3203215" lon="153.0989569"></trkpt>
      <trkpt lat="-30.3203460" lon="153.0989408"></trkpt>
      <trkpt lat="-30.3203696" lon="153.0989203"></trkpt>
      <trkpt lat="-30.3203837" lon="153.0989030"></trkpt>
      <trkpt lat="-30.3203964" lon="153.0988836"></trkpt>
      <trkpt lat="-30.3204051" lon="153.0988651"></trkpt>
      <trkpt lat="-30.3204081" lon="153.0988535"></trkpt>
      <trkpt lat="-30.3204091" lon="153.0988424"></trkpt>
      <trkpt lat="-30.3204091" lon="153.0988303"></trkpt>
      <trkpt lat="-30.3204082" lon="153.0988114"></trkpt>
      <trkpt lat="-30.3204055" lon="153.0987909"></trkpt>
      <trkpt lat="-30.3204003" lon="153.0987737"></trkpt>
      <trkpt lat="-30.3203960" lon="153.0987663"></trkpt>
      <trkpt lat="-30.3203908" lon="153.0987601"></trkpt>
      <trkpt lat="-30.3203848" lon="153.0987547"></trkpt>
      <trkpt lat="-30.3203779" lon="153.0987497"></trkpt>
      <trkpt lat="-30.3203532" lon="153.0987377"></trkpt>
      <trkpt lat="-30.3203282" lon="153.0987298"></trkpt>
      <trkpt lat="-30.3203179" lon="153.0987280"></trkpt>
      <trkpt lat="-30.3203079" lon="153.0987277"></trkpt>
      <trkpt lat="-30.3202712" lon="153.0987309"></trkpt>
      <trkpt lat="-30.3202286" lon="153.0987416"></trkpt>
      <trkpt lat="-30.3201191" lon="153.0987886"></trkpt>
      <trkpt lat="-30.3200019" lon="153.0988326"></trkpt>
      <trkpt lat="-30.3199589" lon="153.0988363"></trkpt>
      <trkpt lat="-30.3199255" lon="153.0988329"></trkpt>
      <trkpt lat="-30.3199112" lon="153.0988292"></trkpt>
      <trkpt lat="-30.3198982" lon="153.0988232"></trkpt>
      <trkpt lat="-30.3198836" lon="153.0988151"></trkpt>
      <trkpt lat="-30.3198680" lon="153.0988046"></trkpt>
      <trkpt lat="-30.3198545" lon="153.0987922"></trkpt>
      <trkpt lat="-30.3198442" lon="153.0987778"></trkpt>
      <trkpt lat="-30.3198358" lon="153.0987615"></trkpt>
      <trkpt lat="-30.3198293" lon="153.0987453"></trkpt>
      <trkpt lat="-30.3198254" lon="153.0987325"></trkpt>
      <trkpt lat="-30.3198230" lon="153.0987199"></trkpt>
      <trkpt lat="-30.3198220" lon="153.0987064"></trkpt>
      <trkpt lat="-30.3198229" lon="153.0986877"></trkpt>
      <trkpt lat="-30.3198258" lon="153.0986678"></trkpt>
      <trkpt lat="-30.3198302" lon="153.0986498"></trkpt>
      <trkpt lat="-30.3198376" lon="153.0986315"></trkpt>
      <trkpt lat="-30.3198468" lon="153.0986158"></trkpt>
      <trkpt lat="-30.3198556" lon="153.0986043"></trkpt>
      <trkpt lat="-30.3198667" lon="153.0985937"></trkpt>
      <trkpt lat="-30.3198964" lon="153.0985729"></trkpt>
      <trkpt lat="-30.3199260" lon="153.0985564"></trkpt>
      <trkpt lat="-30.3199339" lon="153.0985535"></trkpt>
      <trkpt lat="-30.3199429" lon="153.0985519"></trkpt>
      <trkpt lat="-30.3200216" lon="153.0985499"></trkpt>
      <trkpt lat="-30.3201071" lon="153.0985454"></trkpt>
      <trkpt lat="-30.3201292" lon="153.0985389"></trkpt>
      <trkpt lat="-30.3201463" lon="153.0985305"></trkpt>
      <trkpt lat="-30.3201586" lon="153.0985228"></trkpt>
      <trkpt lat="-30.3201701" lon="153.0985131"></trkpt>
      <trkpt lat="-30.3201821" lon="153.0985015"></trkpt>
      <trkpt lat="-30.3201945" lon="153.0984876"></trkpt>
      <trkpt lat="-30.3202048" lon="153.0984717"></trkpt>
      <trkpt lat="-30.3202128" lon="153.0984512"></trkpt>
      <trkpt lat="-30.3202183" lon="153.0984283"></trkpt>
      <trkpt lat="-30.3202207" lon="153.0984064"></trkpt>
      <trkpt lat="-30.3202198" lon="153.0983892"></trkpt>
      <trkpt lat="-30.3202165" lon="153.0983726"></trkpt>
      <trkpt lat="-30.3202117" lon="153.0983572"></trkpt>
      <trkpt lat="-30.3202030" lon="153.0983388"></trkpt>
      <trkpt lat="-30.3201911" lon="153.0983199"></trkpt>
      <trkpt lat="-30.3201592" lon="153.0982795"></trkpt>
      <trkpt lat="-30.3201296" lon="153.0982369"></trkpt>
      <trkpt lat="-30.3201231" lon="153.0982191"></trkpt>
      <trkpt lat="-30.3201195" lon="153.0982020"></trkpt>
      <trkpt lat="-30.3201183" lon="153.0981861"></trkpt>
      <trkpt lat="-30.3201189" lon="153.0981749"></trkpt>
      <trkpt lat="-30.3201210" lon="153.0981645"></trkpt>
      <trkpt lat="-30.3201249" lon="153.0981537"></trkpt>
      <trkpt lat="-30.3201352" lon="153.0981346"></trkpt>
      <trkpt lat="-30.3201493" lon="153.0981146"></trkpt>
      <trkpt lat="-30.3201641" lon="153.0980990"></trkpt>
      <trkpt lat="-30.3201749" lon="153.0980917"></trkpt>
      <trkpt lat="-30.3201861" lon="153.0980871"></trkpt>
      <trkpt lat="-30.3201983" lon="153.0980843"></trkpt>
      <trkpt lat="-30.3202159" lon="153.0980834"></trkpt>
      <trkpt lat="-30.3202350" lon="153.0980851"></trkpt>
      <trkpt lat="-30.3202514" lon="153.0980883"></trkpt>
      <trkpt lat="-30.3202622" lon="153.0980921"></trkpt>
      <trkpt lat="-30.3202737" lon="153.0980986"></trkpt>
      <trkpt lat="-30.3204095" lon="153.0981970"></trkpt>
      <trkpt lat="-30.3205563" lon="153.0983103"></trkpt>
      <trkpt lat="-30.3206623" lon="153.0983735"></trkpt>
      <trkpt lat="-30.3206937" lon="153.0983857"></trkpt>
      <trkpt lat="-30.3207216" lon="153.0983922"></trkpt>
      <trkpt lat="-30.3207343" lon="153.0983934"></trkpt>
      <trkpt lat="-30.3207462" lon="153.0983931"></trkpt>
      <trkpt lat="-30.3207577" lon="153.0983907"></trkpt>
      <trkpt lat="-30.3207699" lon="153.0983856"></trkpt>
      <trkpt lat="-30.3207818" lon="153.0983783"></trkpt>
      <trkpt lat="-30.3207923" lon="153.0983694"></trkpt>
      <trkpt lat="-30.3208009" lon="153.0983594"></trkpt>
      <trkpt lat="-30.3208081" lon="153.0983478"></trkpt>
      <trkpt lat="-30.3208133" lon="153.0983352"></trkpt>
      <trkpt lat="-30.3208162" lon="153.0983204"></trkpt>
      <trkpt lat="-30.3208168" lon="153.0983044"></trkpt>
      <trkpt lat="-30.3208152" lon="153.0982882"></trkpt>
      <trkpt lat="-30.3208110" lon="153.0982707"></trkpt>
      <trkpt lat="-30.3208041" lon="153.0982530"></trkpt>
      <trkpt lat="-30.3207948" lon="153.0982343"></trkpt>
      <trkpt lat="-30.3207673" lon="153.0981921"></trkpt>
      <trkpt lat="-30.3207295" lon="153.0981430"></trkpt>
      <trkpt lat="-30.3205362" lon="153.0979098"></trkpt>
      <trkpt lat="-30.3204331" lon="153.0977855"></trkpt>
      <trkpt lat="-30.3203865" lon="153.0977438"></trkpt>
      <trkpt lat="-30.3203360" lon="153.0977085"></trkpt>
      <trkpt lat="-30.3202855" lon="153.0976820"></trkpt>
      <trkpt lat="-30.3202512" lon="153.0976706"></trkpt>
      <trkpt lat="-30.3202107" lon="153.0976654"></trkpt>
      <trkpt lat="-30.3200605" lon="153.0976721"></trkpt>
      <trkpt lat="-30.3198572" lon="153.0976977"></trkpt>
      <trkpt lat="-30.3189195" lon="153.0978798"></trkpt>
      <trkpt lat="-30.3188949" lon="153.0978913"></trkpt>
      <trkpt lat="-30.3188780" lon="153.0979033"></trkpt>
      <trkpt lat="-30.3188563" lon="153.0979204"></trkpt>
      <trkpt lat="-30.3188366" lon="153.0979397"></trkpt>
      <trkpt lat="-30.3188226" lon="153.0979579"></trkpt>
      <trkpt lat="-30.3188113" lon="153.0979775"></trkpt>
      <trkpt lat="-30.3188030" lon="153.0979984"></trkpt>
      <trkpt lat="-30.3187971" lon="153.0980209"></trkpt>
      <trkpt lat="-30.3187929" lon="153.0980482"></trkpt>
      <trkpt lat="-30.3187915" lon="153.0980769"></trkpt>
      <trkpt lat="-30.3187937" lon="153.0981090"></trkpt>
      <trkpt lat="-30.3187989" lon="153.0981392"></trkpt>
      <trkpt lat="-30.3188041" lon="153.0981565"></trkpt>
      <trkpt lat="-30.3188128" lon="153.0981763"></trkpt>
      <trkpt lat="-30.3188915" lon="153.0983132"></trkpt>
      <trkpt lat="-30.3189785" lon="153.0984694"></trkpt>
      <trkpt lat="-30.3190209" lon="153.0985882"></trkpt>
      <trkpt lat="-30.3190521" lon="153.0987064"></trkpt>
      <trkpt lat="-30.3191056" lon="153.0989719"></trkpt>
      <trkpt lat="-30.3191172" lon="153.0990002"></trkpt>
      <trkpt lat="-30.3191296" lon="153.0990221"></trkpt>
      <trkpt lat="-30.3191453" lon="153.0990463"></trkpt>
      <trkpt lat="-30.3191610" lon="153.0990664"></trkpt>
      <trkpt lat="-30.3191685" lon="153.0990742"></trkpt>
      <trkpt lat="-30.3191774" lon="153.0990807"></trkpt>
      <trkpt lat="-30.3191991" lon="153.0990921"></trkpt>
      <trkpt lat="-30.3192269" lon="153.0991038"></trkpt>
      <trkpt lat="-30.3192514" lon="153.0991099"></trkpt>
      <trkpt lat="-30.3192629" lon="153.0991094"></trkpt>
      <trkpt lat="-30.3192730" lon="153.0991066"></trkpt>
      <trkpt lat="-30.3192829" lon="153.0991027"></trkpt>
      <trkpt lat="-30.3192989" lon="153.0990953"></trkpt>
      <trkpt lat="-30.3193145" lon="153.0990845"></trkpt>
      <trkpt lat="-30.3193340" lon="153.0990632"></trkpt>
      <trkpt lat="-30.3193501" lon="153.0990394"></trkpt>
      <trkpt lat="-30.3193566" lon="153.0990254"></trkpt>
      <trkpt lat="-30.3193614" lon="153.0990099"></trkpt>
      <trkpt lat="-30.3193760" lon="153.0989393"></trkpt>
      <trkpt lat="-30.3193800" lon="153.0988809"></trkpt>
      <trkpt lat="-30.3193779" lon="153.0988206"></trkpt>
      <trkpt lat="-30.3193696" lon="153.0987565"></trkpt>
      <trkpt lat="-30.3193553" lon="153.0986925"></trkpt>
      <trkpt lat="-30.3193349" lon="153.0986294"></trkpt>
      <trkpt lat="-30.3193076" lon="153.0985642"></trkpt>
      <trkpt lat="-30.3192470" lon="153.0984549"></trkpt>
      <trkpt lat="-30.3191923" lon="153.0983471"></trkpt>
      <trkpt lat="-30.3191853" lon="153.0983170"></trkpt>
      <trkpt lat="-30.3191832" lon="153.0982918"></trkpt>
      <trkpt lat="-30.3191826" lon="153.0982724"></trkpt>
      <trkpt lat="-30.3191837" lon="153.0982538"></trkpt>
      <trkpt lat="-30.3191902" lon="153.0982157"></trkpt>
      <trkpt lat="-30.3192044" lon="153.0981726"></trkpt>
      <trkpt lat="-30.3192243" lon="153.0981327"></trkpt>
      <trkpt lat="-30.3192450" lon="153.0981036"></trkpt>
      <trkpt lat="-30.3192708" lon="153.0980785"></trkpt>
      <trkpt lat="-30.3193119" lon="153.0980500"></trkpt>
      <trkpt lat="-30.3193650" lon="153.0980255"></trkpt>
      <trkpt lat="-30.3195051" lon="153.0979883"></trkpt>
      <trkpt lat="-30.3195918" lon="153.0979744"></trkpt>
      <trkpt lat="-30.3196444" lon="153.0979714"></trkpt>
      <trkpt lat="-30.3196934" lon="153.0979755"></trkpt>
      <trkpt lat="-30.3197130" lon="153.0979821"></trkpt>
      <trkpt lat="-30.3197303" lon="153.0979913"></trkpt>
      <trkpt lat="-30.3197456" lon="153.0980026"></trkpt>
      <trkpt lat="-30.3197583" lon="153.0980150"></trkpt>
      <trkpt lat="-30.3197692" lon="153.0980293"></trkpt>
      <trkpt lat="-30.3197779" lon="153.0980448"></trkpt>
      <trkpt lat="-30.3197841" lon="153.0980613"></trkpt>
      <trkpt lat="-30.3197881" lon="153.0980790"></trkpt>
      <trkpt lat="-30.3197898" lon="153.0980968"></trkpt>
      <trkpt lat="-30.3197891" lon="153.0981145"></trkpt>
      <trkpt lat="-30.3197860" lon="153.0981322"></trkpt>
      <trkpt lat="-30.3197811" lon="153.0981490"></trkpt>
      <trkpt lat="-30.3197736" lon="153.0981652"></trkpt>
      <trkpt lat="-30.3197642" lon="153.0981804"></trkpt>
      <trkpt lat="-30.3197552" lon="153.0981924"></trkpt>
      <trkpt lat="-30.3197492" lon="153.0981987"></trkpt>
      <trkpt lat="-30.3197414" lon="153.0982046"></trkpt>
    </trkseg>
  </trk>
</gpx>
