<?xml version="1.0" encoding="UTF-8"?>
<gpx version="1.1" creator="tkk2gpx (Aus_Kart.ztracks converter)"
     xmlns="http://www.topografix.com/GPX/1/1"
     xmlns:xsi="http://www.w3.org/2001/XMLSchema-instance"
     xsi:schemaLocation="http://www.topografix.com/GPX/1/1 http://www.topografix.com/GPX/1/1/gpx.xsd">
  <metadata>
    <name>CobdenK</name>
    <desc>Kart track, VIC AU. One lap starting and ending at the Start/Finish line. Declared length 940 m.</desc>
  </metadata>
  <wpt lat="-38.3225958" lon="143.0596936">
    <name>Start/Finish</name>
    <desc>Start/Finish line location</desc>
    <sym>Flag, Checkered</sym>
  </wpt>
  <trk>
    <name>CobdenK - 1 lap</name>
    <trkseg>
      <trkpt lat="-38.3224237" lon="143.0597988"></trkpt>
      <trkpt lat="-38.3223982" lon="143.0597442"></trkpt>
      <trkpt lat="-38.3222837" lon="143.0595603"></trkpt>
      <trkpt lat="-38.3221525" lon="143.0593910"></trkpt>
      <trkpt lat="-38.3217040" lon="143.0588709"></trkpt>
      <trkpt lat="-38.3216707" lon="143.0588259"></trkpt>
      <trkpt lat="-38.3216493" lon="143.0587909"></trkpt>
      <trkpt lat="-38.3216397" lon="143.0587696"></trkpt>
      <trkpt lat="-38.3216323" lon="143.0587470"></trkpt>
      <trkpt lat="-38.3216202" lon="143.0586985"></trkpt>
      <trkpt lat="-38.3216115" lon="143.0586507"></trkpt>
      <trkpt lat="-38.3216099" lon="143.0586324"></trkpt>
      <trkpt lat="-38.3216104" lon="143.0586149"></trkpt>
      <trkpt lat="-38.3216145" lon="143.0585811"></trkpt>
      <trkpt lat="-38.3216213" lon="143.0585483"></trkpt>
      <trkpt lat="-38.3216263" lon="143.0585324"></trkpt>
      <trkpt lat="-38.3216331" lon="143.0585176"></trkpt>
      <trkpt lat="-38.3216493" lon="143.0584907"></trkpt>
      <trkpt lat="-38.3216675" lon="143.0584660"></trkpt>
      <trkpt lat="-38.3216778" lon="143.0584552"></trkpt>
      <trkpt lat="-38.3216891" lon="143.0584463"></trkpt>
      <trkpt lat="-38.3217131" lon="143.0584319"></trkpt>
      <trkpt lat="-38.3217382" lon="143.0584206"></trkpt>
      <trkpt lat="-38.3217519" lon="143.0584169"></trkpt>
      <trkpt lat="-38.3217653" lon="143.0584154"></trkpt>
      <trkpt lat="-38.3218011" lon="143.0584168"></trkpt>
      <trkpt lat="-38.3218376" lon="143.0584256"></trkpt>
      <trkpt lat="-38.3218718" lon="143.0584412"></trkpt>
      <trkpt lat="-38.3218886" lon="143.0584521"></trkpt>
      <trkpt lat="-38.3219057" lon="143.0584662"></trkpt>
      <trkpt lat="-38.3219565" lon="143.0585242"></trkpt>
      <trkpt lat="-38.3220187" lon="143.0586138"></trkpt>
      <trkpt lat="-38.3223588" lon="143.0591632"></trkpt>
      <trkpt lat="-38.3228373" lon="143.0599156"></trkpt>
      <trkpt lat="-38.3228734" lon="143.0599541"></trkpt>
      <trkpt lat="-38.3229096" lon="143.0599834"></trkpt>
      <trkpt lat="-38.3229468" lon="143.0600051"></trkpt>
      <trkpt lat="-38.3229841" lon="143.0600191"></trkpt>
      <trkpt lat="-38.3229979" lon="143.0600222"></trkpt>
      <trkpt lat="-38.3230124" lon="143.0600233"></trkpt>
      <trkpt lat="-38.3230375" lon="143.0600212"></trkpt>
      <trkpt lat="-38.3230639" lon="143.0600152"></trkpt>
      <trkpt lat="-38.3230876" lon="143.0600057"></trkpt>
      <trkpt lat="-38.3231100" lon="143.0599927"></trkpt>
      <trkpt lat="-38.3231312" lon="143.0599752"></trkpt>
      <trkpt lat="-38.3231493" lon="143.0599568"></trkpt>
      <trkpt lat="-38.3231657" lon="143.0599352"></trkpt>
      <trkpt lat="-38.3231863" lon="143.0598976"></trkpt>
      <trkpt lat="-38.3231944" lon="143.0598789"></trkpt>
      <trkpt lat="-38.3232021" lon="143.0598549"></trkpt>
      <trkpt lat="-38.3232231" lon="143.0597326"></trkpt>
      <trkpt lat="-38.3232443" lon="143.0596088"></trkpt>
      <trkpt lat="-38.3232522" lon="143.0595824"></trkpt>
      <trkpt lat="-38.3232616" lon="143.0595606"></trkpt>
      <trkpt lat="-38.3232794" lon="143.0595271"></trkpt>
      <trkpt lat="-38.3233020" lon="143.0594951"></trkpt>
      <trkpt lat="-38.3233216" lon="143.0594751"></trkpt>
      <trkpt lat="-38.3233435" lon="143.0594573"></trkpt>
      <trkpt lat="-38.3233656" lon="143.0594442"></trkpt>
      <trkpt lat="-38.3233849" lon="143.0594374"></trkpt>
      <trkpt lat="-38.3234045" lon="143.0594342"></trkpt>
      <trkpt lat="-38.3234233" lon="143.0594340"></trkpt>
      <trkpt lat="-38.3234397" lon="143.0594363"></trkpt>
      <trkpt lat="-38.3234555" lon="143.0594412"></trkpt>
      <trkpt lat="-38.3234710" lon="143.0594488"></trkpt>
      <trkpt lat="-38.3234983" lon="143.0594707"></trkpt>
      <trkpt lat="-38.3235212" lon="143.0594950"></trkpt>
      <trkpt lat="-38.3235295" lon="143.0595058"></trkpt>
      <trkpt lat="-38.3235363" lon="143.0595170"></trkpt>
      <trkpt lat="-38.3235551" lon="143.0595549"></trkpt>
      <trkpt lat="-38.3235688" lon="143.0595975"></trkpt>
      <trkpt lat="-38.3235783" lon="143.0596478"></trkpt>
      <trkpt lat="-38.3235816" lon="143.0597157"></trkpt>
      <trkpt lat="-38.3235510" lon="143.0602110"></trkpt>
      <trkpt lat="-38.3234950" lon="143.0607006"></trkpt>
      <trkpt lat="-38.3234799" lon="143.0607615"></trkpt>
      <trkpt lat="-38.3234617" lon="143.0608064"></trkpt>
      <trkpt lat="-38.3234380" lon="143.0608519"></trkpt>
      <trkpt lat="-38.3234240" lon="143.0608728"></trkpt>
      <trkpt lat="-38.3234088" lon="143.0608920"></trkpt>
      <trkpt lat="-38.3233927" lon="143.0609085"></trkpt>
      <trkpt lat="-38.3233755" lon="143.0609231"></trkpt>
      <trkpt lat="-38.3233381" lon="143.0609473"></trkpt>
      <trkpt lat="-38.3232990" lon="143.0609632"></trkpt>
      <trkpt lat="-38.3232567" lon="143.0609718"></trkpt>
      <trkpt lat="-38.3232030" lon="143.0609719"></trkpt>
      <trkpt lat="-38.3231541" lon="143.0609628"></trkpt>
      <trkpt lat="-38.3231074" lon="143.0609490"></trkpt>
      <trkpt lat="-38.3230869" lon="143.0609394"></trkpt>
      <trkpt lat="-38.3230693" lon="143.0609283"></trkpt>
      <trkpt lat="-38.3230522" lon="143.0609160"></trkpt>
      <trkpt lat="-38.3230352" lon="143.0609008"></trkpt>
      <trkpt lat="-38.3230098" lon="143.0608720"></trkpt>
      <trkpt lat="-38.3229878" lon="143.0608417"></trkpt>
      <trkpt lat="-38.3229797" lon="143.0608264"></trkpt>
      <trkpt lat="-38.3229736" lon="143.0608111"></trkpt>
      <trkpt lat="-38.3229671" lon="143.0607908"></trkpt>
      <trkpt lat="-38.3229617" lon="143.0607690"></trkpt>
      <trkpt lat="-38.3229544" lon="143.0607192"></trkpt>
      <trkpt lat="-38.3229548" lon="143.0606186"></trkpt>
      <trkpt lat="-38.3229546" lon="143.0605184"></trkpt>
      <trkpt lat="-38.3229512" lon="143.0604927"></trkpt>
      <trkpt lat="-38.3229454" lon="143.0604704"></trkpt>
      <trkpt lat="-38.3229314" lon="143.0604321"></trkpt>
      <trkpt lat="-38.3229128" lon="143.0603965"></trkpt>
      <trkpt lat="-38.3229012" lon="143.0603820"></trkpt>
      <trkpt lat="-38.3228886" lon="143.0603701"></trkpt>
      <trkpt lat="-38.3228752" lon="143.0603603"></trkpt>
      <trkpt lat="-38.3228531" lon="143.0603494"></trkpt>
      <trkpt lat="-38.3228306" lon="143.0603435"></trkpt>
      <trkpt lat="-38.3228123" lon="143.0603428"></trkpt>
      <trkpt lat="-38.3227942" lon="143.0603455"></trkpt>
      <trkpt lat="-38.3227734" lon="143.0603517"></trkpt>
      <trkpt lat="-38.3227530" lon="143.0603614"></trkpt>
      <trkpt lat="-38.3227341" lon="143.0603752"></trkpt>
      <trkpt lat="-38.3227177" lon="143.0603904"></trkpt>
      <trkpt lat="-38.3227092" lon="143.0603993"></trkpt>
      <trkpt lat="-38.3227006" lon="143.0604113"></trkpt>
      <trkpt lat="-38.3226580" lon="143.0604950"></trkpt>
      <trkpt lat="-38.3226126" lon="143.0605830"></trkpt>
      <trkpt lat="-38.3225978" lon="143.0606030"></trkpt>
      <trkpt lat="-38.3225839" lon="143.0606179"></trkpt>
      <trkpt lat="-38.3225697" lon="143.0606316"></trkpt>
      <trkpt lat="-38.3225530" lon="143.0606439"></trkpt>
      <trkpt lat="-38.3225171" lon="143.0606618"></trkpt>
      <trkpt lat="-38.3224796" lon="143.0606748"></trkpt>
      <trkpt lat="-38.3224595" lon="143.0606778"></trkpt>
      <trkpt lat="-38.3224408" lon="143.0606778"></trkpt>
      <trkpt lat="-38.3224009" lon="143.0606723"></trkpt>
      <trkpt lat="-38.3223574" lon="143.0606560"></trkpt>
      <trkpt lat="-38.3223065" lon="143.0606266"></trkpt>
      <trkpt lat="-38.3220963" lon="143.0604787"></trkpt>
      <trkpt lat="-38.3219006" lon="143.0603188"></trkpt>
      <trkpt lat="-38.3218817" lon="143.0602991"></trkpt>
      <trkpt lat="-38.3218671" lon="143.0602800"></trkpt>
      <trkpt lat="-38.3218476" lon="143.0602493"></trkpt>
      <trkpt lat="-38.3218309" lon="143.0602147"></trkpt>
      <trkpt lat="-38.3218229" lon="143.0601911"></trkpt>
      <trkpt lat="-38.3218168" lon="143.0601665"></trkpt>
      <trkpt lat="-38.3218134" lon="143.0601415"></trkpt>
      <trkpt lat="-38.3218131" lon="143.0601155"></trkpt>
      <trkpt lat="-38.3218155" lon="143.0600892"></trkpt>
      <trkpt lat="-38.3218201" lon="143.0600642"></trkpt>
      <trkpt lat="-38.3218264" lon="143.0600423"></trkpt>
      <trkpt lat="-38.3218347" lon="143.0600217"></trkpt>
      <trkpt lat="-38.3218446" lon="143.0600033"></trkpt>
      <trkpt lat="-38.3218557" lon="143.0599882"></trkpt>
      <trkpt lat="-38.3218684" lon="143.0599750"></trkpt>
      <trkpt lat="-38.3218820" lon="143.0599639"></trkpt>
      <trkpt lat="-38.3218964" lon="143.0599546"></trkpt>
      <trkpt lat="-38.3219116" lon="143.0599472"></trkpt>
      <trkpt lat="-38.3219279" lon="143.0599423"></trkpt>
      <trkpt lat="-38.3219602" lon="143.0599406"></trkpt>
      <trkpt lat="-38.3219899" lon="143.0599438"></trkpt>
      <trkpt lat="-38.3220016" lon="143.0599466"></trkpt>
      <trkpt lat="-38.3220121" lon="143.0599508"></trkpt>
      <trkpt lat="-38.3220431" lon="143.0599685"></trkpt>
      <trkpt lat="-38.3220740" lon="143.0599936"></trkpt>
      <trkpt lat="-38.3221745" lon="143.0600994"></trkpt>
      <trkpt lat="-38.3221929" lon="143.0601130"></trkpt>
      <trkpt lat="-38.3222097" lon="143.0601225"></trkpt>
      <trkpt lat="-38.3222270" lon="143.0601307"></trkpt>
      <trkpt lat="-38.3222452" lon="143.0601368"></trkpt>
      <trkpt lat="-38.3222703" lon="143.0601410"></trkpt>
      <trkpt lat="-38.3222942" lon="143.0601424"></trkpt>
      <trkpt lat="-38.3223173" lon="143.0601401"></trkpt>
      <trkpt lat="-38.3223436" lon="143.0601321"></trkpt>
      <trkpt lat="-38.3223671" lon="143.0601191"></trkpt>
      <trkpt lat="-38.3223780" lon="143.0601114"></trkpt>
      <trkpt lat="-38.3223891" lon="143.0601012"></trkpt>
      <trkpt lat="-38.3224097" lon="143.0600754"></trkpt>
      <trkpt lat="-38.3224283" lon="143.0600450"></trkpt>
      <trkpt lat="-38.3224373" lon="143.0600221"></trkpt>
      <trkpt lat="-38.3224434" lon="143.0599983"></trkpt>
      <trkpt lat="-38.3224484" lon="143.0599688"></trkpt>
      <trkpt lat="-38.3224509" lon="143.0599393"></trkpt>
      <trkpt lat="-38.3224509" lon="143.0599168"></trkpt>
      <trkpt lat="-38.3224491" lon="143.0598950"></trkpt>
      <trkpt lat="-38.3224458" lon="143.0598725"></trkpt>
      <trkpt lat="-38.3224408" lon="143.0598499"></trkpt>
      <trkpt lat="-38.3224237" lon="143.0597988"></trkpt>
    </trkseg>
  </trk>
</gpx>
