<?xml version="1.0" encoding="UTF-8"?>
<gpx version="1.1" creator="tkk2gpx (Aus_Kart.ztracks converter)"
     xmlns="http://www.topografix.com/GPX/1/1"
     xmlns:xsi="http://www.w3.org/2001/XMLSchema-instance"
     xsi:schemaLocation="http://www.topografix.com/GPX/1/1 http://www.topografix.com/GPX/1/1/gpx.xsd">
  <metadata>
    <name>DubboK</name>
    <desc>Kart track, NSW AU. One lap starting and ending at the Start/Finish line. Declared length 1004 m.</desc>
  </metadata>
  <wpt lat="-32.1690182" lon="148.6158997">
    <name>Start/Finish</name>
    <desc>Start/Finish line location</desc>
    <sym>Flag, Checkered</sym>
  </wpt>
  <trk>
    <name>DubboK - 1 lap</name>
    <trkseg>
      <trkpt lat="-32.1689886" lon="148.6159896"></trkpt>
      <trkpt lat="-32.1686495" lon="148.6156977"></trkpt>
      <trkpt lat="-32.1686321" lon="148.6156864"></trkpt>
      <trkpt lat="-32.1686175" lon="148.6156797"></trkpt>
      <trkpt lat="-32.1685942" lon="148.6156721"></trkpt>
      <trkpt lat="-32.1685700" lon="148.6156676"></trkpt>
      <trkpt lat="-32.1685503" lon="148.6156667"></trkpt>
      <trkpt lat="-32.1685305" lon="148.6156695"></trkpt>
      <trkpt lat="-32.1685133" lon="148.6156750"></trkpt>
      <trkpt lat="-32.1684956" lon="148.6156832"></trkpt>
      <trkpt lat="-32.1684797" lon="148.6156938"></trkpt>
      <trkpt lat="-32.1684664" lon="148.6157071"></trkpt>
      <trkpt lat="-32.1684547" lon="148.6157228"></trkpt>
      <trkpt lat="-32.1684454" lon="148.6157385"></trkpt>
      <trkpt lat="-32.1684401" lon="148.6157506"></trkpt>
      <trkpt lat="-32.1684363" lon="148.6157627"></trkpt>
      <trkpt lat="-32.1684337" lon="148.6157751"></trkpt>
      <trkpt lat="-32.1684320" lon="148.6157876"></trkpt>
      <trkpt lat="-32.1684315" lon="148.6158003"></trkpt>
      <trkpt lat="-32.1684325" lon="148.6158136"></trkpt>
      <trkpt lat="-32.1684363" lon="148.6158321"></trkpt>
      <trkpt lat="-32.1684423" lon="148.6158515"></trkpt>
      <trkpt lat="-32.1684497" lon="148.6158689"></trkpt>
      <trkpt lat="-32.1684605" lon="148.6158862"></trkpt>
      <trkpt lat="-32.1684739" lon="148.6159014"></trkpt>
      <trkpt lat="-32.1685182" lon="148.6159359"></trkpt>
      <trkpt lat="-32.1685782" lon="148.6159755"></trkpt>
      <trkpt lat="-32.1689527" lon="148.6162496"></trkpt>
      <trkpt lat="-32.1689752" lon="148.6162724"></trkpt>
      <trkpt lat="-32.1689909" lon="148.6162943"></trkpt>
      <trkpt lat="-32.1690118" lon="148.6163318"></trkpt>
      <trkpt lat="-32.1690280" lon="148.6163741"></trkpt>
      <trkpt lat="-32.1690342" lon="148.6164035"></trkpt>
      <trkpt lat="-32.1690374" lon="148.6164339"></trkpt>
      <trkpt lat="-32.1690373" lon="148.6164625"></trkpt>
      <trkpt lat="-32.1690345" lon="148.6164850"></trkpt>
      <trkpt lat="-32.1690293" lon="148.6165062"></trkpt>
      <trkpt lat="-32.1690218" lon="148.6165257"></trkpt>
      <trkpt lat="-32.1690124" lon="148.6165430"></trkpt>
      <trkpt lat="-32.1690010" lon="148.6165586"></trkpt>
      <trkpt lat="-32.1689880" lon="148.6165719"></trkpt>
      <trkpt lat="-32.1689732" lon="148.6165826"></trkpt>
      <trkpt lat="-32.1689568" lon="148.6165908"></trkpt>
      <trkpt lat="-32.1689397" lon="148.6165965"></trkpt>
      <trkpt lat="-32.1689109" lon="148.6165998"></trkpt>
      <trkpt lat="-32.1688833" lon="148.6165983"></trkpt>
      <trkpt lat="-32.1688670" lon="148.6165953"></trkpt>
      <trkpt lat="-32.1688516" lon="148.6165902"></trkpt>
      <trkpt lat="-32.1688340" lon="148.6165827"></trkpt>
      <trkpt lat="-32.1688109" lon="148.6165689"></trkpt>
      <trkpt lat="-32.1686095" lon="148.6163942"></trkpt>
      <trkpt lat="-32.1683157" lon="148.6161198"></trkpt>
      <trkpt lat="-32.1679727" lon="148.6158269"></trkpt>
      <trkpt lat="-32.1678881" lon="148.6157596"></trkpt>
      <trkpt lat="-32.1678568" lon="148.6157291"></trkpt>
      <trkpt lat="-32.1678079" lon="148.6156817"></trkpt>
      <trkpt lat="-32.1677925" lon="148.6156548"></trkpt>
      <trkpt lat="-32.1677854" lon="148.6156398"></trkpt>
      <trkpt lat="-32.1677792" lon="148.6156223"></trkpt>
      <trkpt lat="-32.1677711" lon="148.6155850"></trkpt>
      <trkpt lat="-32.1677676" lon="148.6155445"></trkpt>
      <trkpt lat="-32.1677693" lon="148.6155233"></trkpt>
      <trkpt lat="-32.1677734" lon="148.6155029"></trkpt>
      <trkpt lat="-32.1677796" lon="148.6154839"></trkpt>
      <trkpt lat="-32.1677881" lon="148.6154663"></trkpt>
      <trkpt lat="-32.1677986" lon="148.6154499"></trkpt>
      <trkpt lat="-32.1678108" lon="148.6154355"></trkpt>
      <trkpt lat="-32.1678249" lon="148.6154228"></trkpt>
      <trkpt lat="-32.1678407" lon="148.6154122"></trkpt>
      <trkpt lat="-32.1678573" lon="148.6154039"></trkpt>
      <trkpt lat="-32.1678857" lon="148.6153964"></trkpt>
      <trkpt lat="-32.1679115" lon="148.6153940"></trkpt>
      <trkpt lat="-32.1679214" lon="148.6153945"></trkpt>
      <trkpt lat="-32.1679309" lon="148.6153972"></trkpt>
      <trkpt lat="-32.1679514" lon="148.6154080"></trkpt>
      <trkpt lat="-32.1679751" lon="148.6154230"></trkpt>
      <trkpt lat="-32.1680465" lon="148.6154687"></trkpt>
      <trkpt lat="-32.1680607" lon="148.6154749"></trkpt>
      <trkpt lat="-32.1680746" lon="148.6154787"></trkpt>
      <trkpt lat="-32.1680995" lon="148.6154822"></trkpt>
      <trkpt lat="-32.1681272" lon="148.6154822"></trkpt>
      <trkpt lat="-32.1681604" lon="148.6154765"></trkpt>
      <trkpt lat="-32.1681913" lon="148.6154661"></trkpt>
      <trkpt lat="-32.1682089" lon="148.6154557"></trkpt>
      <trkpt lat="-32.1682238" lon="148.6154429"></trkpt>
      <trkpt lat="-32.1682376" lon="148.6154277"></trkpt>
      <trkpt lat="-32.1682495" lon="148.6154103"></trkpt>
      <trkpt lat="-32.1682597" lon="148.6153894"></trkpt>
      <trkpt lat="-32.1682673" lon="148.6153690"></trkpt>
      <trkpt lat="-32.1682727" lon="148.6153466"></trkpt>
      <trkpt lat="-32.1682765" lon="148.6153126"></trkpt>
      <trkpt lat="-32.1682767" lon="148.6152947"></trkpt>
      <trkpt lat="-32.1682749" lon="148.6152720"></trkpt>
      <trkpt lat="-32.1682483" lon="148.6151400"></trkpt>
      <trkpt lat="-32.1682214" lon="148.6150076"></trkpt>
      <trkpt lat="-32.1682190" lon="148.6149854"></trkpt>
      <trkpt lat="-32.1682192" lon="148.6149660"></trkpt>
      <trkpt lat="-32.1682236" lon="148.6149267"></trkpt>
      <trkpt lat="-32.1682332" lon="148.6148873"></trkpt>
      <trkpt lat="-32.1682420" lon="148.6148682"></trkpt>
      <trkpt lat="-32.1682526" lon="148.6148511"></trkpt>
      <trkpt lat="-32.1682638" lon="148.6148370"></trkpt>
      <trkpt lat="-32.1682726" lon="148.6148287"></trkpt>
      <trkpt lat="-32.1682816" lon="148.6148222"></trkpt>
      <trkpt lat="-32.1682911" lon="148.6148171"></trkpt>
      <trkpt lat="-32.1683010" lon="148.6148130"></trkpt>
      <trkpt lat="-32.1683113" lon="148.6148101"></trkpt>
      <trkpt lat="-32.1683216" lon="148.6148088"></trkpt>
      <trkpt lat="-32.1683315" lon="148.6148092"></trkpt>
      <trkpt lat="-32.1683414" lon="148.6148110"></trkpt>
      <trkpt lat="-32.1683511" lon="148.6148142"></trkpt>
      <trkpt lat="-32.1683664" lon="148.6148220"></trkpt>
      <trkpt lat="-32.1683811" lon="148.6148332"></trkpt>
      <trkpt lat="-32.1683963" lon="148.6148492"></trkpt>
      <trkpt lat="-32.1684109" lon="148.6148699"></trkpt>
      <trkpt lat="-32.1684522" lon="148.6149575"></trkpt>
      <trkpt lat="-32.1685567" lon="148.6151919"></trkpt>
      <trkpt lat="-32.1685795" lon="148.6152400"></trkpt>
      <trkpt lat="-32.1686797" lon="148.6154276"></trkpt>
      <trkpt lat="-32.1687064" lon="148.6154635"></trkpt>
      <trkpt lat="-32.1687197" lon="148.6154779"></trkpt>
      <trkpt lat="-32.1687343" lon="148.6154910"></trkpt>
      <trkpt lat="-32.1687550" lon="148.6155059"></trkpt>
      <trkpt lat="-32.1687776" lon="148.6155184"></trkpt>
      <trkpt lat="-32.1688001" lon="148.6155268"></trkpt>
      <trkpt lat="-32.1688230" lon="148.6155318"></trkpt>
      <trkpt lat="-32.1688457" lon="148.6155332"></trkpt>
      <trkpt lat="-32.1688671" lon="148.6155311"></trkpt>
      <trkpt lat="-32.1688828" lon="148.6155258"></trkpt>
      <trkpt lat="-32.1688961" lon="148.6155189"></trkpt>
      <trkpt lat="-32.1689034" lon="148.6155142"></trkpt>
      <trkpt lat="-32.1689101" lon="148.6155083"></trkpt>
      <trkpt lat="-32.1689325" lon="148.6154807"></trkpt>
      <trkpt lat="-32.1689552" lon="148.6154457"></trkpt>
      <trkpt lat="-32.1689746" lon="148.6154236"></trkpt>
      <trkpt lat="-32.1689962" lon="148.6154049"></trkpt>
      <trkpt lat="-32.1690079" lon="148.6153981"></trkpt>
      <trkpt lat="-32.1690198" lon="148.6153935"></trkpt>
      <trkpt lat="-32.1690328" lon="148.6153905"></trkpt>
      <trkpt lat="-32.1690636" lon="148.6153902"></trkpt>
      <trkpt lat="-32.1690935" lon="148.6153945"></trkpt>
      <trkpt lat="-32.1691082" lon="148.6153986"></trkpt>
      <trkpt lat="-32.1691225" lon="148.6154049"></trkpt>
      <trkpt lat="-32.1691822" lon="148.6154411"></trkpt>
      <trkpt lat="-32.1692382" lon="148.6154898"></trkpt>
      <trkpt lat="-32.1693847" lon="148.6156302"></trkpt>
      <trkpt lat="-32.1695801" lon="148.6158235"></trkpt>
      <trkpt lat="-32.1696192" lon="148.6158743"></trkpt>
      <trkpt lat="-32.1696506" lon="148.6159265"></trkpt>
      <trkpt lat="-32.1697260" lon="148.6160848"></trkpt>
      <trkpt lat="-32.1697585" lon="148.6161302"></trkpt>
      <trkpt lat="-32.1697942" lon="148.6161686"></trkpt>
      <trkpt lat="-32.1698317" lon="148.6161999"></trkpt>
      <trkpt lat="-32.1698778" lon="148.6162310"></trkpt>
      <trkpt lat="-32.1700073" lon="148.6163014"></trkpt>
      <trkpt lat="-32.1701352" lon="148.6163758"></trkpt>
      <trkpt lat="-32.1701812" lon="148.6164161"></trkpt>
      <trkpt lat="-32.1702150" lon="148.6164571"></trkpt>
      <trkpt lat="-32.1702390" lon="148.6164977"></trkpt>
      <trkpt lat="-32.1702559" lon="148.6165402"></trkpt>
      <trkpt lat="-32.1702618" lon="148.6165610"></trkpt>
      <trkpt lat="-32.1702660" lon="148.6165835"></trkpt>
      <trkpt lat="-32.1702688" lon="148.6166201"></trkpt>
      <trkpt lat="-32.1702688" lon="148.6166549"></trkpt>
      <trkpt lat="-32.1702651" lon="148.6166823"></trkpt>
      <trkpt lat="-32.1702572" lon="148.6167126"></trkpt>
      <trkpt lat="-32.1702152" lon="148.6168055"></trkpt>
      <trkpt lat="-32.1701775" lon="148.6168727"></trkpt>
      <trkpt lat="-32.1701378" lon="148.6169322"></trkpt>
      <trkpt lat="-32.1701158" lon="148.6169563"></trkpt>
      <trkpt lat="-32.1700945" lon="148.6169733"></trkpt>
      <trkpt lat="-32.1700829" lon="148.6169804"></trkpt>
      <trkpt lat="-32.1700713" lon="148.6169857"></trkpt>
      <trkpt lat="-32.1700588" lon="148.6169890"></trkpt>
      <trkpt lat="-32.1700416" lon="148.6169907"></trkpt>
      <trkpt lat="-32.1700230" lon="148.6169896"></trkpt>
      <trkpt lat="-32.1700056" lon="148.6169851"></trkpt>
      <trkpt lat="-32.1699940" lon="148.6169792"></trkpt>
      <trkpt lat="-32.1699827" lon="148.6169712"></trkpt>
      <trkpt lat="-32.1699726" lon="148.6169619"></trkpt>
      <trkpt lat="-32.1699643" lon="148.6169518"></trkpt>
      <trkpt lat="-32.1699573" lon="148.6169394"></trkpt>
      <trkpt lat="-32.1699525" lon="148.6169257"></trkpt>
      <trkpt lat="-32.1699488" lon="148.6169091"></trkpt>
      <trkpt lat="-32.1699461" lon="148.6168464"></trkpt>
      <trkpt lat="-32.1699443" lon="148.6167838"></trkpt>
      <trkpt lat="-32.1699394" lon="148.6167615"></trkpt>
      <trkpt lat="-32.1699329" lon="148.6167427"></trkpt>
      <trkpt lat="-32.1699160" lon="148.6167053"></trkpt>
      <trkpt lat="-32.1698943" lon="148.6166690"></trkpt>
      <trkpt lat="-32.1698634" lon="148.6166315"></trkpt>
      <trkpt lat="-32.1697661" lon="148.6165536"></trkpt>
      <trkpt lat="-32.1696577" lon="148.6164622"></trkpt>
      <trkpt lat="-32.1695680" lon="148.6163396"></trkpt>
      <trkpt lat="-32.1694653" lon="148.6161899"></trkpt>
      <trkpt lat="-32.1694367" lon="148.6161597"></trkpt>
      <trkpt lat="-32.1693959" lon="148.6161280"></trkpt>
      <trkpt lat="-32.1693747" lon="148.6161144"></trkpt>
      <trkpt lat="-32.1693505" lon="148.6161024"></trkpt>
      <trkpt lat="-32.1692551" lon="148.6160773"></trkpt>
      <trkpt lat="-32.1690985" lon="148.6160450"></trkpt>
      <trkpt lat="-32.1690449" lon="148.6160231"></trkpt>
      <trkpt lat="-32.1689886" lon="148.6159896"></trkpt>
    </trkseg>
  </trk>
</gpx>
