<?xml version="1.0" encoding="UTF-8"?>
<gpx version="1.1" creator="tkk2gpx (Aus_Kart.ztracks converter)"
     xmlns="http://www.topografix.com/GPX/1/1"
     xmlns:xsi="http://www.w3.org/2001/XMLSchema-instance"
     xsi:schemaLocation="http://www.topografix.com/GPX/1/1 http://www.topografix.com/GPX/1/1/gpx.xsd">
  <metadata>
    <name>Emerald ACW</name>
    <desc>Kart track, QLD AU. One lap starting and ending at the Start/Finish line. Declared length 970 m.</desc>
  </metadata>
  <wpt lat="-23.5405321" lon="148.2100256">
    <name>Start/Finish</name>
    <desc>Start/Finish line location</desc>
    <sym>Flag, Checkered</sym>
  </wpt>
  <trk>
    <name>Emerald ACW - 1 lap</name>
    <trkseg>
      <trkpt lat="-23.5404957" lon="148.2097809"></trkpt>
      <trkpt lat="-23.5404749" lon="148.2097839"></trkpt>
      <trkpt lat="-23.5404546" lon="148.2097837"></trkpt>
      <trkpt lat="-23.5404355" lon="148.2097803"></trkpt>
      <trkpt lat="-23.5404170" lon="148.2097740"></trkpt>
      <trkpt lat="-23.5403998" lon="148.2097651"></trkpt>
      <trkpt lat="-23.5403841" lon="148.2097535"></trkpt>
      <trkpt lat="-23.5403699" lon="148.2097393"></trkpt>
      <trkpt lat="-23.5403573" lon="148.2097228"></trkpt>
      <trkpt lat="-23.5403445" lon="148.2097011"></trkpt>
      <trkpt lat="-23.5403338" lon="148.2096763"></trkpt>
      <trkpt lat="-23.5403253" lon="148.2096479"></trkpt>
      <trkpt lat="-23.5403177" lon="148.2095685"></trkpt>
      <trkpt lat="-23.5403134" lon="148.2094881"></trkpt>
      <trkpt lat="-23.5403073" lon="148.2094455"></trkpt>
      <trkpt lat="-23.5402975" lon="148.2094082"></trkpt>
      <trkpt lat="-23.5402875" lon="148.2093856"></trkpt>
      <trkpt lat="-23.5402752" lon="148.2093644"></trkpt>
      <trkpt lat="-23.5402610" lon="148.2093453"></trkpt>
      <trkpt lat="-23.5402458" lon="148.2093293"></trkpt>
      <trkpt lat="-23.5402289" lon="148.2093153"></trkpt>
      <trkpt lat="-23.5402107" lon="148.2093039"></trkpt>
      <trkpt lat="-23.5401910" lon="148.2092953"></trkpt>
      <trkpt lat="-23.5401699" lon="148.2092893"></trkpt>
      <trkpt lat="-23.5401487" lon="148.2092864"></trkpt>
      <trkpt lat="-23.5401273" lon="148.2092867"></trkpt>
      <trkpt lat="-23.5401056" lon="148.2092900"></trkpt>
      <trkpt lat="-23.5400849" lon="148.2092965"></trkpt>
      <trkpt lat="-23.5400643" lon="148.2093070"></trkpt>
      <trkpt lat="-23.5400446" lon="148.2093211"></trkpt>
      <trkpt lat="-23.5400268" lon="148.2093376"></trkpt>
      <trkpt lat="-23.5400098" lon="148.2093582"></trkpt>
      <trkpt lat="-23.5399949" lon="148.2093818"></trkpt>
      <trkpt lat="-23.5399824" lon="148.2094072"></trkpt>
      <trkpt lat="-23.5399677" lon="148.2094524"></trkpt>
      <trkpt lat="-23.5399593" lon="148.2095017"></trkpt>
      <trkpt lat="-23.5399574" lon="148.2095563"></trkpt>
      <trkpt lat="-23.5399628" lon="148.2096213"></trkpt>
      <trkpt lat="-23.5400438" lon="148.2100234"></trkpt>
      <trkpt lat="-23.5401188" lon="148.2103460"></trkpt>
      <trkpt lat="-23.5401211" lon="148.2103566"></trkpt>
      <trkpt lat="-23.5402093" lon="148.2107548"></trkpt>
      <trkpt lat="-23.5402866" lon="148.2110519"></trkpt>
      <trkpt lat="-23.5403148" lon="148.2111344"></trkpt>
      <trkpt lat="-23.5403448" lon="148.2112001"></trkpt>
      <trkpt lat="-23.5403824" lon="148.2112655"></trkpt>
      <trkpt lat="-23.5404250" lon="148.2113246"></trkpt>
      <trkpt lat="-23.5404662" lon="148.2113700"></trkpt>
      <trkpt lat="-23.5405111" lon="148.2114091"></trkpt>
      <trkpt lat="-23.5405601" lon="148.2114422"></trkpt>
      <trkpt lat="-23.5406114" lon="148.2114684"></trkpt>
      <trkpt lat="-23.5406584" lon="148.2114855"></trkpt>
      <trkpt lat="-23.5407062" lon="148.2114956"></trkpt>
      <trkpt lat="-23.5407565" lon="148.2114980"></trkpt>
      <trkpt lat="-23.5408058" lon="148.2114930"></trkpt>
      <trkpt lat="-23.5408477" lon="148.2114816"></trkpt>
      <trkpt lat="-23.5408866" lon="148.2114639"></trkpt>
      <trkpt lat="-23.5409236" lon="148.2114388"></trkpt>
      <trkpt lat="-23.5409569" lon="148.2114081"></trkpt>
      <trkpt lat="-23.5409857" lon="148.2113727"></trkpt>
      <trkpt lat="-23.5410102" lon="148.2113322"></trkpt>
      <trkpt lat="-23.5410335" lon="148.2112783"></trkpt>
      <trkpt lat="-23.5410513" lon="148.2112195"></trkpt>
      <trkpt lat="-23.5410637" lon="148.2111550"></trkpt>
      <trkpt lat="-23.5410693" lon="148.2110896"></trkpt>
      <trkpt lat="-23.5410675" lon="148.2110300"></trkpt>
      <trkpt lat="-23.5410591" lon="148.2109715"></trkpt>
      <trkpt lat="-23.5410445" lon="148.2109163"></trkpt>
      <trkpt lat="-23.5410218" lon="148.2108565"></trkpt>
      <trkpt lat="-23.5409538" lon="148.2107247"></trkpt>
      <trkpt lat="-23.5408909" lon="148.2105979"></trkpt>
      <trkpt lat="-23.5408783" lon="148.2105540"></trkpt>
      <trkpt lat="-23.5408743" lon="148.2105155"></trkpt>
      <trkpt lat="-23.5408754" lon="148.2104893"></trkpt>
      <trkpt lat="-23.5408796" lon="148.2104634"></trkpt>
      <trkpt lat="-23.5408870" lon="148.2104396"></trkpt>
      <trkpt lat="-23.5408963" lon="148.2104205"></trkpt>
      <trkpt lat="-23.5409082" lon="148.2104031"></trkpt>
      <trkpt lat="-23.5409230" lon="148.2103872"></trkpt>
      <trkpt lat="-23.5409573" lon="148.2103637"></trkpt>
      <trkpt lat="-23.5409985" lon="148.2103431"></trkpt>
      <trkpt lat="-23.5410584" lon="148.2103204"></trkpt>
      <trkpt lat="-23.5411155" lon="148.2102955"></trkpt>
      <trkpt lat="-23.5411374" lon="148.2102790"></trkpt>
      <trkpt lat="-23.5411557" lon="148.2102609"></trkpt>
      <trkpt lat="-23.5411714" lon="148.2102411"></trkpt>
      <trkpt lat="-23.5411847" lon="148.2102199"></trkpt>
      <trkpt lat="-23.5411954" lon="148.2101972"></trkpt>
      <trkpt lat="-23.5412033" lon="148.2101735"></trkpt>
      <trkpt lat="-23.5412083" lon="148.2101487"></trkpt>
      <trkpt lat="-23.5412104" lon="148.2101229"></trkpt>
      <trkpt lat="-23.5412097" lon="148.2100959"></trkpt>
      <trkpt lat="-23.5412024" lon="148.2100491"></trkpt>
      <trkpt lat="-23.5411853" lon="148.2099911"></trkpt>
      <trkpt lat="-23.5409627" lon="148.2094568"></trkpt>
      <trkpt lat="-23.5408633" lon="148.2091030"></trkpt>
      <trkpt lat="-23.5408171" lon="148.2088254"></trkpt>
      <trkpt lat="-23.5407984" lon="148.2087669"></trkpt>
      <trkpt lat="-23.5407754" lon="148.2087177"></trkpt>
      <trkpt lat="-23.5407466" lon="148.2086731"></trkpt>
      <trkpt lat="-23.5407136" lon="148.2086343"></trkpt>
      <trkpt lat="-23.5406824" lon="148.2086063"></trkpt>
      <trkpt lat="-23.5406481" lon="148.2085842"></trkpt>
      <trkpt lat="-23.5406090" lon="148.2085679"></trkpt>
      <trkpt lat="-23.5405663" lon="148.2085576"></trkpt>
      <trkpt lat="-23.5405163" lon="148.2085531"></trkpt>
      <trkpt lat="-23.5404584" lon="148.2085555"></trkpt>
      <trkpt lat="-23.5401968" lon="148.2086045"></trkpt>
      <trkpt lat="-23.5399824" lon="148.2086637"></trkpt>
      <trkpt lat="-23.5399424" lon="148.2086840"></trkpt>
      <trkpt lat="-23.5399114" lon="148.2087072"></trkpt>
      <trkpt lat="-23.5398948" lon="148.2087241"></trkpt>
      <trkpt lat="-23.5398805" lon="148.2087426"></trkpt>
      <trkpt lat="-23.5398692" lon="148.2087620"></trkpt>
      <trkpt lat="-23.5398613" lon="148.2087808"></trkpt>
      <trkpt lat="-23.5398560" lon="148.2088003"></trkpt>
      <trkpt lat="-23.5398537" lon="148.2088198"></trkpt>
      <trkpt lat="-23.5398545" lon="148.2088391"></trkpt>
      <trkpt lat="-23.5398583" lon="148.2088584"></trkpt>
      <trkpt lat="-23.5398647" lon="148.2088769"></trkpt>
      <trkpt lat="-23.5398745" lon="148.2088955"></trkpt>
      <trkpt lat="-23.5398873" lon="148.2089132"></trkpt>
      <trkpt lat="-23.5399021" lon="148.2089287"></trkpt>
      <trkpt lat="-23.5399194" lon="148.2089418"></trkpt>
      <trkpt lat="-23.5399388" lon="148.2089527"></trkpt>
      <trkpt lat="-23.5399595" lon="148.2089611"></trkpt>
      <trkpt lat="-23.5399950" lon="148.2089691"></trkpt>
      <trkpt lat="-23.5400335" lon="148.2089707"></trkpt>
      <trkpt lat="-23.5401349" lon="148.2089489"></trkpt>
      <trkpt lat="-23.5402714" lon="148.2089207"></trkpt>
      <trkpt lat="-23.5403241" lon="148.2089231"></trkpt>
      <trkpt lat="-23.5403734" lon="148.2089339"></trkpt>
      <trkpt lat="-23.5404188" lon="148.2089524"></trkpt>
      <trkpt lat="-23.5404607" lon="148.2089786"></trkpt>
      <trkpt lat="-23.5405005" lon="148.2090147"></trkpt>
      <trkpt lat="-23.5405357" lon="148.2090588"></trkpt>
      <trkpt lat="-23.5405688" lon="148.2091170"></trkpt>
      <trkpt lat="-23.5405972" lon="148.2091861"></trkpt>
      <trkpt lat="-23.5406346" lon="148.2093100"></trkpt>
      <trkpt lat="-23.5406598" lon="148.2094345"></trkpt>
      <trkpt lat="-23.5406643" lon="148.2095000"></trkpt>
      <trkpt lat="-23.5406598" lon="148.2095583"></trkpt>
      <trkpt lat="-23.5406478" lon="148.2096092"></trkpt>
      <trkpt lat="-23.5406287" lon="148.2096563"></trkpt>
      <trkpt lat="-23.5406025" lon="148.2096997"></trkpt>
      <trkpt lat="-23.5405716" lon="148.2097366"></trkpt>
      <trkpt lat="-23.5405538" lon="148.2097524"></trkpt>
      <trkpt lat="-23.5405352" lon="148.2097653"></trkpt>
      <trkpt lat="-23.5405157" lon="148.2097749"></trkpt>
      <trkpt lat="-23.5404957" lon="148.2097809"></trkpt>
    </trkseg>
  </trk>
</gpx>
