<?xml version="1.0" encoding="UTF-8"?>
<gpx version="1.1" creator="tkk2gpx (Aus_Kart.ztracks converter)"
     xmlns="http://www.topografix.com/GPX/1/1"
     xmlns:xsi="http://www.w3.org/2001/XMLSchema-instance"
     xsi:schemaLocation="http://www.topografix.com/GPX/1/1 http://www.topografix.com/GPX/1/1/gpx.xsd">
  <metadata>
    <name>Emerald CW</name>
    <desc>Kart track, QLD AU. One lap starting and ending at the Start/Finish line. Declared length 969 m.</desc>
  </metadata>
  <wpt lat="-23.5404889" lon="148.2100290">
    <name>Start/Finish</name>
    <desc>Start/Finish line location</desc>
    <sym>Flag, Checkered</sym>
  </wpt>
  <trk>
    <name>Emerald CW - 1 lap</name>
    <trkseg>
      <trkpt lat="-23.5404308" lon="148.2097820"></trkpt>
      <trkpt lat="-23.5404434" lon="148.2097779"></trkpt>
      <trkpt lat="-23.5404547" lon="148.2097729"></trkpt>
      <trkpt lat="-23.5404659" lon="148.2097673"></trkpt>
      <trkpt lat="-23.5404776" lon="148.2097599"></trkpt>
      <trkpt lat="-23.5404992" lon="148.2097423"></trkpt>
      <trkpt lat="-23.5405208" lon="148.2097210"></trkpt>
      <trkpt lat="-23.5405367" lon="148.2097007"></trkpt>
      <trkpt lat="-23.5405505" lon="148.2096787"></trkpt>
      <trkpt lat="-23.5405634" lon="148.2096536"></trkpt>
      <trkpt lat="-23.5405742" lon="148.2096267"></trkpt>
      <trkpt lat="-23.5405891" lon="148.2095663"></trkpt>
      <trkpt lat="-23.5405957" lon="148.2095172"></trkpt>
      <trkpt lat="-23.5405962" lon="148.2094663"></trkpt>
      <trkpt lat="-23.5405832" lon="148.2093585"></trkpt>
      <trkpt lat="-23.5405470" lon="148.2091940"></trkpt>
      <trkpt lat="-23.5405323" lon="148.2091446"></trkpt>
      <trkpt lat="-23.5405067" lon="148.2090864"></trkpt>
      <trkpt lat="-23.5404911" lon="148.2090607"></trkpt>
      <trkpt lat="-23.5404734" lon="148.2090371"></trkpt>
      <trkpt lat="-23.5404537" lon="148.2090159"></trkpt>
      <trkpt lat="-23.5404318" lon="148.2089976"></trkpt>
      <trkpt lat="-23.5404069" lon="148.2089829"></trkpt>
      <trkpt lat="-23.5403802" lon="148.2089714"></trkpt>
      <trkpt lat="-23.5403510" lon="148.2089623"></trkpt>
      <trkpt lat="-23.5403218" lon="148.2089564"></trkpt>
      <trkpt lat="-23.5402741" lon="148.2089541"></trkpt>
      <trkpt lat="-23.5402241" lon="148.2089587"></trkpt>
      <trkpt lat="-23.5399672" lon="148.2089910"></trkpt>
      <trkpt lat="-23.5399513" lon="148.2089908"></trkpt>
      <trkpt lat="-23.5399377" lon="148.2089882"></trkpt>
      <trkpt lat="-23.5399014" lon="148.2089758"></trkpt>
      <trkpt lat="-23.5398674" lon="148.2089597"></trkpt>
      <trkpt lat="-23.5398570" lon="148.2089522"></trkpt>
      <trkpt lat="-23.5398482" lon="148.2089435"></trkpt>
      <trkpt lat="-23.5398330" lon="148.2089258"></trkpt>
      <trkpt lat="-23.5398191" lon="148.2089039"></trkpt>
      <trkpt lat="-23.5398112" lon="148.2088844"></trkpt>
      <trkpt lat="-23.5398051" lon="148.2088630"></trkpt>
      <trkpt lat="-23.5398016" lon="148.2088430"></trkpt>
      <trkpt lat="-23.5398008" lon="148.2088299"></trkpt>
      <trkpt lat="-23.5398016" lon="148.2088177"></trkpt>
      <trkpt lat="-23.5398041" lon="148.2088049"></trkpt>
      <trkpt lat="-23.5398100" lon="148.2087865"></trkpt>
      <trkpt lat="-23.5398186" lon="148.2087671"></trkpt>
      <trkpt lat="-23.5398298" lon="148.2087491"></trkpt>
      <trkpt lat="-23.5398556" lon="148.2087226"></trkpt>
      <trkpt lat="-23.5398849" lon="148.2087005"></trkpt>
      <trkpt lat="-23.5399052" lon="148.2086878"></trkpt>
      <trkpt lat="-23.5399317" lon="148.2086760"></trkpt>
      <trkpt lat="-23.5401259" lon="148.2086141"></trkpt>
      <trkpt lat="-23.5403436" lon="148.2085583"></trkpt>
      <trkpt lat="-23.5404213" lon="148.2085470"></trkpt>
      <trkpt lat="-23.5404769" lon="148.2085442"></trkpt>
      <trkpt lat="-23.5404897" lon="148.2085451"></trkpt>
      <trkpt lat="-23.5405016" lon="148.2085477"></trkpt>
      <trkpt lat="-23.5405758" lon="148.2085710"></trkpt>
      <trkpt lat="-23.5405987" lon="148.2085833"></trkpt>
      <trkpt lat="-23.5406403" lon="148.2086151"></trkpt>
      <trkpt lat="-23.5406781" lon="148.2086523"></trkpt>
      <trkpt lat="-23.5407084" lon="148.2086961"></trkpt>
      <trkpt lat="-23.5407335" lon="148.2087456"></trkpt>
      <trkpt lat="-23.5407727" lon="148.2088571"></trkpt>
      <trkpt lat="-23.5407857" lon="148.2089179"></trkpt>
      <trkpt lat="-23.5408027" lon="148.2090459"></trkpt>
      <trkpt lat="-23.5409128" lon="148.2094515"></trkpt>
      <trkpt lat="-23.5409625" lon="148.2095912"></trkpt>
      <trkpt lat="-23.5411378" lon="148.2099471"></trkpt>
      <trkpt lat="-23.5411593" lon="148.2100025"></trkpt>
      <trkpt lat="-23.5411720" lon="148.2100468"></trkpt>
      <trkpt lat="-23.5411761" lon="148.2100720"></trkpt>
      <trkpt lat="-23.5411771" lon="148.2100960"></trkpt>
      <trkpt lat="-23.5411748" lon="148.2101280"></trkpt>
      <trkpt lat="-23.5411699" lon="148.2101577"></trkpt>
      <trkpt lat="-23.5411658" lon="148.2101726"></trkpt>
      <trkpt lat="-23.5411608" lon="148.2101857"></trkpt>
      <trkpt lat="-23.5411480" lon="148.2102115"></trkpt>
      <trkpt lat="-23.5411407" lon="148.2102226"></trkpt>
      <trkpt lat="-23.5411317" lon="148.2102336"></trkpt>
      <trkpt lat="-23.5411126" lon="148.2102520"></trkpt>
      <trkpt lat="-23.5410918" lon="148.2102685"></trkpt>
      <trkpt lat="-23.5410803" lon="148.2102757"></trkpt>
      <trkpt lat="-23.5410669" lon="148.2102818"></trkpt>
      <trkpt lat="-23.5410120" lon="148.2102979"></trkpt>
      <trkpt lat="-23.5409567" lon="148.2103140"></trkpt>
      <trkpt lat="-23.5409305" lon="148.2103276"></trkpt>
      <trkpt lat="-23.5409087" lon="148.2103435"></trkpt>
      <trkpt lat="-23.5408891" lon="148.2103630"></trkpt>
      <trkpt lat="-23.5408806" lon="148.2103732"></trkpt>
      <trkpt lat="-23.5408724" lon="148.2103852"></trkpt>
      <trkpt lat="-23.5408593" lon="148.2104094"></trkpt>
      <trkpt lat="-23.5408476" lon="148.2104373"></trkpt>
      <trkpt lat="-23.5408394" lon="148.2104663"></trkpt>
      <trkpt lat="-23.5408344" lon="148.2104962"></trkpt>
      <trkpt lat="-23.5408332" lon="148.2105267"></trkpt>
      <trkpt lat="-23.5408356" lon="148.2105573"></trkpt>
      <trkpt lat="-23.5408423" lon="148.2105886"></trkpt>
      <trkpt lat="-23.5408519" lon="148.2106184"></trkpt>
      <trkpt lat="-23.5408728" lon="148.2106634"></trkpt>
      <trkpt lat="-23.5409530" lon="148.2108017"></trkpt>
      <trkpt lat="-23.5409744" lon="148.2108555"></trkpt>
      <trkpt lat="-23.5409971" lon="148.2109449"></trkpt>
      <trkpt lat="-23.5410143" lon="148.2110369"></trkpt>
      <trkpt lat="-23.5410164" lon="148.2111025"></trkpt>
      <trkpt lat="-23.5410110" lon="148.2111693"></trkpt>
      <trkpt lat="-23.5409983" lon="148.2112365"></trkpt>
      <trkpt lat="-23.5409774" lon="148.2112997"></trkpt>
      <trkpt lat="-23.5409644" lon="148.2113277"></trkpt>
      <trkpt lat="-23.5409483" lon="148.2113552"></trkpt>
      <trkpt lat="-23.5409198" lon="148.2113935"></trkpt>
      <trkpt lat="-23.5408912" lon="148.2114263"></trkpt>
      <trkpt lat="-23.5408808" lon="148.2114365"></trkpt>
      <trkpt lat="-23.5408689" lon="148.2114455"></trkpt>
      <trkpt lat="-23.5408228" lon="148.2114747"></trkpt>
      <trkpt lat="-23.5407677" lon="148.2115012"></trkpt>
      <trkpt lat="-23.5407226" lon="148.2115108"></trkpt>
      <trkpt lat="-23.5406834" lon="148.2115138"></trkpt>
      <trkpt lat="-23.5406548" lon="148.2115119"></trkpt>
      <trkpt lat="-23.5405982" lon="148.2114993"></trkpt>
      <trkpt lat="-23.5405426" lon="148.2114769"></trkpt>
      <trkpt lat="-23.5404894" lon="148.2114443"></trkpt>
      <trkpt lat="-23.5404395" lon="148.2114026"></trkpt>
      <trkpt lat="-23.5403923" lon="148.2113568"></trkpt>
      <trkpt lat="-23.5403504" lon="148.2113027"></trkpt>
      <trkpt lat="-23.5403149" lon="148.2112423"></trkpt>
      <trkpt lat="-23.5402872" lon="148.2111766"></trkpt>
      <trkpt lat="-23.5402689" lon="148.2111056"></trkpt>
      <trkpt lat="-23.5401878" lon="148.2106579"></trkpt>
      <trkpt lat="-23.5401222" lon="148.2103709"></trkpt>
      <trkpt lat="-23.5399496" lon="148.2096164"></trkpt>
      <trkpt lat="-23.5399437" lon="148.2095536"></trkpt>
      <trkpt lat="-23.5399440" lon="148.2095244"></trkpt>
      <trkpt lat="-23.5399469" lon="148.2094946"></trkpt>
      <trkpt lat="-23.5399549" lon="148.2094538"></trkpt>
      <trkpt lat="-23.5399649" lon="148.2094174"></trkpt>
      <trkpt lat="-23.5399754" lon="148.2093935"></trkpt>
      <trkpt lat="-23.5399997" lon="148.2093539"></trkpt>
      <trkpt lat="-23.5400195" lon="148.2093281"></trkpt>
      <trkpt lat="-23.5400419" lon="148.2093051"></trkpt>
      <trkpt lat="-23.5400551" lon="148.2092955"></trkpt>
      <trkpt lat="-23.5400687" lon="148.2092878"></trkpt>
      <trkpt lat="-23.5400828" lon="148.2092826"></trkpt>
      <trkpt lat="-23.5400972" lon="148.2092798"></trkpt>
      <trkpt lat="-23.5401121" lon="148.2092794"></trkpt>
      <trkpt lat="-23.5401274" lon="148.2092813"></trkpt>
      <trkpt lat="-23.5401471" lon="148.2092875"></trkpt>
      <trkpt lat="-23.5401672" lon="148.2092970"></trkpt>
      <trkpt lat="-23.5401840" lon="148.2093067"></trkpt>
      <trkpt lat="-23.5401949" lon="148.2093149"></trkpt>
      <trkpt lat="-23.5402044" lon="148.2093247"></trkpt>
      <trkpt lat="-23.5402219" lon="148.2093464"></trkpt>
      <trkpt lat="-23.5402381" lon="148.2093716"></trkpt>
      <trkpt lat="-23.5402482" lon="148.2093939"></trkpt>
      <trkpt lat="-23.5402559" lon="148.2094171"></trkpt>
      <trkpt lat="-23.5402673" lon="148.2094678"></trkpt>
      <trkpt lat="-23.5402719" lon="148.2095229"></trkpt>
      <trkpt lat="-23.5402746" lon="148.2096597"></trkpt>
      <trkpt lat="-23.5402794" lon="148.2096883"></trkpt>
      <trkpt lat="-23.5402875" lon="148.2097128"></trkpt>
      <trkpt lat="-23.5402966" lon="148.2097301"></trkpt>
      <trkpt lat="-23.5403077" lon="148.2097465"></trkpt>
      <trkpt lat="-23.5403194" lon="148.2097600"></trkpt>
      <trkpt lat="-23.5403331" lon="148.2097707"></trkpt>
      <trkpt lat="-23.5403478" lon="148.2097782"></trkpt>
      <trkpt lat="-23.5403647" lon="148.2097845"></trkpt>
      <trkpt lat="-23.5403831" lon="148.2097879"></trkpt>
      <trkpt lat="-23.5404075" lon="148.2097866"></trkpt>
      <trkpt lat="-23.5404308" lon="148.2097820"></trkpt>
    </trkseg>
  </trk>
</gpx>
