<?xml version="1.0" encoding="UTF-8"?>
<gpx version="1.1" creator="tkk2gpx (Aus_Kart.ztracks converter)"
     xmlns="http://www.topografix.com/GPX/1/1"
     xmlns:xsi="http://www.w3.org/2001/XMLSchema-instance"
     xsi:schemaLocation="http://www.topografix.com/GPX/1/1 http://www.topografix.com/GPX/1/1/gpx.xsd">
  <metadata>
    <name>GeelongK</name>
    <desc>Kart track, VIC AU. One lap starting and ending at the Start/Finish line. Declared length 734 m.</desc>
  </metadata>
  <wpt lat="-38.0593926" lon="144.3833276">
    <name>Start/Finish</name>
    <desc>Start/Finish line location</desc>
    <sym>Flag, Checkered</sym>
  </wpt>
  <trk>
    <name>GeelongK - 1 lap</name>
    <trkseg>
      <trkpt lat="-38.0593948" lon="144.3832910"></trkpt>
      <trkpt lat="-38.0597107" lon="144.3833641"></trkpt>
      <trkpt lat="-38.0600327" lon="144.3834428"></trkpt>
      <trkpt lat="-38.0601005" lon="144.3834734"></trkpt>
      <trkpt lat="-38.0601479" lon="144.3835048"></trkpt>
      <trkpt lat="-38.0601745" lon="144.3835295"></trkpt>
      <trkpt lat="-38.0601946" lon="144.3835561"></trkpt>
      <trkpt lat="-38.0602056" lon="144.3835752"></trkpt>
      <trkpt lat="-38.0602144" lon="144.3835954"></trkpt>
      <trkpt lat="-38.0602209" lon="144.3836161"></trkpt>
      <trkpt lat="-38.0602248" lon="144.3836371"></trkpt>
      <trkpt lat="-38.0602264" lon="144.3836586"></trkpt>
      <trkpt lat="-38.0602256" lon="144.3836797"></trkpt>
      <trkpt lat="-38.0602223" lon="144.3837003"></trkpt>
      <trkpt lat="-38.0602166" lon="144.3837206"></trkpt>
      <trkpt lat="-38.0602088" lon="144.3837396"></trkpt>
      <trkpt lat="-38.0601990" lon="144.3837568"></trkpt>
      <trkpt lat="-38.0601872" lon="144.3837728"></trkpt>
      <trkpt lat="-38.0601738" lon="144.3837867"></trkpt>
      <trkpt lat="-38.0601602" lon="144.3837977"></trkpt>
      <trkpt lat="-38.0601451" lon="144.3838067"></trkpt>
      <trkpt lat="-38.0601265" lon="144.3838143"></trkpt>
      <trkpt lat="-38.0600524" lon="144.3838232"></trkpt>
      <trkpt lat="-38.0599773" lon="144.3838325"></trkpt>
      <trkpt lat="-38.0599476" lon="144.3838461"></trkpt>
      <trkpt lat="-38.0599235" lon="144.3838639"></trkpt>
      <trkpt lat="-38.0598998" lon="144.3838879"></trkpt>
      <trkpt lat="-38.0598795" lon="144.3839160"></trkpt>
      <trkpt lat="-38.0598634" lon="144.3839463"></trkpt>
      <trkpt lat="-38.0598500" lon="144.3839834"></trkpt>
      <trkpt lat="-38.0598309" lon="144.3840893"></trkpt>
      <trkpt lat="-38.0598113" lon="144.3841940"></trkpt>
      <trkpt lat="-38.0598023" lon="144.3842185"></trkpt>
      <trkpt lat="-38.0597925" lon="144.3842383"></trkpt>
      <trkpt lat="-38.0597809" lon="144.3842558"></trkpt>
      <trkpt lat="-38.0597682" lon="144.3842708"></trkpt>
      <trkpt lat="-38.0597539" lon="144.3842838"></trkpt>
      <trkpt lat="-38.0597385" lon="144.3842939"></trkpt>
      <trkpt lat="-38.0597227" lon="144.3843004"></trkpt>
      <trkpt lat="-38.0597058" lon="144.3843042"></trkpt>
      <trkpt lat="-38.0596890" lon="144.3843051"></trkpt>
      <trkpt lat="-38.0596723" lon="144.3843026"></trkpt>
      <trkpt lat="-38.0596557" lon="144.3842971"></trkpt>
      <trkpt lat="-38.0596402" lon="144.3842893"></trkpt>
      <trkpt lat="-38.0596254" lon="144.3842785"></trkpt>
      <trkpt lat="-38.0596118" lon="144.3842651"></trkpt>
      <trkpt lat="-38.0595998" lon="144.3842501"></trkpt>
      <trkpt lat="-38.0595893" lon="144.3842338"></trkpt>
      <trkpt lat="-38.0595806" lon="144.3842158"></trkpt>
      <trkpt lat="-38.0595734" lon="144.3841940"></trkpt>
      <trkpt lat="-38.0595640" lon="144.3841138"></trkpt>
      <trkpt lat="-38.0595581" lon="144.3840306"></trkpt>
      <trkpt lat="-38.0595525" lon="144.3839915"></trkpt>
      <trkpt lat="-38.0595444" lon="144.3839568"></trkpt>
      <trkpt lat="-38.0595311" lon="144.3839215"></trkpt>
      <trkpt lat="-38.0595136" lon="144.3838885"></trkpt>
      <trkpt lat="-38.0594922" lon="144.3838590"></trkpt>
      <trkpt lat="-38.0594671" lon="144.3838334"></trkpt>
      <trkpt lat="-38.0594392" lon="144.3838130"></trkpt>
      <trkpt lat="-38.0594086" lon="144.3837977"></trkpt>
      <trkpt lat="-38.0593763" lon="144.3837886"></trkpt>
      <trkpt lat="-38.0593429" lon="144.3837854"></trkpt>
      <trkpt lat="-38.0593090" lon="144.3837885"></trkpt>
      <trkpt lat="-38.0592757" lon="144.3837975"></trkpt>
      <trkpt lat="-38.0592430" lon="144.3838127"></trkpt>
      <trkpt lat="-38.0592124" lon="144.3838332"></trkpt>
      <trkpt lat="-38.0591837" lon="144.3838595"></trkpt>
      <trkpt lat="-38.0591583" lon="144.3838901"></trkpt>
      <trkpt lat="-38.0591359" lon="144.3839249"></trkpt>
      <trkpt lat="-38.0591169" lon="144.3839642"></trkpt>
      <trkpt lat="-38.0590984" lon="144.3840182"></trkpt>
      <trkpt lat="-38.0590829" lon="144.3840810"></trkpt>
      <trkpt lat="-38.0590656" lon="144.3841959"></trkpt>
      <trkpt lat="-38.0590472" lon="144.3843067"></trkpt>
      <trkpt lat="-38.0590318" lon="144.3843543"></trkpt>
      <trkpt lat="-38.0590128" lon="144.3843945"></trkpt>
      <trkpt lat="-38.0589895" lon="144.3844317"></trkpt>
      <trkpt lat="-38.0589620" lon="144.3844645"></trkpt>
      <trkpt lat="-38.0589321" lon="144.3844906"></trkpt>
      <trkpt lat="-38.0588992" lon="144.3845109"></trkpt>
      <trkpt lat="-38.0588651" lon="144.3845242"></trkpt>
      <trkpt lat="-38.0588298" lon="144.3845309"></trkpt>
      <trkpt lat="-38.0587945" lon="144.3845301"></trkpt>
      <trkpt lat="-38.0587598" lon="144.3845227"></trkpt>
      <trkpt lat="-38.0587262" lon="144.3845084"></trkpt>
      <trkpt lat="-38.0586948" lon="144.3844882"></trkpt>
      <trkpt lat="-38.0586658" lon="144.3844626"></trkpt>
      <trkpt lat="-38.0586398" lon="144.3844311"></trkpt>
      <trkpt lat="-38.0586113" lon="144.3843830"></trkpt>
      <trkpt lat="-38.0585881" lon="144.3843285"></trkpt>
      <trkpt lat="-38.0585720" lon="144.3842700"></trkpt>
      <trkpt lat="-38.0585626" lon="144.3842071"></trkpt>
      <trkpt lat="-38.0585587" lon="144.3841327"></trkpt>
      <trkpt lat="-38.0585647" lon="144.3840440"></trkpt>
      <trkpt lat="-38.0586829" lon="144.3835274"></trkpt>
      <trkpt lat="-38.0587609" lon="144.3832218"></trkpt>
      <trkpt lat="-38.0588662" lon="144.3827899"></trkpt>
      <trkpt lat="-38.0589663" lon="144.3823310"></trkpt>
      <trkpt lat="-38.0589899" lon="144.3822674"></trkpt>
      <trkpt lat="-38.0590149" lon="144.3822195"></trkpt>
      <trkpt lat="-38.0590374" lon="144.3821877"></trkpt>
      <trkpt lat="-38.0590624" lon="144.3821621"></trkpt>
      <trkpt lat="-38.0590886" lon="144.3821432"></trkpt>
      <trkpt lat="-38.0591167" lon="144.3821303"></trkpt>
      <trkpt lat="-38.0591355" lon="144.3821259"></trkpt>
      <trkpt lat="-38.0591549" lon="144.3821243"></trkpt>
      <trkpt lat="-38.0591739" lon="144.3821256"></trkpt>
      <trkpt lat="-38.0591928" lon="144.3821301"></trkpt>
      <trkpt lat="-38.0592114" lon="144.3821376"></trkpt>
      <trkpt lat="-38.0592288" lon="144.3821473"></trkpt>
      <trkpt lat="-38.0592538" lon="144.3821674"></trkpt>
      <trkpt lat="-38.0592757" lon="144.3821921"></trkpt>
      <trkpt lat="-38.0592946" lon="144.3822221"></trkpt>
      <trkpt lat="-38.0593094" lon="144.3822553"></trkpt>
      <trkpt lat="-38.0593202" lon="144.3822921"></trkpt>
      <trkpt lat="-38.0593265" lon="144.3823306"></trkpt>
      <trkpt lat="-38.0593285" lon="144.3823701"></trkpt>
      <trkpt lat="-38.0593256" lon="144.3824112"></trkpt>
      <trkpt lat="-38.0593160" lon="144.3824613"></trkpt>
      <trkpt lat="-38.0592984" lon="144.3825179"></trkpt>
      <trkpt lat="-38.0592426" lon="144.3826393"></trkpt>
      <trkpt lat="-38.0591870" lon="144.3827583"></trkpt>
      <trkpt lat="-38.0591710" lon="144.3828063"></trkpt>
      <trkpt lat="-38.0591610" lon="144.3828498"></trkpt>
      <trkpt lat="-38.0591543" lon="144.3828973"></trkpt>
      <trkpt lat="-38.0591522" lon="144.3829451"></trkpt>
      <trkpt lat="-38.0591550" lon="144.3829924"></trkpt>
      <trkpt lat="-38.0591628" lon="144.3830387"></trkpt>
      <trkpt lat="-38.0591755" lon="144.3830827"></trkpt>
      <trkpt lat="-38.0591929" lon="144.3831243"></trkpt>
      <trkpt lat="-38.0592145" lon="144.3831618"></trkpt>
      <trkpt lat="-38.0592402" lon="144.3831957"></trkpt>
      <trkpt lat="-38.0592683" lon="144.3832239"></trkpt>
      <trkpt lat="-38.0593009" lon="144.3832484"></trkpt>
      <trkpt lat="-38.0593405" lon="144.3832702"></trkpt>
      <trkpt lat="-38.0593948" lon="144.3832910"></trkpt>
    </trkseg>
  </trk>
</gpx>
