<?xml version="1.0" encoding="UTF-8"?>
<gpx version="1.1" creator="tkk2gpx (Aus_Kart.ztracks converter)"
     xmlns="http://www.topografix.com/GPX/1/1"
     xmlns:xsi="http://www.w3.org/2001/XMLSchema-instance"
     xsi:schemaLocation="http://www.topografix.com/GPX/1/1 http://www.topografix.com/GPX/1/1/gpx.xsd">
  <metadata>
    <name>GeraldtonK</name>
    <desc>Kart track, WA AU. One lap starting and ending at the Start/Finish line. Declared length 244 m.</desc>
  </metadata>
  <wpt lat="-28.7820278" lon="114.7321307">
    <name>Start/Finish</name>
    <desc>Start/Finish line location</desc>
    <sym>Flag, Checkered</sym>
  </wpt>
  <trk>
    <name>GeraldtonK - 1 lap</name>
    <trkseg>
      <trkpt lat="-28.7818936" lon="114.7321167"></trkpt>
      <trkpt lat="-28.7818956" lon="114.7321705"></trkpt>
      <trkpt lat="-28.7819073" lon="114.7322428"></trkpt>
      <trkpt lat="-28.7819167" lon="114.7323189"></trkpt>
      <trkpt lat="-28.7819161" lon="114.7323482"></trkpt>
      <trkpt lat="-28.7819130" lon="114.7323749"></trkpt>
      <trkpt lat="-28.7819056" lon="114.7324023"></trkpt>
      <trkpt lat="-28.7818835" lon="114.7324436"></trkpt>
      <trkpt lat="-28.7818543" lon="114.7324862"></trkpt>
      <trkpt lat="-28.7818345" lon="114.7325207"></trkpt>
      <trkpt lat="-28.7818313" lon="114.7325319"></trkpt>
      <trkpt lat="-28.7818300" lon="114.7325414"></trkpt>
      <trkpt lat="-28.7818302" lon="114.7325512"></trkpt>
      <trkpt lat="-28.7818318" lon="114.7325638"></trkpt>
      <trkpt lat="-28.7818353" lon="114.7325769"></trkpt>
      <trkpt lat="-28.7818405" lon="114.7325896"></trkpt>
      <trkpt lat="-28.7818497" lon="114.7326041"></trkpt>
      <trkpt lat="-28.7818613" lon="114.7326181"></trkpt>
      <trkpt lat="-28.7818724" lon="114.7326296"></trkpt>
      <trkpt lat="-28.7818820" lon="114.7326379"></trkpt>
      <trkpt lat="-28.7818929" lon="114.7326446"></trkpt>
      <trkpt lat="-28.7819205" lon="114.7326562"></trkpt>
      <trkpt lat="-28.7819477" lon="114.7326643"></trkpt>
      <trkpt lat="-28.7819563" lon="114.7326654"></trkpt>
      <trkpt lat="-28.7819641" lon="114.7326652"></trkpt>
      <trkpt lat="-28.7819758" lon="114.7326643"></trkpt>
      <trkpt lat="-28.7819892" lon="114.7326613"></trkpt>
      <trkpt lat="-28.7820077" lon="114.7326548"></trkpt>
      <trkpt lat="-28.7820285" lon="114.7326452"></trkpt>
      <trkpt lat="-28.7820464" lon="114.7326333"></trkpt>
      <trkpt lat="-28.7820573" lon="114.7326210"></trkpt>
      <trkpt lat="-28.7820660" lon="114.7326069"></trkpt>
      <trkpt lat="-28.7820737" lon="114.7325922"></trkpt>
      <trkpt lat="-28.7820928" lon="114.7325446"></trkpt>
      <trkpt lat="-28.7821104" lon="114.7324897"></trkpt>
      <trkpt lat="-28.7821288" lon="114.7323756"></trkpt>
      <trkpt lat="-28.7821473" lon="114.7322351"></trkpt>
      <trkpt lat="-28.7821505" lon="114.7322154"></trkpt>
      <trkpt lat="-28.7822256" lon="114.7317505"></trkpt>
      <trkpt lat="-28.7822239" lon="114.7317328"></trkpt>
      <trkpt lat="-28.7822202" lon="114.7317160"></trkpt>
      <trkpt lat="-28.7822121" lon="114.7316910"></trkpt>
      <trkpt lat="-28.7822008" lon="114.7316628"></trkpt>
      <trkpt lat="-28.7821878" lon="114.7316393"></trkpt>
      <trkpt lat="-28.7821771" lon="114.7316266"></trkpt>
      <trkpt lat="-28.7821655" lon="114.7316167"></trkpt>
      <trkpt lat="-28.7821533" lon="114.7316087"></trkpt>
      <trkpt lat="-28.7821409" lon="114.7316022"></trkpt>
      <trkpt lat="-28.7821279" lon="114.7315974"></trkpt>
      <trkpt lat="-28.7821149" lon="114.7315959"></trkpt>
      <trkpt lat="-28.7821012" lon="114.7315992"></trkpt>
      <trkpt lat="-28.7820875" lon="114.7316060"></trkpt>
      <trkpt lat="-28.7820765" lon="114.7316129"></trkpt>
      <trkpt lat="-28.7820701" lon="114.7316183"></trkpt>
      <trkpt lat="-28.7820648" lon="114.7316244"></trkpt>
      <trkpt lat="-28.7820491" lon="114.7316464"></trkpt>
      <trkpt lat="-28.7820322" lon="114.7316790"></trkpt>
      <trkpt lat="-28.7819608" lon="114.7318621"></trkpt>
      <trkpt lat="-28.7819006" lon="114.7320501"></trkpt>
      <trkpt lat="-28.7818952" lon="114.7320858"></trkpt>
      <trkpt lat="-28.7818936" lon="114.7321167"></trkpt>
    </trkseg>
  </trk>
</gpx>
