<?xml version="1.0" encoding="UTF-8"?>
<gpx version="1.1" creator="tkk2gpx (Aus_Kart.ztracks converter)"
     xmlns="http://www.topografix.com/GPX/1/1"
     xmlns:xsi="http://www.w3.org/2001/XMLSchema-instance"
     xsi:schemaLocation="http://www.topografix.com/GPX/1/1 http://www.topografix.com/GPX/1/1/gpx.xsd">
  <metadata>
    <name>GippslandK</name>
    <desc>Kart track, VIC AU. One lap starting and ending at the Start/Finish line. Declared length 611 m.</desc>
  </metadata>
  <wpt lat="-38.2344763" lon="146.4398314">
    <name>Start/Finish</name>
    <desc>Start/Finish line location</desc>
    <sym>Flag, Checkered</sym>
  </wpt>
  <trk>
    <name>GippslandK - 1 lap</name>
    <trkseg>
      <trkpt lat="-38.2344206" lon="146.4399247"></trkpt>
      <trkpt lat="-38.2346819" lon="146.4396609"></trkpt>
      <trkpt lat="-38.2347051" lon="146.4396400"></trkpt>
      <trkpt lat="-38.2347242" lon="146.4396241"></trkpt>
      <trkpt lat="-38.2347432" lon="146.4396146"></trkpt>
      <trkpt lat="-38.2347593" lon="146.4396124"></trkpt>
      <trkpt lat="-38.2347752" lon="146.4396142"></trkpt>
      <trkpt lat="-38.2347902" lon="146.4396179"></trkpt>
      <trkpt lat="-38.2348090" lon="146.4396260"></trkpt>
      <trkpt lat="-38.2348256" lon="146.4396373"></trkpt>
      <trkpt lat="-38.2348350" lon="146.4396457"></trkpt>
      <trkpt lat="-38.2348433" lon="146.4396552"></trkpt>
      <trkpt lat="-38.2348504" lon="146.4396656"></trkpt>
      <trkpt lat="-38.2348564" lon="146.4396772"></trkpt>
      <trkpt lat="-38.2348610" lon="146.4396898"></trkpt>
      <trkpt lat="-38.2348645" lon="146.4397029"></trkpt>
      <trkpt lat="-38.2348676" lon="146.4397253"></trkpt>
      <trkpt lat="-38.2348679" lon="146.4397490"></trkpt>
      <trkpt lat="-38.2348655" lon="146.4397688"></trkpt>
      <trkpt lat="-38.2348618" lon="146.4397891"></trkpt>
      <trkpt lat="-38.2348529" lon="146.4398135"></trkpt>
      <trkpt lat="-38.2348423" lon="146.4398315"></trkpt>
      <trkpt lat="-38.2348317" lon="146.4398433"></trkpt>
      <trkpt lat="-38.2346692" lon="146.4399581"></trkpt>
      <trkpt lat="-38.2345289" lon="146.4400647"></trkpt>
      <trkpt lat="-38.2345069" lon="146.4400875"></trkpt>
      <trkpt lat="-38.2344972" lon="146.4401053"></trkpt>
      <trkpt lat="-38.2344910" lon="146.4401207"></trkpt>
      <trkpt lat="-38.2344865" lon="146.4401364"></trkpt>
      <trkpt lat="-38.2344837" lon="146.4401520"></trkpt>
      <trkpt lat="-38.2344827" lon="146.4401676"></trkpt>
      <trkpt lat="-38.2344835" lon="146.4401832"></trkpt>
      <trkpt lat="-38.2344860" lon="146.4401987"></trkpt>
      <trkpt lat="-38.2344904" lon="146.4402146"></trkpt>
      <trkpt lat="-38.2344962" lon="146.4402299"></trkpt>
      <trkpt lat="-38.2345020" lon="146.4402433"></trkpt>
      <trkpt lat="-38.2345090" lon="146.4402556"></trkpt>
      <trkpt lat="-38.2345178" lon="146.4402664"></trkpt>
      <trkpt lat="-38.2345281" lon="146.4402758"></trkpt>
      <trkpt lat="-38.2345401" lon="146.4402839"></trkpt>
      <trkpt lat="-38.2345560" lon="146.4402925"></trkpt>
      <trkpt lat="-38.2345760" lon="146.4403001"></trkpt>
      <trkpt lat="-38.2345944" lon="146.4403042"></trkpt>
      <trkpt lat="-38.2346098" lon="146.4403051"></trkpt>
      <trkpt lat="-38.2346226" lon="146.4403021"></trkpt>
      <trkpt lat="-38.2346435" lon="146.4402921"></trkpt>
      <trkpt lat="-38.2346651" lon="146.4402730"></trkpt>
      <trkpt lat="-38.2346844" lon="146.4402544"></trkpt>
      <trkpt lat="-38.2347162" lon="146.4402181"></trkpt>
      <trkpt lat="-38.2348494" lon="146.4400317"></trkpt>
      <trkpt lat="-38.2349535" lon="146.4398903"></trkpt>
      <trkpt lat="-38.2350302" lon="146.4397663"></trkpt>
      <trkpt lat="-38.2350344" lon="146.4397453"></trkpt>
      <trkpt lat="-38.2350339" lon="146.4397279"></trkpt>
      <trkpt lat="-38.2350328" lon="146.4397108"></trkpt>
      <trkpt lat="-38.2350299" lon="146.4396607"></trkpt>
      <trkpt lat="-38.2350217" lon="146.4396160"></trkpt>
      <trkpt lat="-38.2350155" lon="146.4395959"></trkpt>
      <trkpt lat="-38.2350079" lon="146.4395767"></trkpt>
      <trkpt lat="-38.2349888" lon="146.4395429"></trkpt>
      <trkpt lat="-38.2349726" lon="146.4395038"></trkpt>
      <trkpt lat="-38.2349677" lon="146.4394864"></trkpt>
      <trkpt lat="-38.2349647" lon="146.4394694"></trkpt>
      <trkpt lat="-38.2349638" lon="146.4394543"></trkpt>
      <trkpt lat="-38.2349650" lon="146.4394398"></trkpt>
      <trkpt lat="-38.2349669" lon="146.4394311"></trkpt>
      <trkpt lat="-38.2349698" lon="146.4394227"></trkpt>
      <trkpt lat="-38.2349735" lon="146.4394149"></trkpt>
      <trkpt lat="-38.2349780" lon="146.4394078"></trkpt>
      <trkpt lat="-38.2349834" lon="146.4394012"></trkpt>
      <trkpt lat="-38.2349902" lon="146.4393947"></trkpt>
      <trkpt lat="-38.2350116" lon="146.4393811"></trkpt>
      <trkpt lat="-38.2350348" lon="146.4393666"></trkpt>
      <trkpt lat="-38.2350527" lon="146.4393505"></trkpt>
      <trkpt lat="-38.2350680" lon="146.4393327"></trkpt>
      <trkpt lat="-38.2350802" lon="146.4393137"></trkpt>
      <trkpt lat="-38.2350897" lon="146.4392932"></trkpt>
      <trkpt lat="-38.2350963" lon="146.4392711"></trkpt>
      <trkpt lat="-38.2351000" lon="146.4392480"></trkpt>
      <trkpt lat="-38.2351006" lon="146.4392230"></trkpt>
      <trkpt lat="-38.2350989" lon="146.4391971"></trkpt>
      <trkpt lat="-38.2350914" lon="146.4391375"></trkpt>
      <trkpt lat="-38.2350860" lon="146.4391128"></trkpt>
      <trkpt lat="-38.2350790" lon="146.4390899"></trkpt>
      <trkpt lat="-38.2350712" lon="146.4390710"></trkpt>
      <trkpt lat="-38.2350616" lon="146.4390543"></trkpt>
      <trkpt lat="-38.2350512" lon="146.4390413"></trkpt>
      <trkpt lat="-38.2350393" lon="146.4390308"></trkpt>
      <trkpt lat="-38.2350269" lon="146.4390243"></trkpt>
      <trkpt lat="-38.2350119" lon="146.4390192"></trkpt>
      <trkpt lat="-38.2349398" lon="146.4390028"></trkpt>
      <trkpt lat="-38.2349073" lon="146.4390017"></trkpt>
      <trkpt lat="-38.2348786" lon="146.4390040"></trkpt>
      <trkpt lat="-38.2348645" lon="146.4390068"></trkpt>
      <trkpt lat="-38.2348521" lon="146.4390113"></trkpt>
      <trkpt lat="-38.2348394" lon="146.4390186"></trkpt>
      <trkpt lat="-38.2348275" lon="146.4390275"></trkpt>
      <trkpt lat="-38.2348166" lon="146.4390374"></trkpt>
      <trkpt lat="-38.2348067" lon="146.4390485"></trkpt>
      <trkpt lat="-38.2347977" lon="146.4390609"></trkpt>
      <trkpt lat="-38.2347897" lon="146.4390742"></trkpt>
      <trkpt lat="-38.2347825" lon="146.4390890"></trkpt>
      <trkpt lat="-38.2347763" lon="146.4391046"></trkpt>
      <trkpt lat="-38.2347707" lon="146.4391205"></trkpt>
      <trkpt lat="-38.2347667" lon="146.4391398"></trkpt>
      <trkpt lat="-38.2347684" lon="146.4392043"></trkpt>
      <trkpt lat="-38.2347721" lon="146.4392707"></trkpt>
      <trkpt lat="-38.2347713" lon="146.4392950"></trkpt>
      <trkpt lat="-38.2347684" lon="146.4393156"></trkpt>
      <trkpt lat="-38.2347649" lon="146.4393283"></trkpt>
      <trkpt lat="-38.2347603" lon="146.4393403"></trkpt>
      <trkpt lat="-38.2347546" lon="146.4393511"></trkpt>
      <trkpt lat="-38.2347447" lon="146.4393631"></trkpt>
      <trkpt lat="-38.2347335" lon="146.4393731"></trkpt>
      <trkpt lat="-38.2347120" lon="146.4393903"></trkpt>
      <trkpt lat="-38.2346810" lon="146.4394192"></trkpt>
      <trkpt lat="-38.2344418" lon="146.4396639"></trkpt>
      <trkpt lat="-38.2344050" lon="146.4396998"></trkpt>
      <trkpt lat="-38.2342412" lon="146.4398594"></trkpt>
      <trkpt lat="-38.2341936" lon="146.4398984"></trkpt>
      <trkpt lat="-38.2341486" lon="146.4399271"></trkpt>
      <trkpt lat="-38.2341020" lon="146.4399458"></trkpt>
      <trkpt lat="-38.2340587" lon="146.4399560"></trkpt>
      <trkpt lat="-38.2340367" lon="146.4399559"></trkpt>
      <trkpt lat="-38.2340168" lon="146.4399547"></trkpt>
      <trkpt lat="-38.2339778" lon="146.4399604"></trkpt>
      <trkpt lat="-38.2339418" lon="146.4399731"></trkpt>
      <trkpt lat="-38.2339088" lon="146.4399927"></trkpt>
      <trkpt lat="-38.2338926" lon="146.4400049"></trkpt>
      <trkpt lat="-38.2338787" lon="146.4400192"></trkpt>
      <trkpt lat="-38.2338722" lon="146.4400307"></trkpt>
      <trkpt lat="-38.2338673" lon="146.4400434"></trkpt>
      <trkpt lat="-38.2338632" lon="146.4400565"></trkpt>
      <trkpt lat="-38.2338579" lon="146.4400773"></trkpt>
      <trkpt lat="-38.2338543" lon="146.4400989"></trkpt>
      <trkpt lat="-38.2338523" lon="146.4401223"></trkpt>
      <trkpt lat="-38.2338520" lon="146.4401464"></trkpt>
      <trkpt lat="-38.2338564" lon="146.4401990"></trkpt>
      <trkpt lat="-38.2338796" lon="146.4403972"></trkpt>
      <trkpt lat="-38.2338969" lon="146.4405077"></trkpt>
      <trkpt lat="-38.2339070" lon="146.4405502"></trkpt>
      <trkpt lat="-38.2339195" lon="146.4405882"></trkpt>
      <trkpt lat="-38.2339276" lon="146.4406072"></trkpt>
      <trkpt lat="-38.2339366" lon="146.4406245"></trkpt>
      <trkpt lat="-38.2339472" lon="146.4406387"></trkpt>
      <trkpt lat="-38.2339574" lon="146.4406477"></trkpt>
      <trkpt lat="-38.2339687" lon="146.4406545"></trkpt>
      <trkpt lat="-38.2339802" lon="146.4406591"></trkpt>
      <trkpt lat="-38.2339963" lon="146.4406611"></trkpt>
      <trkpt lat="-38.2340124" lon="146.4406599"></trkpt>
      <trkpt lat="-38.2340268" lon="146.4406572"></trkpt>
      <trkpt lat="-38.2340404" lon="146.4406526"></trkpt>
      <trkpt lat="-38.2340529" lon="146.4406459"></trkpt>
      <trkpt lat="-38.2340643" lon="146.4406374"></trkpt>
      <trkpt lat="-38.2340747" lon="146.4406266"></trkpt>
      <trkpt lat="-38.2340839" lon="146.4406141"></trkpt>
      <trkpt lat="-38.2340900" lon="146.4406051"></trkpt>
      <trkpt lat="-38.2340955" lon="146.4405953"></trkpt>
      <trkpt lat="-38.2340994" lon="146.4405828"></trkpt>
      <trkpt lat="-38.2341005" lon="146.4405453"></trkpt>
      <trkpt lat="-38.2340959" lon="146.4404978"></trkpt>
      <trkpt lat="-38.2340900" lon="146.4404550"></trkpt>
      <trkpt lat="-38.2340826" lon="146.4404191"></trkpt>
      <trkpt lat="-38.2340762" lon="146.4403881"></trkpt>
      <trkpt lat="-38.2340745" lon="146.4403679"></trkpt>
      <trkpt lat="-38.2340746" lon="146.4403492"></trkpt>
      <trkpt lat="-38.2340762" lon="146.4403311"></trkpt>
      <trkpt lat="-38.2340793" lon="146.4403136"></trkpt>
      <trkpt lat="-38.2340839" lon="146.4402970"></trkpt>
      <trkpt lat="-38.2340901" lon="146.4402811"></trkpt>
      <trkpt lat="-38.2340964" lon="146.4402679"></trkpt>
      <trkpt lat="-38.2341072" lon="146.4402519"></trkpt>
      <trkpt lat="-38.2344206" lon="146.4399247"></trkpt>
    </trkseg>
  </trk>
</gpx>
