<?xml version="1.0" encoding="UTF-8"?>
<gpx version="1.1" creator="tkk2gpx (Aus_Kart.ztracks converter)"
     xmlns="http://www.topografix.com/GPX/1/1"
     xmlns:xsi="http://www.w3.org/2001/XMLSchema-instance"
     xsi:schemaLocation="http://www.topografix.com/GPX/1/1 http://www.topografix.com/GPX/1/1/gpx.xsd">
  <metadata>
    <name>GKCV</name>
    <desc>Kart track, VIC AU. One lap starting and ending at the Start/Finish line. Declared length 883 m.</desc>
  </metadata>
  <wpt lat="-37.8308118" lon="144.9135611">
    <name>Start/Finish</name>
    <desc>Start/Finish line location</desc>
    <sym>Flag, Checkered</sym>
  </wpt>
  <trk>
    <name>GKCV - 1 lap</name>
    <trkseg>
      <trkpt lat="-37.8306759" lon="144.9134459"></trkpt>
      <trkpt lat="-37.8306635" lon="144.9134676"></trkpt>
      <trkpt lat="-37.8306467" lon="144.9134906"></trkpt>
      <trkpt lat="-37.8305770" lon="144.9135558"></trkpt>
      <trkpt lat="-37.8305104" lon="144.9136177"></trkpt>
      <trkpt lat="-37.8304994" lon="144.9136326"></trkpt>
      <trkpt lat="-37.8304919" lon="144.9136470"></trkpt>
      <trkpt lat="-37.8304834" lon="144.9136691"></trkpt>
      <trkpt lat="-37.8304775" lon="144.9136939"></trkpt>
      <trkpt lat="-37.8304754" lon="144.9137131"></trkpt>
      <trkpt lat="-37.8304749" lon="144.9137331"></trkpt>
      <trkpt lat="-37.8304766" lon="144.9137522"></trkpt>
      <trkpt lat="-37.8304805" lon="144.9137689"></trkpt>
      <trkpt lat="-37.8304863" lon="144.9137848"></trkpt>
      <trkpt lat="-37.8304931" lon="144.9137990"></trkpt>
      <trkpt lat="-37.8305035" lon="144.9138144"></trkpt>
      <trkpt lat="-37.8305159" lon="144.9138275"></trkpt>
      <trkpt lat="-37.8305325" lon="144.9138411"></trkpt>
      <trkpt lat="-37.8305520" lon="144.9138525"></trkpt>
      <trkpt lat="-37.8305820" lon="144.9138631"></trkpt>
      <trkpt lat="-37.8306152" lon="144.9138710"></trkpt>
      <trkpt lat="-37.8306887" lon="144.9138836"></trkpt>
      <trkpt lat="-37.8308379" lon="144.9139010"></trkpt>
      <trkpt lat="-37.8308873" lon="144.9138955"></trkpt>
      <trkpt lat="-37.8309315" lon="144.9138836"></trkpt>
      <trkpt lat="-37.8309666" lon="144.9138681"></trkpt>
      <trkpt lat="-37.8309984" lon="144.9138480"></trkpt>
      <trkpt lat="-37.8310286" lon="144.9138233"></trkpt>
      <trkpt lat="-37.8310565" lon="144.9137933"></trkpt>
      <trkpt lat="-37.8310884" lon="144.9137482"></trkpt>
      <trkpt lat="-37.8311172" lon="144.9136954"></trkpt>
      <trkpt lat="-37.8311460" lon="144.9136238"></trkpt>
      <trkpt lat="-37.8311693" lon="144.9135460"></trkpt>
      <trkpt lat="-37.8311992" lon="144.9133791"></trkpt>
      <trkpt lat="-37.8312447" lon="144.9129958"></trkpt>
      <trkpt lat="-37.8312510" lon="144.9129683"></trkpt>
      <trkpt lat="-37.8312585" lon="144.9129466"></trkpt>
      <trkpt lat="-37.8312720" lon="144.9129146"></trkpt>
      <trkpt lat="-37.8312892" lon="144.9128848"></trkpt>
      <trkpt lat="-37.8313022" lon="144.9128692"></trkpt>
      <trkpt lat="-37.8313167" lon="144.9128558"></trkpt>
      <trkpt lat="-37.8313317" lon="144.9128457"></trkpt>
      <trkpt lat="-37.8313457" lon="144.9128397"></trkpt>
      <trkpt lat="-37.8313602" lon="144.9128364"></trkpt>
      <trkpt lat="-37.8313746" lon="144.9128357"></trkpt>
      <trkpt lat="-37.8313891" lon="144.9128377"></trkpt>
      <trkpt lat="-37.8314035" lon="144.9128424"></trkpt>
      <trkpt lat="-37.8314172" lon="144.9128493"></trkpt>
      <trkpt lat="-37.8314302" lon="144.9128585"></trkpt>
      <trkpt lat="-37.8314424" lon="144.9128701"></trkpt>
      <trkpt lat="-37.8314536" lon="144.9128839"></trkpt>
      <trkpt lat="-37.8314653" lon="144.9129030"></trkpt>
      <trkpt lat="-37.8314756" lon="144.9129251"></trkpt>
      <trkpt lat="-37.8314838" lon="144.9129487"></trkpt>
      <trkpt lat="-37.8314919" lon="144.9129917"></trkpt>
      <trkpt lat="-37.8314949" lon="144.9130322"></trkpt>
      <trkpt lat="-37.8314944" lon="144.9130492"></trkpt>
      <trkpt lat="-37.8314916" lon="144.9130674"></trkpt>
      <trkpt lat="-37.8314463" lon="144.9132344"></trkpt>
      <trkpt lat="-37.8313794" lon="144.9134386"></trkpt>
      <trkpt lat="-37.8312285" lon="144.9139296"></trkpt>
      <trkpt lat="-37.8312120" lon="144.9139657"></trkpt>
      <trkpt lat="-37.8311966" lon="144.9139920"></trkpt>
      <trkpt lat="-37.8311625" lon="144.9140395"></trkpt>
      <trkpt lat="-37.8311223" lon="144.9140822"></trkpt>
      <trkpt lat="-37.8310773" lon="144.9141171"></trkpt>
      <trkpt lat="-37.8310303" lon="144.9141416"></trkpt>
      <trkpt lat="-37.8309808" lon="144.9141564"></trkpt>
      <trkpt lat="-37.8309567" lon="144.9141594"></trkpt>
      <trkpt lat="-37.8309324" lon="144.9141597"></trkpt>
      <trkpt lat="-37.8309074" lon="144.9141576"></trkpt>
      <trkpt lat="-37.8308808" lon="144.9141518"></trkpt>
      <trkpt lat="-37.8307953" lon="144.9141137"></trkpt>
      <trkpt lat="-37.8306593" lon="144.9140507"></trkpt>
      <trkpt lat="-37.8306129" lon="144.9140390"></trkpt>
      <trkpt lat="-37.8305776" lon="144.9140374"></trkpt>
      <trkpt lat="-37.8305445" lon="144.9140419"></trkpt>
      <trkpt lat="-37.8305134" lon="144.9140521"></trkpt>
      <trkpt lat="-37.8304846" lon="144.9140674"></trkpt>
      <trkpt lat="-37.8304591" lon="144.9140873"></trkpt>
      <trkpt lat="-37.8304368" lon="144.9141109"></trkpt>
      <trkpt lat="-37.8304181" lon="144.9141376"></trkpt>
      <trkpt lat="-37.8304033" lon="144.9141668"></trkpt>
      <trkpt lat="-37.8303974" lon="144.9141813"></trkpt>
      <trkpt lat="-37.8303925" lon="144.9141979"></trkpt>
      <trkpt lat="-37.8303860" lon="144.9142337"></trkpt>
      <trkpt lat="-37.8303835" lon="144.9142723"></trkpt>
      <trkpt lat="-37.8303852" lon="144.9142921"></trkpt>
      <trkpt lat="-37.8303889" lon="144.9143110"></trkpt>
      <trkpt lat="-37.8303944" lon="144.9143285"></trkpt>
      <trkpt lat="-37.8304017" lon="144.9143440"></trkpt>
      <trkpt lat="-37.8304107" lon="144.9143582"></trkpt>
      <trkpt lat="-37.8304209" lon="144.9143704"></trkpt>
      <trkpt lat="-37.8304325" lon="144.9143806"></trkpt>
      <trkpt lat="-37.8304452" lon="144.9143889"></trkpt>
      <trkpt lat="-37.8304586" lon="144.9143950"></trkpt>
      <trkpt lat="-37.8304812" lon="144.9143995"></trkpt>
      <trkpt lat="-37.8305017" lon="144.9143999"></trkpt>
      <trkpt lat="-37.8305096" lon="144.9143989"></trkpt>
      <trkpt lat="-37.8305172" lon="144.9143964"></trkpt>
      <trkpt lat="-37.8305538" lon="144.9143765"></trkpt>
      <trkpt lat="-37.8306120" lon="144.9143391"></trkpt>
      <trkpt lat="-37.8306725" lon="144.9143074"></trkpt>
      <trkpt lat="-37.8306902" lon="144.9143045"></trkpt>
      <trkpt lat="-37.8307058" lon="144.9143054"></trkpt>
      <trkpt lat="-37.8307209" lon="144.9143088"></trkpt>
      <trkpt lat="-37.8307359" lon="144.9143146"></trkpt>
      <trkpt lat="-37.8307503" lon="144.9143230"></trkpt>
      <trkpt lat="-37.8307635" lon="144.9143334"></trkpt>
      <trkpt lat="-37.8307754" lon="144.9143459"></trkpt>
      <trkpt lat="-37.8307860" lon="144.9143604"></trkpt>
      <trkpt lat="-37.8307948" lon="144.9143763"></trkpt>
      <trkpt lat="-37.8308015" lon="144.9143933"></trkpt>
      <trkpt lat="-37.8308063" lon="144.9144115"></trkpt>
      <trkpt lat="-37.8308091" lon="144.9144301"></trkpt>
      <trkpt lat="-37.8308097" lon="144.9144492"></trkpt>
      <trkpt lat="-37.8308082" lon="144.9144687"></trkpt>
      <trkpt lat="-37.8308047" lon="144.9144880"></trkpt>
      <trkpt lat="-37.8307942" lon="144.9145197"></trkpt>
      <trkpt lat="-37.8307797" lon="144.9145493"></trkpt>
      <trkpt lat="-37.8307640" lon="144.9145729"></trkpt>
      <trkpt lat="-37.8307465" lon="144.9145933"></trkpt>
      <trkpt lat="-37.8307290" lon="144.9146095"></trkpt>
      <trkpt lat="-37.8307101" lon="144.9146236"></trkpt>
      <trkpt lat="-37.8306628" lon="144.9146502"></trkpt>
      <trkpt lat="-37.8305468" lon="144.9146919"></trkpt>
      <trkpt lat="-37.8304279" lon="144.9147191"></trkpt>
      <trkpt lat="-37.8303777" lon="144.9147213"></trkpt>
      <trkpt lat="-37.8303380" lon="144.9147153"></trkpt>
      <trkpt lat="-37.8303007" lon="144.9147057"></trkpt>
      <trkpt lat="-37.8302694" lon="144.9146907"></trkpt>
      <trkpt lat="-37.8302395" lon="144.9146703"></trkpt>
      <trkpt lat="-37.8302127" lon="144.9146454"></trkpt>
      <trkpt lat="-37.8301892" lon="144.9146157"></trkpt>
      <trkpt lat="-37.8301695" lon="144.9145810"></trkpt>
      <trkpt lat="-37.8301504" lon="144.9145311"></trkpt>
      <trkpt lat="-37.8301372" lon="144.9144746"></trkpt>
      <trkpt lat="-37.8301298" lon="144.9144075"></trkpt>
      <trkpt lat="-37.8301286" lon="144.9143725"></trkpt>
      <trkpt lat="-37.8301315" lon="144.9143263"></trkpt>
      <trkpt lat="-37.8302766" lon="144.9135571"></trkpt>
      <trkpt lat="-37.8302845" lon="144.9135154"></trkpt>
      <trkpt lat="-37.8304694" lon="144.9125597"></trkpt>
      <trkpt lat="-37.8304787" lon="144.9125319"></trkpt>
      <trkpt lat="-37.8304888" lon="144.9125089"></trkpt>
      <trkpt lat="-37.8305044" lon="144.9124787"></trkpt>
      <trkpt lat="-37.8305230" lon="144.9124509"></trkpt>
      <trkpt lat="-37.8305363" lon="144.9124364"></trkpt>
      <trkpt lat="-37.8305506" lon="144.9124238"></trkpt>
      <trkpt lat="-37.8305657" lon="144.9124139"></trkpt>
      <trkpt lat="-37.8305813" lon="144.9124069"></trkpt>
      <trkpt lat="-37.8305975" lon="144.9124024"></trkpt>
      <trkpt lat="-37.8306138" lon="144.9124008"></trkpt>
      <trkpt lat="-37.8306302" lon="144.9124023"></trkpt>
      <trkpt lat="-37.8306465" lon="144.9124066"></trkpt>
      <trkpt lat="-37.8306622" lon="144.9124134"></trkpt>
      <trkpt lat="-37.8306772" lon="144.9124227"></trkpt>
      <trkpt lat="-37.8306914" lon="144.9124345"></trkpt>
      <trkpt lat="-37.8307045" lon="144.9124484"></trkpt>
      <trkpt lat="-37.8307237" lon="144.9124774"></trkpt>
      <trkpt lat="-37.8307385" lon="144.9125068"></trkpt>
      <trkpt lat="-37.8307441" lon="144.9125209"></trkpt>
      <trkpt lat="-37.8307481" lon="144.9125345"></trkpt>
      <trkpt lat="-37.8307522" lon="144.9125500"></trkpt>
      <trkpt lat="-37.8307553" lon="144.9125698"></trkpt>
      <trkpt lat="-37.8307576" lon="144.9127563"></trkpt>
      <trkpt lat="-37.8307302" lon="144.9132767"></trkpt>
      <trkpt lat="-37.8307165" lon="144.9133422"></trkpt>
      <trkpt lat="-37.8306977" lon="144.9133978"></trkpt>
      <trkpt lat="-37.8306759" lon="144.9134459"></trkpt>
    </trkseg>
  </trk>
</gpx>
