<?xml version="1.0" encoding="UTF-8"?>
<gpx version="1.1" creator="tkk2gpx (Aus_Kart.ztracks converter)"
     xmlns="http://www.topografix.com/GPX/1/1"
     xmlns:xsi="http://www.w3.org/2001/XMLSchema-instance"
     xsi:schemaLocation="http://www.topografix.com/GPX/1/1 http://www.topografix.com/GPX/1/1/gpx.xsd">
  <metadata>
    <name>GVKC</name>
    <desc>Kart track, VIC AU. One lap starting and ending at the Start/Finish line. Declared length 514 m.</desc>
  </metadata>
  <wpt lat="-36.0983904" lon="145.4862566">
    <name>Start/Finish</name>
    <desc>Start/Finish line location</desc>
    <sym>Flag, Checkered</sym>
  </wpt>
  <trk>
    <name>GVKC - 1 lap</name>
    <trkseg>
      <trkpt lat="-36.0984443" lon="145.4861477"></trkpt>
      <trkpt lat="-36.0984709" lon="145.4861578"></trkpt>
      <trkpt lat="-36.0984929" lon="145.4861692"></trkpt>
      <trkpt lat="-36.0985146" lon="145.4861847"></trkpt>
      <trkpt lat="-36.0985341" lon="145.4862031"></trkpt>
      <trkpt lat="-36.0985509" lon="145.4862244"></trkpt>
      <trkpt lat="-36.0985648" lon="145.4862482"></trkpt>
      <trkpt lat="-36.0985761" lon="145.4862755"></trkpt>
      <trkpt lat="-36.0985836" lon="145.4863045"></trkpt>
      <trkpt lat="-36.0985863" lon="145.4863244"></trkpt>
      <trkpt lat="-36.0985871" lon="145.4863448"></trkpt>
      <trkpt lat="-36.0985858" lon="145.4863649"></trkpt>
      <trkpt lat="-36.0985824" lon="145.4863848"></trkpt>
      <trkpt lat="-36.0985769" lon="145.4864044"></trkpt>
      <trkpt lat="-36.0985696" lon="145.4864231"></trkpt>
      <trkpt lat="-36.0985557" lon="145.4864490"></trkpt>
      <trkpt lat="-36.0985380" lon="145.4864721"></trkpt>
      <trkpt lat="-36.0985169" lon="145.4864916"></trkpt>
      <trkpt lat="-36.0984928" lon="145.4865072"></trkpt>
      <trkpt lat="-36.0984649" lon="145.4865179"></trkpt>
      <trkpt lat="-36.0984362" lon="145.4865239"></trkpt>
      <trkpt lat="-36.0984123" lon="145.4865253"></trkpt>
      <trkpt lat="-36.0983887" lon="145.4865235"></trkpt>
      <trkpt lat="-36.0983389" lon="145.4865105"></trkpt>
      <trkpt lat="-36.0982919" lon="145.4864897"></trkpt>
      <trkpt lat="-36.0982033" lon="145.4864252"></trkpt>
      <trkpt lat="-36.0981144" lon="145.4863601"></trkpt>
      <trkpt lat="-36.0980886" lon="145.4863455"></trkpt>
      <trkpt lat="-36.0980658" lon="145.4863371"></trkpt>
      <trkpt lat="-36.0980502" lon="145.4863344"></trkpt>
      <trkpt lat="-36.0980345" lon="145.4863338"></trkpt>
      <trkpt lat="-36.0980193" lon="145.4863357"></trkpt>
      <trkpt lat="-36.0980046" lon="145.4863403"></trkpt>
      <trkpt lat="-36.0979904" lon="145.4863474"></trkpt>
      <trkpt lat="-36.0979772" lon="145.4863563"></trkpt>
      <trkpt lat="-36.0979644" lon="145.4863679"></trkpt>
      <trkpt lat="-36.0979528" lon="145.4863815"></trkpt>
      <trkpt lat="-36.0979425" lon="145.4863965"></trkpt>
      <trkpt lat="-36.0979292" lon="145.4864234"></trkpt>
      <trkpt lat="-36.0979193" lon="145.4864530"></trkpt>
      <trkpt lat="-36.0979124" lon="145.4864873"></trkpt>
      <trkpt lat="-36.0979087" lon="145.4865219"></trkpt>
      <trkpt lat="-36.0979093" lon="145.4865791"></trkpt>
      <trkpt lat="-36.0979166" lon="145.4866383"></trkpt>
      <trkpt lat="-36.0979234" lon="145.4866679"></trkpt>
      <trkpt lat="-36.0979325" lon="145.4866968"></trkpt>
      <trkpt lat="-36.0979442" lon="145.4867245"></trkpt>
      <trkpt lat="-36.0979583" lon="145.4867509"></trkpt>
      <trkpt lat="-36.0979748" lon="145.4867754"></trkpt>
      <trkpt lat="-36.0979936" lon="145.4867981"></trkpt>
      <trkpt lat="-36.0980142" lon="145.4868183"></trkpt>
      <trkpt lat="-36.0980366" lon="145.4868362"></trkpt>
      <trkpt lat="-36.0980863" lon="145.4868639"></trkpt>
      <trkpt lat="-36.0982918" lon="145.4869819"></trkpt>
      <trkpt lat="-36.0983469" lon="145.4870080"></trkpt>
      <trkpt lat="-36.0984046" lon="145.4870219"></trkpt>
      <trkpt lat="-36.0984630" lon="145.4870251"></trkpt>
      <trkpt lat="-36.0985202" lon="145.4870151"></trkpt>
      <trkpt lat="-36.0985490" lon="145.4870061"></trkpt>
      <trkpt lat="-36.0985769" lon="145.4869940"></trkpt>
      <trkpt lat="-36.0986036" lon="145.4869783"></trkpt>
      <trkpt lat="-36.0986283" lon="145.4869591"></trkpt>
      <trkpt lat="-36.0986508" lon="145.4869342"></trkpt>
      <trkpt lat="-36.0986710" lon="145.4869065"></trkpt>
      <trkpt lat="-36.0986904" lon="145.4868780"></trkpt>
      <trkpt lat="-36.0987075" lon="145.4868478"></trkpt>
      <trkpt lat="-36.0987214" lon="145.4868141"></trkpt>
      <trkpt lat="-36.0987329" lon="145.4867788"></trkpt>
      <trkpt lat="-36.0987513" lon="145.4867036"></trkpt>
      <trkpt lat="-36.0987654" lon="145.4866235"></trkpt>
      <trkpt lat="-36.0988142" lon="145.4862792"></trkpt>
      <trkpt lat="-36.0988609" lon="145.4859495"></trkpt>
      <trkpt lat="-36.0988705" lon="145.4858767"></trkpt>
      <trkpt lat="-36.0988722" lon="145.4858055"></trkpt>
      <trkpt lat="-36.0988691" lon="145.4857712"></trkpt>
      <trkpt lat="-36.0988635" lon="145.4857374"></trkpt>
      <trkpt lat="-36.0988461" lon="145.4856734"></trkpt>
      <trkpt lat="-36.0988223" lon="145.4856170"></trkpt>
      <trkpt lat="-36.0988078" lon="145.4855915"></trkpt>
      <trkpt lat="-36.0987914" lon="145.4855679"></trkpt>
      <trkpt lat="-36.0987738" lon="145.4855474"></trkpt>
      <trkpt lat="-36.0987544" lon="145.4855294"></trkpt>
      <trkpt lat="-36.0987339" lon="145.4855150"></trkpt>
      <trkpt lat="-36.0987120" lon="145.4855035"></trkpt>
      <trkpt lat="-36.0986889" lon="145.4854950"></trkpt>
      <trkpt lat="-36.0986648" lon="145.4854898"></trkpt>
      <trkpt lat="-36.0986396" lon="145.4854881"></trkpt>
      <trkpt lat="-36.0986142" lon="145.4854899"></trkpt>
      <trkpt lat="-36.0985886" lon="145.4854952"></trkpt>
      <trkpt lat="-36.0985635" lon="145.4855038"></trkpt>
      <trkpt lat="-36.0985393" lon="145.4855153"></trkpt>
      <trkpt lat="-36.0985140" lon="145.4855312"></trkpt>
      <trkpt lat="-36.0984167" lon="145.4856123"></trkpt>
      <trkpt lat="-36.0983898" lon="145.4856283"></trkpt>
      <trkpt lat="-36.0983589" lon="145.4856413"></trkpt>
      <trkpt lat="-36.0983062" lon="145.4856545"></trkpt>
      <trkpt lat="-36.0982521" lon="145.4856588"></trkpt>
      <trkpt lat="-36.0981995" lon="145.4856588"></trkpt>
      <trkpt lat="-36.0981480" lon="145.4856630"></trkpt>
      <trkpt lat="-36.0981293" lon="145.4856694"></trkpt>
      <trkpt lat="-36.0981131" lon="145.4856780"></trkpt>
      <trkpt lat="-36.0980985" lon="145.4856886"></trkpt>
      <trkpt lat="-36.0980850" lon="145.4857018"></trkpt>
      <trkpt lat="-36.0980733" lon="145.4857171"></trkpt>
      <trkpt lat="-36.0980636" lon="145.4857339"></trkpt>
      <trkpt lat="-36.0980557" lon="145.4857532"></trkpt>
      <trkpt lat="-36.0980502" lon="145.4857740"></trkpt>
      <trkpt lat="-36.0980472" lon="145.4857954"></trkpt>
      <trkpt lat="-36.0980469" lon="145.4858185"></trkpt>
      <trkpt lat="-36.0980494" lon="145.4858421"></trkpt>
      <trkpt lat="-36.0980542" lon="145.4858644"></trkpt>
      <trkpt lat="-36.0980648" lon="145.4858918"></trkpt>
      <trkpt lat="-36.0980788" lon="145.4859176"></trkpt>
      <trkpt lat="-36.0981142" lon="145.4859688"></trkpt>
      <trkpt lat="-36.0981554" lon="145.4860175"></trkpt>
      <trkpt lat="-36.0981931" lon="145.4860494"></trkpt>
      <trkpt lat="-36.0982333" lon="145.4860777"></trkpt>
      <trkpt lat="-36.0982882" lon="145.4861051"></trkpt>
      <trkpt lat="-36.0984443" lon="145.4861477"></trkpt>
    </trkseg>
  </trk>
</gpx>
