<?xml version="1.0" encoding="UTF-8"?>
<gpx version="1.1" creator="tkk2gpx (Aus_Kart.ztracks converter)"
     xmlns="http://www.topografix.com/GPX/1/1"
     xmlns:xsi="http://www.w3.org/2001/XMLSchema-instance"
     xsi:schemaLocation="http://www.topografix.com/GPX/1/1 http://www.topografix.com/GPX/1/1/gpx.xsd">
  <metadata>
    <name>HedlandKart</name>
    <desc>Kart track, WA AU. One lap starting and ending at the Start/Finish line. Declared length 670 m.</desc>
  </metadata>
  <wpt lat="-20.3884012" lon="118.6559635">
    <name>Start/Finish</name>
    <desc>Start/Finish line location</desc>
    <sym>Flag, Checkered</sym>
  </wpt>
  <trk>
    <name>HedlandKart - 1 lap</name>
    <trkseg>
      <trkpt lat="-20.3884580" lon="118.6559287"></trkpt>
      <trkpt lat="-20.3885163" lon="118.6560525"></trkpt>
      <trkpt lat="-20.3885762" lon="118.6561765"></trkpt>
      <trkpt lat="-20.3885932" lon="118.6562012"></trkpt>
      <trkpt lat="-20.3886096" lon="118.6562191"></trkpt>
      <trkpt lat="-20.3886286" lon="118.6562355"></trkpt>
      <trkpt lat="-20.3886492" lon="118.6562485"></trkpt>
      <trkpt lat="-20.3886632" lon="118.6562550"></trkpt>
      <trkpt lat="-20.3886777" lon="118.6562599"></trkpt>
      <trkpt lat="-20.3886927" lon="118.6562626"></trkpt>
      <trkpt lat="-20.3887102" lon="118.6562631"></trkpt>
      <trkpt lat="-20.3887283" lon="118.6562611"></trkpt>
      <trkpt lat="-20.3887450" lon="118.6562562"></trkpt>
      <trkpt lat="-20.3887594" lon="118.6562483"></trkpt>
      <trkpt lat="-20.3887726" lon="118.6562377"></trkpt>
      <trkpt lat="-20.3887837" lon="118.6562253"></trkpt>
      <trkpt lat="-20.3887924" lon="118.6562111"></trkpt>
      <trkpt lat="-20.3887989" lon="118.6561950"></trkpt>
      <trkpt lat="-20.3888033" lon="118.6561783"></trkpt>
      <trkpt lat="-20.3888056" lon="118.6561601"></trkpt>
      <trkpt lat="-20.3888055" lon="118.6561413"></trkpt>
      <trkpt lat="-20.3888033" lon="118.6561232"></trkpt>
      <trkpt lat="-20.3887991" lon="118.6561074"></trkpt>
      <trkpt lat="-20.3887930" lon="118.6560923"></trkpt>
      <trkpt lat="-20.3887854" lon="118.6560779"></trkpt>
      <trkpt lat="-20.3887710" lon="118.6560577"></trkpt>
      <trkpt lat="-20.3887523" lon="118.6560370"></trkpt>
      <trkpt lat="-20.3886662" lon="118.6559564"></trkpt>
      <trkpt lat="-20.3886305" lon="118.6559119"></trkpt>
      <trkpt lat="-20.3886163" lon="118.6558879"></trkpt>
      <trkpt lat="-20.3886047" lon="118.6558628"></trkpt>
      <trkpt lat="-20.3885963" lon="118.6558371"></trkpt>
      <trkpt lat="-20.3885913" lon="118.6558107"></trkpt>
      <trkpt lat="-20.3885903" lon="118.6557835"></trkpt>
      <trkpt lat="-20.3885930" lon="118.6557565"></trkpt>
      <trkpt lat="-20.3885992" lon="118.6557312"></trkpt>
      <trkpt lat="-20.3886087" lon="118.6557074"></trkpt>
      <trkpt lat="-20.3886214" lon="118.6556862"></trkpt>
      <trkpt lat="-20.3886370" lon="118.6556679"></trkpt>
      <trkpt lat="-20.3886553" lon="118.6556536"></trkpt>
      <trkpt lat="-20.3886758" lon="118.6556426"></trkpt>
      <trkpt lat="-20.3886982" lon="118.6556345"></trkpt>
      <trkpt lat="-20.3887218" lon="118.6556297"></trkpt>
      <trkpt lat="-20.3887467" lon="118.6556283"></trkpt>
      <trkpt lat="-20.3887715" lon="118.6556309"></trkpt>
      <trkpt lat="-20.3887955" lon="118.6556384"></trkpt>
      <trkpt lat="-20.3888183" lon="118.6556502"></trkpt>
      <trkpt lat="-20.3888402" lon="118.6556668"></trkpt>
      <trkpt lat="-20.3888601" lon="118.6556871"></trkpt>
      <trkpt lat="-20.3888778" lon="118.6557100"></trkpt>
      <trkpt lat="-20.3888948" lon="118.6557384"></trkpt>
      <trkpt lat="-20.3889408" lon="118.6558560"></trkpt>
      <trkpt lat="-20.3889634" lon="118.6559441"></trkpt>
      <trkpt lat="-20.3889790" lon="118.6560185"></trkpt>
      <trkpt lat="-20.3889861" lon="118.6560779"></trkpt>
      <trkpt lat="-20.3889918" lon="118.6561321"></trkpt>
      <trkpt lat="-20.3889920" lon="118.6561697"></trkpt>
      <trkpt lat="-20.3889887" lon="118.6562050"></trkpt>
      <trkpt lat="-20.3889412" lon="118.6564912"></trkpt>
      <trkpt lat="-20.3889349" lon="118.6565506"></trkpt>
      <trkpt lat="-20.3889303" lon="118.6567157"></trkpt>
      <trkpt lat="-20.3889220" lon="118.6567682"></trkpt>
      <trkpt lat="-20.3889146" lon="118.6567938"></trkpt>
      <trkpt lat="-20.3889048" lon="118.6568182"></trkpt>
      <trkpt lat="-20.3888928" lon="118.6568405"></trkpt>
      <trkpt lat="-20.3888785" lon="118.6568608"></trkpt>
      <trkpt lat="-20.3888625" lon="118.6568784"></trkpt>
      <trkpt lat="-20.3888440" lon="118.6568935"></trkpt>
      <trkpt lat="-20.3888283" lon="118.6569029"></trkpt>
      <trkpt lat="-20.3888111" lon="118.6569109"></trkpt>
      <trkpt lat="-20.3887934" lon="118.6569164"></trkpt>
      <trkpt lat="-20.3887749" lon="118.6569189"></trkpt>
      <trkpt lat="-20.3887560" lon="118.6569189"></trkpt>
      <trkpt lat="-20.3887377" lon="118.6569169"></trkpt>
      <trkpt lat="-20.3887141" lon="118.6569108"></trkpt>
      <trkpt lat="-20.3886917" lon="118.6569013"></trkpt>
      <trkpt lat="-20.3886699" lon="118.6568886"></trkpt>
      <trkpt lat="-20.3886496" lon="118.6568730"></trkpt>
      <trkpt lat="-20.3886311" lon="118.6568541"></trkpt>
      <trkpt lat="-20.3886151" lon="118.6568326"></trkpt>
      <trkpt lat="-20.3886020" lon="118.6568083"></trkpt>
      <trkpt lat="-20.3885920" lon="118.6567820"></trkpt>
      <trkpt lat="-20.3885857" lon="118.6567535"></trkpt>
      <trkpt lat="-20.3885820" lon="118.6567240"></trkpt>
      <trkpt lat="-20.3885797" lon="118.6566623"></trkpt>
      <trkpt lat="-20.3885726" lon="118.6566009"></trkpt>
      <trkpt lat="-20.3885590" lon="118.6565399"></trkpt>
      <trkpt lat="-20.3885360" lon="118.6564822"></trkpt>
      <trkpt lat="-20.3885118" lon="118.6564409"></trkpt>
      <trkpt lat="-20.3884814" lon="118.6564013"></trkpt>
      <trkpt lat="-20.3882807" lon="118.6562023"></trkpt>
      <trkpt lat="-20.3880584" lon="118.6558667"></trkpt>
      <trkpt lat="-20.3878357" lon="118.6554590"></trkpt>
      <trkpt lat="-20.3878243" lon="118.6554305"></trkpt>
      <trkpt lat="-20.3878178" lon="118.6554075"></trkpt>
      <trkpt lat="-20.3878127" lon="118.6553820"></trkpt>
      <trkpt lat="-20.3878103" lon="118.6553564"></trkpt>
      <trkpt lat="-20.3878107" lon="118.6553319"></trkpt>
      <trkpt lat="-20.3878142" lon="118.6553075"></trkpt>
      <trkpt lat="-20.3878228" lon="118.6552796"></trkpt>
      <trkpt lat="-20.3878351" lon="118.6552535"></trkpt>
      <trkpt lat="-20.3878473" lon="118.6552358"></trkpt>
      <trkpt lat="-20.3878655" lon="118.6552172"></trkpt>
      <trkpt lat="-20.3879911" lon="118.6551206"></trkpt>
      <trkpt lat="-20.3881231" lon="118.6550326"></trkpt>
      <trkpt lat="-20.3881470" lon="118.6550209"></trkpt>
      <trkpt lat="-20.3881676" lon="118.6550144"></trkpt>
      <trkpt lat="-20.3881945" lon="118.6550089"></trkpt>
      <trkpt lat="-20.3882215" lon="118.6550080"></trkpt>
      <trkpt lat="-20.3882377" lon="118.6550108"></trkpt>
      <trkpt lat="-20.3882534" lon="118.6550159"></trkpt>
      <trkpt lat="-20.3882678" lon="118.6550234"></trkpt>
      <trkpt lat="-20.3882808" lon="118.6550337"></trkpt>
      <trkpt lat="-20.3882923" lon="118.6550464"></trkpt>
      <trkpt lat="-20.3883023" lon="118.6550606"></trkpt>
      <trkpt lat="-20.3883133" lon="118.6550839"></trkpt>
      <trkpt lat="-20.3883227" lon="118.6551146"></trkpt>
      <trkpt lat="-20.3883563" lon="118.6552517"></trkpt>
      <trkpt lat="-20.3883813" lon="118.6553903"></trkpt>
      <trkpt lat="-20.3883821" lon="118.6554221"></trkpt>
      <trkpt lat="-20.3883792" lon="118.6554482"></trkpt>
      <trkpt lat="-20.3883744" lon="118.6554743"></trkpt>
      <trkpt lat="-20.3883655" lon="118.6555011"></trkpt>
      <trkpt lat="-20.3883393" lon="118.6555446"></trkpt>
      <trkpt lat="-20.3883122" lon="118.6555872"></trkpt>
      <trkpt lat="-20.3883017" lon="118.6556107"></trkpt>
      <trkpt lat="-20.3882947" lon="118.6556332"></trkpt>
      <trkpt lat="-20.3882907" lon="118.6556572"></trkpt>
      <trkpt lat="-20.3882900" lon="118.6556814"></trkpt>
      <trkpt lat="-20.3882931" lon="118.6557055"></trkpt>
      <trkpt lat="-20.3882997" lon="118.6557289"></trkpt>
      <trkpt lat="-20.3883089" lon="118.6557499"></trkpt>
      <trkpt lat="-20.3883229" lon="118.6557722"></trkpt>
      <trkpt lat="-20.3883755" lon="118.6558303"></trkpt>
      <trkpt lat="-20.3884296" lon="118.6558877"></trkpt>
      <trkpt lat="-20.3884580" lon="118.6559287"></trkpt>
    </trkseg>
  </trk>
</gpx>
