<?xml version="1.0" encoding="UTF-8"?>
<gpx version="1.1" creator="tkk2gpx (Aus_Kart.ztracks converter)"
     xmlns="http://www.topografix.com/GPX/1/1"
     xmlns:xsi="http://www.w3.org/2001/XMLSchema-instance"
     xsi:schemaLocation="http://www.topografix.com/GPX/1/1 http://www.topografix.com/GPX/1/1/gpx.xsd">
  <metadata>
    <name>IpswichK</name>
    <desc>Kart track, QLD AU. One lap starting and ending at the Start/Finish line. Declared length 1040 m.</desc>
  </metadata>
  <wpt lat="-27.6933786" lon="152.6661036">
    <name>Start/Finish</name>
    <desc>Start/Finish line location</desc>
    <sym>Flag, Checkered</sym>
  </wpt>
  <trk>
    <name>IpswichK - 1 lap</name>
    <trkseg>
      <trkpt lat="-27.6933474" lon="152.6659446"></trkpt>
      <trkpt lat="-27.6933310" lon="152.6659460"></trkpt>
      <trkpt lat="-27.6933147" lon="152.6659452"></trkpt>
      <trkpt lat="-27.6932993" lon="152.6659419"></trkpt>
      <trkpt lat="-27.6932852" lon="152.6659360"></trkpt>
      <trkpt lat="-27.6932720" lon="152.6659277"></trkpt>
      <trkpt lat="-27.6932602" lon="152.6659177"></trkpt>
      <trkpt lat="-27.6932494" lon="152.6659053"></trkpt>
      <trkpt lat="-27.6932401" lon="152.6658911"></trkpt>
      <trkpt lat="-27.6932328" lon="152.6658757"></trkpt>
      <trkpt lat="-27.6932273" lon="152.6658582"></trkpt>
      <trkpt lat="-27.6932239" lon="152.6658396"></trkpt>
      <trkpt lat="-27.6932230" lon="152.6658206"></trkpt>
      <trkpt lat="-27.6932247" lon="152.6658005"></trkpt>
      <trkpt lat="-27.6932290" lon="152.6657801"></trkpt>
      <trkpt lat="-27.6932361" lon="152.6657594"></trkpt>
      <trkpt lat="-27.6932473" lon="152.6657346"></trkpt>
      <trkpt lat="-27.6932626" lon="152.6657095"></trkpt>
      <trkpt lat="-27.6932850" lon="152.6656820"></trkpt>
      <trkpt lat="-27.6934117" lon="152.6655800"></trkpt>
      <trkpt lat="-27.6935724" lon="152.6654687"></trkpt>
      <trkpt lat="-27.6938896" lon="152.6652534"></trkpt>
      <trkpt lat="-27.6939765" lon="152.6651871"></trkpt>
      <trkpt lat="-27.6940424" lon="152.6651274"></trkpt>
      <trkpt lat="-27.6940678" lon="152.6650949"></trkpt>
      <trkpt lat="-27.6940843" lon="152.6650639"></trkpt>
      <trkpt lat="-27.6940903" lon="152.6650461"></trkpt>
      <trkpt lat="-27.6940940" lon="152.6650283"></trkpt>
      <trkpt lat="-27.6940957" lon="152.6650117"></trkpt>
      <trkpt lat="-27.6940959" lon="152.6649997"></trkpt>
      <trkpt lat="-27.6940949" lon="152.6649885"></trkpt>
      <trkpt lat="-27.6940923" lon="152.6649769"></trkpt>
      <trkpt lat="-27.6940868" lon="152.6649610"></trkpt>
      <trkpt lat="-27.6940791" lon="152.6649445"></trkpt>
      <trkpt lat="-27.6940695" lon="152.6649293"></trkpt>
      <trkpt lat="-27.6940579" lon="152.6649156"></trkpt>
      <trkpt lat="-27.6940443" lon="152.6649031"></trkpt>
      <trkpt lat="-27.6940296" lon="152.6648925"></trkpt>
      <trkpt lat="-27.6940054" lon="152.6648800"></trkpt>
      <trkpt lat="-27.6939780" lon="152.6648718"></trkpt>
      <trkpt lat="-27.6939436" lon="152.6648680"></trkpt>
      <trkpt lat="-27.6938965" lon="152.6648707"></trkpt>
      <trkpt lat="-27.6931495" lon="152.6650311"></trkpt>
      <trkpt lat="-27.6926414" lon="152.6651297"></trkpt>
      <trkpt lat="-27.6925992" lon="152.6651455"></trkpt>
      <trkpt lat="-27.6925697" lon="152.6651627"></trkpt>
      <trkpt lat="-27.6925555" lon="152.6651742"></trkpt>
      <trkpt lat="-27.6925436" lon="152.6651868"></trkpt>
      <trkpt lat="-27.6925337" lon="152.6652005"></trkpt>
      <trkpt lat="-27.6925259" lon="152.6652151"></trkpt>
      <trkpt lat="-27.6925200" lon="152.6652307"></trkpt>
      <trkpt lat="-27.6925164" lon="152.6652465"></trkpt>
      <trkpt lat="-27.6925153" lon="152.6652623"></trkpt>
      <trkpt lat="-27.6925163" lon="152.6652783"></trkpt>
      <trkpt lat="-27.6925195" lon="152.6652937"></trkpt>
      <trkpt lat="-27.6925249" lon="152.6653085"></trkpt>
      <trkpt lat="-27.6925324" lon="152.6653227"></trkpt>
      <trkpt lat="-27.6925416" lon="152.6653355"></trkpt>
      <trkpt lat="-27.6925526" lon="152.6653467"></trkpt>
      <trkpt lat="-27.6925653" lon="152.6653565"></trkpt>
      <trkpt lat="-27.6925791" lon="152.6653641"></trkpt>
      <trkpt lat="-27.6926008" lon="152.6653707"></trkpt>
      <trkpt lat="-27.6926268" lon="152.6653732"></trkpt>
      <trkpt lat="-27.6926921" lon="152.6653663"></trkpt>
      <trkpt lat="-27.6927577" lon="152.6653599"></trkpt>
      <trkpt lat="-27.6927851" lon="152.6653636"></trkpt>
      <trkpt lat="-27.6928079" lon="152.6653716"></trkpt>
      <trkpt lat="-27.6928216" lon="152.6653794"></trkpt>
      <trkpt lat="-27.6928341" lon="152.6653891"></trkpt>
      <trkpt lat="-27.6928450" lon="152.6654002"></trkpt>
      <trkpt lat="-27.6928543" lon="152.6654130"></trkpt>
      <trkpt lat="-27.6928621" lon="152.6654273"></trkpt>
      <trkpt lat="-27.6928679" lon="152.6654423"></trkpt>
      <trkpt lat="-27.6928720" lon="152.6654587"></trkpt>
      <trkpt lat="-27.6928741" lon="152.6654759"></trkpt>
      <trkpt lat="-27.6928740" lon="152.6654932"></trkpt>
      <trkpt lat="-27.6928718" lon="152.6655107"></trkpt>
      <trkpt lat="-27.6928674" lon="152.6655283"></trkpt>
      <trkpt lat="-27.6928601" lon="152.6655464"></trkpt>
      <trkpt lat="-27.6928340" lon="152.6655858"></trkpt>
      <trkpt lat="-27.6928008" lon="152.6656263"></trkpt>
      <trkpt lat="-27.6927272" lon="152.6657111"></trkpt>
      <trkpt lat="-27.6927077" lon="152.6657447"></trkpt>
      <trkpt lat="-27.6926932" lon="152.6657792"></trkpt>
      <trkpt lat="-27.6926820" lon="152.6658193"></trkpt>
      <trkpt lat="-27.6926752" lon="152.6658591"></trkpt>
      <trkpt lat="-27.6926733" lon="152.6658882"></trkpt>
      <trkpt lat="-27.6926743" lon="152.6659162"></trkpt>
      <trkpt lat="-27.6926773" lon="152.6659446"></trkpt>
      <trkpt lat="-27.6926835" lon="152.6659740"></trkpt>
      <trkpt lat="-27.6926970" lon="152.6660152"></trkpt>
      <trkpt lat="-27.6927156" lon="152.6660568"></trkpt>
      <trkpt lat="-27.6927380" lon="152.6660940"></trkpt>
      <trkpt lat="-27.6927656" lon="152.6661296"></trkpt>
      <trkpt lat="-27.6928048" lon="152.6661696"></trkpt>
      <trkpt lat="-27.6928531" lon="152.6662097"></trkpt>
      <trkpt lat="-27.6930405" lon="152.6663292"></trkpt>
      <trkpt lat="-27.6932829" lon="152.6664474"></trkpt>
      <trkpt lat="-27.6933015" lon="152.6664572"></trkpt>
      <trkpt lat="-27.6933730" lon="152.6664946"></trkpt>
      <trkpt lat="-27.6935543" lon="152.6666057"></trkpt>
      <trkpt lat="-27.6936051" lon="152.6666511"></trkpt>
      <trkpt lat="-27.6936461" lon="152.6666982"></trkpt>
      <trkpt lat="-27.6936800" lon="152.6667478"></trkpt>
      <trkpt lat="-27.6937070" lon="152.6668001"></trkpt>
      <trkpt lat="-27.6937263" lon="152.6668526"></trkpt>
      <trkpt lat="-27.6937378" lon="152.6669063"></trkpt>
      <trkpt lat="-27.6937392" lon="152.6669587"></trkpt>
      <trkpt lat="-27.6937348" lon="152.6670124"></trkpt>
      <trkpt lat="-27.6937242" lon="152.6670775"></trkpt>
      <trkpt lat="-27.6937153" lon="152.6671390"></trkpt>
      <trkpt lat="-27.6937157" lon="152.6671741"></trkpt>
      <trkpt lat="-27.6937205" lon="152.6672056"></trkpt>
      <trkpt lat="-27.6937299" lon="152.6672353"></trkpt>
      <trkpt lat="-27.6937434" lon="152.6672627"></trkpt>
      <trkpt lat="-27.6937613" lon="152.6672872"></trkpt>
      <trkpt lat="-27.6937813" lon="152.6673076"></trkpt>
      <trkpt lat="-27.6937970" lon="152.6673193"></trkpt>
      <trkpt lat="-27.6938133" lon="152.6673280"></trkpt>
      <trkpt lat="-27.6938305" lon="152.6673346"></trkpt>
      <trkpt lat="-27.6938494" lon="152.6673384"></trkpt>
      <trkpt lat="-27.6938772" lon="152.6673391"></trkpt>
      <trkpt lat="-27.6939088" lon="152.6673348"></trkpt>
      <trkpt lat="-27.6939617" lon="152.6673183"></trkpt>
      <trkpt lat="-27.6940161" lon="152.6672947"></trkpt>
      <trkpt lat="-27.6940614" lon="152.6672704"></trkpt>
      <trkpt lat="-27.6941019" lon="152.6672427"></trkpt>
      <trkpt lat="-27.6941321" lon="152.6672155"></trkpt>
      <trkpt lat="-27.6941583" lon="152.6671852"></trkpt>
      <trkpt lat="-27.6941823" lon="152.6671497"></trkpt>
      <trkpt lat="-27.6942026" lon="152.6671113"></trkpt>
      <trkpt lat="-27.6942191" lon="152.6670700"></trkpt>
      <trkpt lat="-27.6942313" lon="152.6670268"></trkpt>
      <trkpt lat="-27.6942390" lon="152.6669828"></trkpt>
      <trkpt lat="-27.6942419" lon="152.6669362"></trkpt>
      <trkpt lat="-27.6942384" lon="152.6668740"></trkpt>
      <trkpt lat="-27.6942282" lon="152.6668097"></trkpt>
      <trkpt lat="-27.6942118" lon="152.6667467"></trkpt>
      <trkpt lat="-27.6941895" lon="152.6666863"></trkpt>
      <trkpt lat="-27.6941626" lon="152.6666316"></trkpt>
      <trkpt lat="-27.6941316" lon="152.6665835"></trkpt>
      <trkpt lat="-27.6941049" lon="152.6665530"></trkpt>
      <trkpt lat="-27.6940755" lon="152.6665281"></trkpt>
      <trkpt lat="-27.6940433" lon="152.6665088"></trkpt>
      <trkpt lat="-27.6940068" lon="152.6664919"></trkpt>
      <trkpt lat="-27.6939455" lon="152.6664694"></trkpt>
      <trkpt lat="-27.6938859" lon="152.6664447"></trkpt>
      <trkpt lat="-27.6938539" lon="152.6664229"></trkpt>
      <trkpt lat="-27.6938268" lon="152.6663966"></trkpt>
      <trkpt lat="-27.6937952" lon="152.6663531"></trkpt>
      <trkpt lat="-27.6937690" lon="152.6663054"></trkpt>
      <trkpt lat="-27.6937534" lon="152.6662669"></trkpt>
      <trkpt lat="-27.6937434" lon="152.6662289"></trkpt>
      <trkpt lat="-27.6937389" lon="152.6661930"></trkpt>
      <trkpt lat="-27.6937394" lon="152.6661582"></trkpt>
      <trkpt lat="-27.6937450" lon="152.6661281"></trkpt>
      <trkpt lat="-27.6937547" lon="152.6660999"></trkpt>
      <trkpt lat="-27.6937675" lon="152.6660747"></trkpt>
      <trkpt lat="-27.6937839" lon="152.6660523"></trkpt>
      <trkpt lat="-27.6937971" lon="152.6660394"></trkpt>
      <trkpt lat="-27.6938120" lon="152.6660281"></trkpt>
      <trkpt lat="-27.6938279" lon="152.6660192"></trkpt>
      <trkpt lat="-27.6938441" lon="152.6660130"></trkpt>
      <trkpt lat="-27.6938613" lon="152.6660092"></trkpt>
      <trkpt lat="-27.6938819" lon="152.6660074"></trkpt>
      <trkpt lat="-27.6939632" lon="152.6660186"></trkpt>
      <trkpt lat="-27.6940455" lon="152.6660294"></trkpt>
      <trkpt lat="-27.6940781" lon="152.6660247"></trkpt>
      <trkpt lat="-27.6941056" lon="152.6660147"></trkpt>
      <trkpt lat="-27.6941231" lon="152.6660051"></trkpt>
      <trkpt lat="-27.6941394" lon="152.6659933"></trkpt>
      <trkpt lat="-27.6941540" lon="152.6659797"></trkpt>
      <trkpt lat="-27.6941729" lon="152.6659556"></trkpt>
      <trkpt lat="-27.6941880" lon="152.6659283"></trkpt>
      <trkpt lat="-27.6942000" lon="152.6658977"></trkpt>
      <trkpt lat="-27.6942080" lon="152.6658651"></trkpt>
      <trkpt lat="-27.6942122" lon="152.6658308"></trkpt>
      <trkpt lat="-27.6942118" lon="152.6657913"></trkpt>
      <trkpt lat="-27.6941995" lon="152.6656953"></trkpt>
      <trkpt lat="-27.6941787" lon="152.6655965"></trkpt>
      <trkpt lat="-27.6941622" lon="152.6655429"></trkpt>
      <trkpt lat="-27.6941424" lon="152.6654983"></trkpt>
      <trkpt lat="-27.6941233" lon="152.6654690"></trkpt>
      <trkpt lat="-27.6941026" lon="152.6654460"></trkpt>
      <trkpt lat="-27.6940866" lon="152.6654335"></trkpt>
      <trkpt lat="-27.6940698" lon="152.6654245"></trkpt>
      <trkpt lat="-27.6940521" lon="152.6654182"></trkpt>
      <trkpt lat="-27.6940326" lon="152.6654152"></trkpt>
      <trkpt lat="-27.6940035" lon="152.6654163"></trkpt>
      <trkpt lat="-27.6939718" lon="152.6654233"></trkpt>
      <trkpt lat="-27.6939311" lon="152.6654413"></trkpt>
      <trkpt lat="-27.6938883" lon="152.6654686"></trkpt>
      <trkpt lat="-27.6937641" lon="152.6655834"></trkpt>
      <trkpt lat="-27.6935012" lon="152.6658545"></trkpt>
      <trkpt lat="-27.6934476" lon="152.6658970"></trkpt>
      <trkpt lat="-27.6934015" lon="152.6659255"></trkpt>
      <trkpt lat="-27.6933736" lon="152.6659380"></trkpt>
      <trkpt lat="-27.6933474" lon="152.6659446"></trkpt>
    </trkseg>
  </trk>
</gpx>
