<?xml version="1.0" encoding="UTF-8"?>
<gpx version="1.1" creator="tkk2gpx (Aus_Kart.ztracks converter)"
     xmlns="http://www.topografix.com/GPX/1/1"
     xmlns:xsi="http://www.w3.org/2001/XMLSchema-instance"
     xsi:schemaLocation="http://www.topografix.com/GPX/1/1 http://www.topografix.com/GPX/1/1/gpx.xsd">
  <metadata>
    <name>IpswichK2</name>
    <desc>Kart track, QLD AU. One lap starting and ending at the Start/Finish line. Declared length 894 m.</desc>
  </metadata>
  <wpt lat="-27.6933627" lon="152.6661082">
    <name>Start/Finish</name>
    <desc>Start/Finish line location</desc>
    <sym>Flag, Checkered</sym>
  </wpt>
  <trk>
    <name>IpswichK2 - 1 lap</name>
    <trkseg>
      <trkpt lat="-27.6933352" lon="152.6659226"></trkpt>
      <trkpt lat="-27.6933171" lon="152.6659266"></trkpt>
      <trkpt lat="-27.6932995" lon="152.6659271"></trkpt>
      <trkpt lat="-27.6932867" lon="152.6659251"></trkpt>
      <trkpt lat="-27.6932740" lon="152.6659212"></trkpt>
      <trkpt lat="-27.6932620" lon="152.6659156"></trkpt>
      <trkpt lat="-27.6932514" lon="152.6659085"></trkpt>
      <trkpt lat="-27.6932425" lon="152.6658997"></trkpt>
      <trkpt lat="-27.6932346" lon="152.6658891"></trkpt>
      <trkpt lat="-27.6932280" lon="152.6658776"></trkpt>
      <trkpt lat="-27.6932228" lon="152.6658661"></trkpt>
      <trkpt lat="-27.6932189" lon="152.6658518"></trkpt>
      <trkpt lat="-27.6932171" lon="152.6658370"></trkpt>
      <trkpt lat="-27.6932163" lon="152.6658236"></trkpt>
      <trkpt lat="-27.6932163" lon="152.6658120"></trkpt>
      <trkpt lat="-27.6932179" lon="152.6658000"></trkpt>
      <trkpt lat="-27.6932248" lon="152.6657704"></trkpt>
      <trkpt lat="-27.6932372" lon="152.6657379"></trkpt>
      <trkpt lat="-27.6932571" lon="152.6657064"></trkpt>
      <trkpt lat="-27.6932875" lon="152.6656731"></trkpt>
      <trkpt lat="-27.6935582" lon="152.6654745"></trkpt>
      <trkpt lat="-27.6938972" lon="152.6652456"></trkpt>
      <trkpt lat="-27.6939760" lon="152.6651839"></trkpt>
      <trkpt lat="-27.6940212" lon="152.6651427"></trkpt>
      <trkpt lat="-27.6940596" lon="152.6650990"></trkpt>
      <trkpt lat="-27.6940724" lon="152.6650771"></trkpt>
      <trkpt lat="-27.6940820" lon="152.6650551"></trkpt>
      <trkpt lat="-27.6940882" lon="152.6650341"></trkpt>
      <trkpt lat="-27.6940907" lon="152.6650187"></trkpt>
      <trkpt lat="-27.6940912" lon="152.6650040"></trkpt>
      <trkpt lat="-27.6940898" lon="152.6649893"></trkpt>
      <trkpt lat="-27.6940859" lon="152.6649728"></trkpt>
      <trkpt lat="-27.6940799" lon="152.6649563"></trkpt>
      <trkpt lat="-27.6940729" lon="152.6649417"></trkpt>
      <trkpt lat="-27.6940671" lon="152.6649319"></trkpt>
      <trkpt lat="-27.6940605" lon="152.6649235"></trkpt>
      <trkpt lat="-27.6940523" lon="152.6649155"></trkpt>
      <trkpt lat="-27.6940364" lon="152.6649042"></trkpt>
      <trkpt lat="-27.6940171" lon="152.6648938"></trkpt>
      <trkpt lat="-27.6939977" lon="152.6648865"></trkpt>
      <trkpt lat="-27.6939760" lon="152.6648831"></trkpt>
      <trkpt lat="-27.6939471" lon="152.6648843"></trkpt>
      <trkpt lat="-27.6932736" lon="152.6649949"></trkpt>
      <trkpt lat="-27.6928774" lon="152.6650734"></trkpt>
      <trkpt lat="-27.6925820" lon="152.6651518"></trkpt>
      <trkpt lat="-27.6925602" lon="152.6651638"></trkpt>
      <trkpt lat="-27.6925459" lon="152.6651754"></trkpt>
      <trkpt lat="-27.6925336" lon="152.6651885"></trkpt>
      <trkpt lat="-27.6925222" lon="152.6652028"></trkpt>
      <trkpt lat="-27.6925125" lon="152.6652183"></trkpt>
      <trkpt lat="-27.6925054" lon="152.6652345"></trkpt>
      <trkpt lat="-27.6925017" lon="152.6652510"></trkpt>
      <trkpt lat="-27.6925003" lon="152.6652680"></trkpt>
      <trkpt lat="-27.6925004" lon="152.6652821"></trkpt>
      <trkpt lat="-27.6925018" lon="152.6652925"></trkpt>
      <trkpt lat="-27.6925036" lon="152.6652980"></trkpt>
      <trkpt lat="-27.6925111" lon="152.6653142"></trkpt>
      <trkpt lat="-27.6925221" lon="152.6653334"></trkpt>
      <trkpt lat="-27.6925337" lon="152.6653492"></trkpt>
      <trkpt lat="-27.6925418" lon="152.6653568"></trkpt>
      <trkpt lat="-27.6925501" lon="152.6653626"></trkpt>
      <trkpt lat="-27.6925593" lon="152.6653673"></trkpt>
      <trkpt lat="-27.6925770" lon="152.6653733"></trkpt>
      <trkpt lat="-27.6925968" lon="152.6653766"></trkpt>
      <trkpt lat="-27.6926513" lon="152.6653739"></trkpt>
      <trkpt lat="-27.6927566" lon="152.6653618"></trkpt>
      <trkpt lat="-27.6927860" lon="152.6653636"></trkpt>
      <trkpt lat="-27.6928120" lon="152.6653702"></trkpt>
      <trkpt lat="-27.6928280" lon="152.6653781"></trkpt>
      <trkpt lat="-27.6928431" lon="152.6653886"></trkpt>
      <trkpt lat="-27.6928562" lon="152.6654009"></trkpt>
      <trkpt lat="-27.6928670" lon="152.6654149"></trkpt>
      <trkpt lat="-27.6928760" lon="152.6654306"></trkpt>
      <trkpt lat="-27.6928825" lon="152.6654472"></trkpt>
      <trkpt lat="-27.6928857" lon="152.6654600"></trkpt>
      <trkpt lat="-27.6928876" lon="152.6654735"></trkpt>
      <trkpt lat="-27.6928880" lon="152.6654868"></trkpt>
      <trkpt lat="-27.6928868" lon="152.6654994"></trkpt>
      <trkpt lat="-27.6928821" lon="152.6655141"></trkpt>
      <trkpt lat="-27.6928749" lon="152.6655279"></trkpt>
      <trkpt lat="-27.6928678" lon="152.6655396"></trkpt>
      <trkpt lat="-27.6928625" lon="152.6655478"></trkpt>
      <trkpt lat="-27.6928554" lon="152.6655560"></trkpt>
      <trkpt lat="-27.6928120" lon="152.6655947"></trkpt>
      <trkpt lat="-27.6927645" lon="152.6656384"></trkpt>
      <trkpt lat="-27.6927477" lon="152.6656602"></trkpt>
      <trkpt lat="-27.6927343" lon="152.6656814"></trkpt>
      <trkpt lat="-27.6927100" lon="152.6657272"></trkpt>
      <trkpt lat="-27.6926910" lon="152.6657749"></trkpt>
      <trkpt lat="-27.6926781" lon="152.6658238"></trkpt>
      <trkpt lat="-27.6926728" lon="152.6658696"></trkpt>
      <trkpt lat="-27.6926736" lon="152.6659153"></trkpt>
      <trkpt lat="-27.6926802" lon="152.6659628"></trkpt>
      <trkpt lat="-27.6926933" lon="152.6660087"></trkpt>
      <trkpt lat="-27.6927136" lon="152.6660515"></trkpt>
      <trkpt lat="-27.6927402" lon="152.6660922"></trkpt>
      <trkpt lat="-27.6927770" lon="152.6661377"></trkpt>
      <trkpt lat="-27.6928196" lon="152.6661797"></trkpt>
      <trkpt lat="-27.6929189" lon="152.6662480"></trkpt>
      <trkpt lat="-27.6932033" lon="152.6664035"></trkpt>
      <trkpt lat="-27.6935273" lon="152.6665956"></trkpt>
      <trkpt lat="-27.6935615" lon="152.6666205"></trkpt>
      <trkpt lat="-27.6935894" lon="152.6666460"></trkpt>
      <trkpt lat="-27.6936384" lon="152.6667028"></trkpt>
      <trkpt lat="-27.6936771" lon="152.6667557"></trkpt>
      <trkpt lat="-27.6936830" lon="152.6667661"></trkpt>
      <trkpt lat="-27.6936873" lon="152.6667770"></trkpt>
      <trkpt lat="-27.6937027" lon="152.6668196"></trkpt>
      <trkpt lat="-27.6937159" lon="152.6668706"></trkpt>
      <trkpt lat="-27.6937198" lon="152.6669134"></trkpt>
      <trkpt lat="-27.6937177" lon="152.6669597"></trkpt>
      <trkpt lat="-27.6936983" lon="152.6670492"></trkpt>
      <trkpt lat="-27.6936798" lon="152.6671328"></trkpt>
      <trkpt lat="-27.6936797" lon="152.6671607"></trkpt>
      <trkpt lat="-27.6936822" lon="152.6671834"></trkpt>
      <trkpt lat="-27.6936846" lon="152.6671991"></trkpt>
      <trkpt lat="-27.6936881" lon="152.6672137"></trkpt>
      <trkpt lat="-27.6936928" lon="152.6672284"></trkpt>
      <trkpt lat="-27.6936993" lon="152.6672433"></trkpt>
      <trkpt lat="-27.6937121" lon="152.6672658"></trkpt>
      <trkpt lat="-27.6937259" lon="152.6672858"></trkpt>
      <trkpt lat="-27.6937323" lon="152.6672931"></trkpt>
      <trkpt lat="-27.6937400" lon="152.6672993"></trkpt>
      <trkpt lat="-27.6937680" lon="152.6673154"></trkpt>
      <trkpt lat="-27.6937996" lon="152.6673288"></trkpt>
      <trkpt lat="-27.6938170" lon="152.6673323"></trkpt>
      <trkpt lat="-27.6938336" lon="152.6673332"></trkpt>
      <trkpt lat="-27.6938703" lon="152.6673308"></trkpt>
      <trkpt lat="-27.6939225" lon="152.6673186"></trkpt>
      <trkpt lat="-27.6939769" lon="152.6672988"></trkpt>
      <trkpt lat="-27.6940336" lon="152.6672727"></trkpt>
      <trkpt lat="-27.6940862" lon="152.6672416"></trkpt>
      <trkpt lat="-27.6941235" lon="152.6672124"></trkpt>
      <trkpt lat="-27.6941549" lon="152.6671802"></trkpt>
      <trkpt lat="-27.6941772" lon="152.6671492"></trkpt>
      <trkpt lat="-27.6941950" lon="152.6671147"></trkpt>
      <trkpt lat="-27.6942113" lon="152.6670694"></trkpt>
      <trkpt lat="-27.6942219" lon="152.6670207"></trkpt>
      <trkpt lat="-27.6942250" lon="152.6669733"></trkpt>
      <trkpt lat="-27.6942210" lon="152.6669216"></trkpt>
      <trkpt lat="-27.6941990" lon="152.6668257"></trkpt>
      <trkpt lat="-27.6941475" lon="152.6666630"></trkpt>
      <trkpt lat="-27.6941235" lon="152.6666064"></trkpt>
      <trkpt lat="-27.6940986" lon="152.6665654"></trkpt>
      <trkpt lat="-27.6940858" lon="152.6665480"></trkpt>
      <trkpt lat="-27.6940708" lon="152.6665314"></trkpt>
      <trkpt lat="-27.6940465" lon="152.6665102"></trkpt>
      <trkpt lat="-27.6940144" lon="152.6664897"></trkpt>
      <trkpt lat="-27.6939574" lon="152.6664692"></trkpt>
      <trkpt lat="-27.6938885" lon="152.6664498"></trkpt>
      <trkpt lat="-27.6938346" lon="152.6664284"></trkpt>
      <trkpt lat="-27.6938107" lon="152.6664082"></trkpt>
      <trkpt lat="-27.6937938" lon="152.6663881"></trkpt>
      <trkpt lat="-27.6937750" lon="152.6663626"></trkpt>
      <trkpt lat="-27.6937506" lon="152.6663173"></trkpt>
      <trkpt lat="-27.6937295" lon="152.6662602"></trkpt>
      <trkpt lat="-27.6936981" lon="152.6661028"></trkpt>
      <trkpt lat="-27.6936671" lon="152.6659522"></trkpt>
      <trkpt lat="-27.6936591" lon="152.6659313"></trkpt>
      <trkpt lat="-27.6936502" lon="152.6659153"></trkpt>
      <trkpt lat="-27.6936342" lon="152.6658920"></trkpt>
      <trkpt lat="-27.6936156" lon="152.6658705"></trkpt>
      <trkpt lat="-27.6935986" lon="152.6658552"></trkpt>
      <trkpt lat="-27.6935803" lon="152.6658432"></trkpt>
      <trkpt lat="-27.6935604" lon="152.6658348"></trkpt>
      <trkpt lat="-27.6935396" lon="152.6658299"></trkpt>
      <trkpt lat="-27.6935188" lon="152.6658285"></trkpt>
      <trkpt lat="-27.6934979" lon="152.6658305"></trkpt>
      <trkpt lat="-27.6934776" lon="152.6658356"></trkpt>
      <trkpt lat="-27.6934556" lon="152.6658451"></trkpt>
      <trkpt lat="-27.6934060" lon="152.6658805"></trkpt>
      <trkpt lat="-27.6933546" lon="152.6659153"></trkpt>
      <trkpt lat="-27.6933352" lon="152.6659226"></trkpt>
    </trkseg>
  </trk>
</gpx>
