<?xml version="1.0" encoding="UTF-8"?>
<gpx version="1.1" creator="tkk2gpx (Aus_Kart.ztracks converter)"
     xmlns="http://www.topografix.com/GPX/1/1"
     xmlns:xsi="http://www.w3.org/2001/XMLSchema-instance"
     xsi:schemaLocation="http://www.topografix.com/GPX/1/1 http://www.topografix.com/GPX/1/1/gpx.xsd">
  <metadata>
    <name>lkc</name>
    <desc>Kart track, TAS AU. One lap starting and ending at the Start/Finish line. Declared length 757 m.</desc>
  </metadata>
  <wpt lat="-41.3232951" lon="147.1353152">
    <name>Start/Finish</name>
    <desc>Start/Finish line location</desc>
    <sym>Flag, Checkered</sym>
  </wpt>
  <trk>
    <name>lkc - 1 lap</name>
    <trkseg>
      <trkpt lat="-41.3231940" lon="147.1353784"></trkpt>
      <trkpt lat="-41.3233215" lon="147.1356177"></trkpt>
      <trkpt lat="-41.3233583" lon="147.1356760"></trkpt>
      <trkpt lat="-41.3234003" lon="147.1357291"></trkpt>
      <trkpt lat="-41.3234464" lon="147.1357768"></trkpt>
      <trkpt lat="-41.3234953" lon="147.1358189"></trkpt>
      <trkpt lat="-41.3235480" lon="147.1358530"></trkpt>
      <trkpt lat="-41.3235746" lon="147.1358676"></trkpt>
      <trkpt lat="-41.3236021" lon="147.1358779"></trkpt>
      <trkpt lat="-41.3236337" lon="147.1358800"></trkpt>
      <trkpt lat="-41.3236757" lon="147.1358731"></trkpt>
      <trkpt lat="-41.3237514" lon="147.1358641"></trkpt>
      <trkpt lat="-41.3238206" lon="147.1358595"></trkpt>
      <trkpt lat="-41.3239239" lon="147.1358649"></trkpt>
      <trkpt lat="-41.3239716" lon="147.1358766"></trkpt>
      <trkpt lat="-41.3240001" lon="147.1358891"></trkpt>
      <trkpt lat="-41.3240275" lon="147.1359065"></trkpt>
      <trkpt lat="-41.3240511" lon="147.1359295"></trkpt>
      <trkpt lat="-41.3240720" lon="147.1359570"></trkpt>
      <trkpt lat="-41.3240907" lon="147.1359896"></trkpt>
      <trkpt lat="-41.3241054" lon="147.1360243"></trkpt>
      <trkpt lat="-41.3241134" lon="147.1360535"></trkpt>
      <trkpt lat="-41.3241179" lon="147.1360831"></trkpt>
      <trkpt lat="-41.3241196" lon="147.1361143"></trkpt>
      <trkpt lat="-41.3241184" lon="147.1361459"></trkpt>
      <trkpt lat="-41.3241144" lon="147.1361776"></trkpt>
      <trkpt lat="-41.3241076" lon="147.1362088"></trkpt>
      <trkpt lat="-41.3240976" lon="147.1362395"></trkpt>
      <trkpt lat="-41.3240851" lon="147.1362692"></trkpt>
      <trkpt lat="-41.3240518" lon="147.1363282"></trkpt>
      <trkpt lat="-41.3240081" lon="147.1363865"></trkpt>
      <trkpt lat="-41.3239571" lon="147.1364402"></trkpt>
      <trkpt lat="-41.3239028" lon="147.1364837"></trkpt>
      <trkpt lat="-41.3238468" lon="147.1365145"></trkpt>
      <trkpt lat="-41.3238179" lon="147.1365244"></trkpt>
      <trkpt lat="-41.3237886" lon="147.1365302"></trkpt>
      <trkpt lat="-41.3237615" lon="147.1365315"></trkpt>
      <trkpt lat="-41.3237304" lon="147.1365275"></trkpt>
      <trkpt lat="-41.3236438" lon="147.1365021"></trkpt>
      <trkpt lat="-41.3235402" lon="147.1364578"></trkpt>
      <trkpt lat="-41.3232596" lon="147.1362748"></trkpt>
      <trkpt lat="-41.3230169" lon="147.1361304"></trkpt>
      <trkpt lat="-41.3226408" lon="147.1359291"></trkpt>
      <trkpt lat="-41.3225982" lon="147.1358941"></trkpt>
      <trkpt lat="-41.3225793" lon="147.1358760"></trkpt>
      <trkpt lat="-41.3225617" lon="147.1358554"></trkpt>
      <trkpt lat="-41.3225490" lon="147.1358371"></trkpt>
      <trkpt lat="-41.3225370" lon="147.1358167"></trkpt>
      <trkpt lat="-41.3225277" lon="147.1357951"></trkpt>
      <trkpt lat="-41.3225217" lon="147.1357732"></trkpt>
      <trkpt lat="-41.3225181" lon="147.1357501"></trkpt>
      <trkpt lat="-41.3225175" lon="147.1357275"></trkpt>
      <trkpt lat="-41.3225191" lon="147.1357111"></trkpt>
      <trkpt lat="-41.3225224" lon="147.1356948"></trkpt>
      <trkpt lat="-41.3225271" lon="147.1356791"></trkpt>
      <trkpt lat="-41.3225332" lon="147.1356648"></trkpt>
      <trkpt lat="-41.3225439" lon="147.1356476"></trkpt>
      <trkpt lat="-41.3225570" lon="147.1356325"></trkpt>
      <trkpt lat="-41.3225716" lon="147.1356201"></trkpt>
      <trkpt lat="-41.3225882" lon="147.1356103"></trkpt>
      <trkpt lat="-41.3226062" lon="147.1356035"></trkpt>
      <trkpt lat="-41.3226248" lon="147.1355995"></trkpt>
      <trkpt lat="-41.3226552" lon="147.1355996"></trkpt>
      <trkpt lat="-41.3226851" lon="147.1356057"></trkpt>
      <trkpt lat="-41.3227096" lon="147.1356152"></trkpt>
      <trkpt lat="-41.3227329" lon="147.1356283"></trkpt>
      <trkpt lat="-41.3227811" lon="147.1356661"></trkpt>
      <trkpt lat="-41.3229304" lon="147.1358081"></trkpt>
      <trkpt lat="-41.3229544" lon="147.1358266"></trkpt>
      <trkpt lat="-41.3229764" lon="147.1358397"></trkpt>
      <trkpt lat="-41.3230048" lon="147.1358519"></trkpt>
      <trkpt lat="-41.3230340" lon="147.1358592"></trkpt>
      <trkpt lat="-41.3230601" lon="147.1358599"></trkpt>
      <trkpt lat="-41.3230851" lon="147.1358548"></trkpt>
      <trkpt lat="-41.3231007" lon="147.1358484"></trkpt>
      <trkpt lat="-41.3231156" lon="147.1358395"></trkpt>
      <trkpt lat="-41.3231285" lon="147.1358277"></trkpt>
      <trkpt lat="-41.3231365" lon="147.1358167"></trkpt>
      <trkpt lat="-41.3231435" lon="147.1358040"></trkpt>
      <trkpt lat="-41.3231493" lon="147.1357901"></trkpt>
      <trkpt lat="-41.3231537" lon="147.1357757"></trkpt>
      <trkpt lat="-41.3231573" lon="147.1357549"></trkpt>
      <trkpt lat="-41.3231585" lon="147.1357328"></trkpt>
      <trkpt lat="-41.3231574" lon="147.1357108"></trkpt>
      <trkpt lat="-41.3231538" lon="147.1356878"></trkpt>
      <trkpt lat="-41.3231478" lon="147.1356648"></trkpt>
      <trkpt lat="-41.3231395" lon="147.1356430"></trkpt>
      <trkpt lat="-41.3231206" lon="147.1356113"></trkpt>
      <trkpt lat="-41.3230983" lon="147.1355833"></trkpt>
      <trkpt lat="-41.3230559" lon="147.1355428"></trkpt>
      <trkpt lat="-41.3227903" lon="147.1353436"></trkpt>
      <trkpt lat="-41.3226996" lon="147.1352585"></trkpt>
      <trkpt lat="-41.3225912" lon="147.1351711"></trkpt>
      <trkpt lat="-41.3225443" lon="147.1351199"></trkpt>
      <trkpt lat="-41.3225244" lon="147.1350917"></trkpt>
      <trkpt lat="-41.3225070" lon="147.1350614"></trkpt>
      <trkpt lat="-41.3224928" lon="147.1350298"></trkpt>
      <trkpt lat="-41.3224817" lon="147.1349965"></trkpt>
      <trkpt lat="-41.3224746" lon="147.1349624"></trkpt>
      <trkpt lat="-41.3224710" lon="147.1349276"></trkpt>
      <trkpt lat="-41.3224705" lon="147.1348927"></trkpt>
      <trkpt lat="-41.3224736" lon="147.1348580"></trkpt>
      <trkpt lat="-41.3224812" lon="147.1348230"></trkpt>
      <trkpt lat="-41.3224922" lon="147.1347888"></trkpt>
      <trkpt lat="-41.3225244" lon="147.1347204"></trkpt>
      <trkpt lat="-41.3228678" lon="147.1341670"></trkpt>
      <trkpt lat="-41.3228888" lon="147.1341405"></trkpt>
      <trkpt lat="-41.3229073" lon="147.1341239"></trkpt>
      <trkpt lat="-41.3229248" lon="147.1341125"></trkpt>
      <trkpt lat="-41.3229437" lon="147.1341035"></trkpt>
      <trkpt lat="-41.3229625" lon="147.1340989"></trkpt>
      <trkpt lat="-41.3229756" lon="147.1340988"></trkpt>
      <trkpt lat="-41.3229889" lon="147.1341009"></trkpt>
      <trkpt lat="-41.3230017" lon="147.1341052"></trkpt>
      <trkpt lat="-41.3230134" lon="147.1341118"></trkpt>
      <trkpt lat="-41.3230240" lon="147.1341208"></trkpt>
      <trkpt lat="-41.3230339" lon="147.1341323"></trkpt>
      <trkpt lat="-41.3230426" lon="147.1341455"></trkpt>
      <trkpt lat="-41.3230496" lon="147.1341598"></trkpt>
      <trkpt lat="-41.3230563" lon="147.1341824"></trkpt>
      <trkpt lat="-41.3230601" lon="147.1342076"></trkpt>
      <trkpt lat="-41.3230617" lon="147.1342322"></trkpt>
      <trkpt lat="-41.3230605" lon="147.1342638"></trkpt>
      <trkpt lat="-41.3230558" lon="147.1342950"></trkpt>
      <trkpt lat="-41.3230485" lon="147.1343267"></trkpt>
      <trkpt lat="-41.3230376" lon="147.1343614"></trkpt>
      <trkpt lat="-41.3229785" lon="147.1345098"></trkpt>
      <trkpt lat="-41.3229626" lon="147.1345674"></trkpt>
      <trkpt lat="-41.3229517" lon="147.1346276"></trkpt>
      <trkpt lat="-41.3229461" lon="147.1346892"></trkpt>
      <trkpt lat="-41.3229464" lon="147.1347524"></trkpt>
      <trkpt lat="-41.3229521" lon="147.1348172"></trkpt>
      <trkpt lat="-41.3229640" lon="147.1348823"></trkpt>
      <trkpt lat="-41.3229824" lon="147.1349466"></trkpt>
      <trkpt lat="-41.3230056" lon="147.1350101"></trkpt>
      <trkpt lat="-41.3231736" lon="147.1353385"></trkpt>
      <trkpt lat="-41.3231940" lon="147.1353784"></trkpt>
    </trkseg>
  </trk>
</gpx>
