<?xml version="1.0" encoding="UTF-8"?>
<gpx version="1.1" creator="tkk2gpx (Aus_Kart.ztracks converter)"
     xmlns="http://www.topografix.com/GPX/1/1"
     xmlns:xsi="http://www.w3.org/2001/XMLSchema-instance"
     xsi:schemaLocation="http://www.topografix.com/GPX/1/1 http://www.topografix.com/GPX/1/1/gpx.xsd">
  <metadata>
    <name>MackayK</name>
    <desc>Kart track, QLD AU. One lap starting and ending at the Start/Finish line. Declared length 756 m.</desc>
  </metadata>
  <wpt lat="-21.2052541" lon="149.0725384">
    <name>Start/Finish</name>
    <desc>Start/Finish line location</desc>
    <sym>Flag, Checkered</sym>
  </wpt>
  <trk>
    <name>MackayK - 1 lap</name>
    <trkseg>
      <trkpt lat="-21.2051664" lon="149.0724840"></trkpt>
      <trkpt lat="-21.2051748" lon="149.0724553"></trkpt>
      <trkpt lat="-21.2051855" lon="149.0724343"></trkpt>
      <trkpt lat="-21.2051944" lon="149.0724207"></trkpt>
      <trkpt lat="-21.2052047" lon="149.0724082"></trkpt>
      <trkpt lat="-21.2052168" lon="149.0723973"></trkpt>
      <trkpt lat="-21.2052330" lon="149.0723867"></trkpt>
      <trkpt lat="-21.2052514" lon="149.0723779"></trkpt>
      <trkpt lat="-21.2052692" lon="149.0723724"></trkpt>
      <trkpt lat="-21.2052827" lon="149.0723707"></trkpt>
      <trkpt lat="-21.2052959" lon="149.0723712"></trkpt>
      <trkpt lat="-21.2053090" lon="149.0723740"></trkpt>
      <trkpt lat="-21.2053250" lon="149.0723804"></trkpt>
      <trkpt lat="-21.2053410" lon="149.0723899"></trkpt>
      <trkpt lat="-21.2053548" lon="149.0724017"></trkpt>
      <trkpt lat="-21.2053662" lon="149.0724161"></trkpt>
      <trkpt lat="-21.2053753" lon="149.0724328"></trkpt>
      <trkpt lat="-21.2053819" lon="149.0724512"></trkpt>
      <trkpt lat="-21.2053861" lon="149.0724733"></trkpt>
      <trkpt lat="-21.2053869" lon="149.0724975"></trkpt>
      <trkpt lat="-21.2053851" lon="149.0725259"></trkpt>
      <trkpt lat="-21.2053603" lon="149.0726348"></trkpt>
      <trkpt lat="-21.2053359" lon="149.0727433"></trkpt>
      <trkpt lat="-21.2053354" lon="149.0727832"></trkpt>
      <trkpt lat="-21.2053403" lon="149.0728162"></trkpt>
      <trkpt lat="-21.2053451" lon="149.0728332"></trkpt>
      <trkpt lat="-21.2053515" lon="149.0728488"></trkpt>
      <trkpt lat="-21.2053594" lon="149.0728631"></trkpt>
      <trkpt lat="-21.2053685" lon="149.0728758"></trkpt>
      <trkpt lat="-21.2053789" lon="149.0728873"></trkpt>
      <trkpt lat="-21.2053905" lon="149.0728969"></trkpt>
      <trkpt lat="-21.2054028" lon="149.0729042"></trkpt>
      <trkpt lat="-21.2054161" lon="149.0729097"></trkpt>
      <trkpt lat="-21.2054297" lon="149.0729129"></trkpt>
      <trkpt lat="-21.2054435" lon="149.0729137"></trkpt>
      <trkpt lat="-21.2054577" lon="149.0729123"></trkpt>
      <trkpt lat="-21.2054713" lon="149.0729089"></trkpt>
      <trkpt lat="-21.2054845" lon="149.0729035"></trkpt>
      <trkpt lat="-21.2054970" lon="149.0728961"></trkpt>
      <trkpt lat="-21.2055088" lon="149.0728867"></trkpt>
      <trkpt lat="-21.2055218" lon="149.0728727"></trkpt>
      <trkpt lat="-21.2055336" lon="149.0728559"></trkpt>
      <trkpt lat="-21.2055434" lon="149.0728372"></trkpt>
      <trkpt lat="-21.2055534" lon="149.0728041"></trkpt>
      <trkpt lat="-21.2055601" lon="149.0727592"></trkpt>
      <trkpt lat="-21.2055845" lon="149.0724911"></trkpt>
      <trkpt lat="-21.2055955" lon="149.0722216"></trkpt>
      <trkpt lat="-21.2055916" lon="149.0721747"></trkpt>
      <trkpt lat="-21.2055835" lon="149.0721397"></trkpt>
      <trkpt lat="-21.2055728" lon="149.0721124"></trkpt>
      <trkpt lat="-21.2055586" lon="149.0720886"></trkpt>
      <trkpt lat="-21.2055476" lon="149.0720747"></trkpt>
      <trkpt lat="-21.2055352" lon="149.0720621"></trkpt>
      <trkpt lat="-21.2055217" lon="149.0720514"></trkpt>
      <trkpt lat="-21.2055077" lon="149.0720430"></trkpt>
      <trkpt lat="-21.2054927" lon="149.0720365"></trkpt>
      <trkpt lat="-21.2054764" lon="149.0720321"></trkpt>
      <trkpt lat="-21.2054446" lon="149.0720309"></trkpt>
      <trkpt lat="-21.2054100" lon="149.0720335"></trkpt>
      <trkpt lat="-21.2053676" lon="149.0720386"></trkpt>
      <trkpt lat="-21.2053277" lon="149.0720404"></trkpt>
      <trkpt lat="-21.2053122" lon="149.0720373"></trkpt>
      <trkpt lat="-21.2052983" lon="149.0720322"></trkpt>
      <trkpt lat="-21.2052858" lon="149.0720254"></trkpt>
      <trkpt lat="-21.2052745" lon="149.0720169"></trkpt>
      <trkpt lat="-21.2052643" lon="149.0720066"></trkpt>
      <trkpt lat="-21.2052557" lon="149.0719947"></trkpt>
      <trkpt lat="-21.2052475" lon="149.0719782"></trkpt>
      <trkpt lat="-21.2052414" lon="149.0719595"></trkpt>
      <trkpt lat="-21.2052380" lon="149.0719404"></trkpt>
      <trkpt lat="-21.2052377" lon="149.0719207"></trkpt>
      <trkpt lat="-21.2052403" lon="149.0719007"></trkpt>
      <trkpt lat="-21.2052455" lon="149.0718813"></trkpt>
      <trkpt lat="-21.2052531" lon="149.0718629"></trkpt>
      <trkpt lat="-21.2052634" lon="149.0718452"></trkpt>
      <trkpt lat="-21.2052779" lon="149.0718271"></trkpt>
      <trkpt lat="-21.2053390" lon="149.0717802"></trkpt>
      <trkpt lat="-21.2054046" lon="149.0717353"></trkpt>
      <trkpt lat="-21.2054349" lon="149.0717107"></trkpt>
      <trkpt lat="-21.2054584" lon="149.0716870"></trkpt>
      <trkpt lat="-21.2054683" lon="149.0716729"></trkpt>
      <trkpt lat="-21.2054761" lon="149.0716584"></trkpt>
      <trkpt lat="-21.2054819" lon="149.0716436"></trkpt>
      <trkpt lat="-21.2054856" lon="149.0716288"></trkpt>
      <trkpt lat="-21.2054874" lon="149.0716137"></trkpt>
      <trkpt lat="-21.2054871" lon="149.0715989"></trkpt>
      <trkpt lat="-21.2054850" lon="149.0715851"></trkpt>
      <trkpt lat="-21.2054810" lon="149.0715716"></trkpt>
      <trkpt lat="-21.2054747" lon="149.0715588"></trkpt>
      <trkpt lat="-21.2054643" lon="149.0715448"></trkpt>
      <trkpt lat="-21.2054510" lon="149.0715317"></trkpt>
      <trkpt lat="-21.2054355" lon="149.0715206"></trkpt>
      <trkpt lat="-21.2054147" lon="149.0715109"></trkpt>
      <trkpt lat="-21.2053911" lon="149.0715038"></trkpt>
      <trkpt lat="-21.2053659" lon="149.0714993"></trkpt>
      <trkpt lat="-21.2053187" lon="149.0714977"></trkpt>
      <trkpt lat="-21.2052691" lon="149.0715025"></trkpt>
      <trkpt lat="-21.2052165" lon="149.0715129"></trkpt>
      <trkpt lat="-21.2051658" lon="149.0715294"></trkpt>
      <trkpt lat="-21.2051226" lon="149.0715508"></trkpt>
      <trkpt lat="-21.2050833" lon="149.0715781"></trkpt>
      <trkpt lat="-21.2050472" lon="149.0716132"></trkpt>
      <trkpt lat="-21.2050160" lon="149.0716537"></trkpt>
      <trkpt lat="-21.2049899" lon="149.0716997"></trkpt>
      <trkpt lat="-21.2049693" lon="149.0717505"></trkpt>
      <trkpt lat="-21.2049538" lon="149.0718061"></trkpt>
      <trkpt lat="-21.2049412" lon="149.0718822"></trkpt>
      <trkpt lat="-21.2048692" lon="149.0728332"></trkpt>
      <trkpt lat="-21.2048421" lon="149.0731907"></trkpt>
      <trkpt lat="-21.2048448" lon="149.0733242"></trkpt>
      <trkpt lat="-21.2048520" lon="149.0733614"></trkpt>
      <trkpt lat="-21.2048628" lon="149.0733945"></trkpt>
      <trkpt lat="-21.2048771" lon="149.0734259"></trkpt>
      <trkpt lat="-21.2048949" lon="149.0734549"></trkpt>
      <trkpt lat="-21.2049151" lon="149.0734802"></trkpt>
      <trkpt lat="-21.2049395" lon="149.0735026"></trkpt>
      <trkpt lat="-21.2049758" lon="149.0735252"></trkpt>
      <trkpt lat="-21.2050149" lon="149.0735429"></trkpt>
      <trkpt lat="-21.2050498" lon="149.0735506"></trkpt>
      <trkpt lat="-21.2050844" lon="149.0735543"></trkpt>
      <trkpt lat="-21.2051172" lon="149.0735553"></trkpt>
      <trkpt lat="-21.2051643" lon="149.0735576"></trkpt>
      <trkpt lat="-21.2055117" lon="149.0735790"></trkpt>
      <trkpt lat="-21.2055525" lon="149.0735729"></trkpt>
      <trkpt lat="-21.2055837" lon="149.0735622"></trkpt>
      <trkpt lat="-21.2055998" lon="149.0735539"></trkpt>
      <trkpt lat="-21.2056141" lon="149.0735441"></trkpt>
      <trkpt lat="-21.2056269" lon="149.0735329"></trkpt>
      <trkpt lat="-21.2056380" lon="149.0735204"></trkpt>
      <trkpt lat="-21.2056476" lon="149.0735066"></trkpt>
      <trkpt lat="-21.2056553" lon="149.0734920"></trkpt>
      <trkpt lat="-21.2056608" lon="149.0734767"></trkpt>
      <trkpt lat="-21.2056645" lon="149.0734606"></trkpt>
      <trkpt lat="-21.2056661" lon="149.0734445"></trkpt>
      <trkpt lat="-21.2056658" lon="149.0734285"></trkpt>
      <trkpt lat="-21.2056636" lon="149.0734124"></trkpt>
      <trkpt lat="-21.2056590" lon="149.0733963"></trkpt>
      <trkpt lat="-21.2056503" lon="149.0733771"></trkpt>
      <trkpt lat="-21.2056385" lon="149.0733579"></trkpt>
      <trkpt lat="-21.2056245" lon="149.0733407"></trkpt>
      <trkpt lat="-21.2056089" lon="149.0733261"></trkpt>
      <trkpt lat="-21.2055912" lon="149.0733135"></trkpt>
      <trkpt lat="-21.2055703" lon="149.0733021"></trkpt>
      <trkpt lat="-21.2054515" lon="149.0732668"></trkpt>
      <trkpt lat="-21.2053216" lon="149.0732293"></trkpt>
      <trkpt lat="-21.2052757" lon="149.0732029"></trkpt>
      <trkpt lat="-21.2052364" lon="149.0731715"></trkpt>
      <trkpt lat="-21.2052064" lon="149.0731396"></trkpt>
      <trkpt lat="-21.2051818" lon="149.0731042"></trkpt>
      <trkpt lat="-21.2051621" lon="149.0730649"></trkpt>
      <trkpt lat="-21.2051477" lon="149.0730204"></trkpt>
      <trkpt lat="-21.2051374" lon="149.0729570"></trkpt>
      <trkpt lat="-21.2051342" lon="149.0728796"></trkpt>
      <trkpt lat="-21.2051442" lon="149.0726705"></trkpt>
      <trkpt lat="-21.2051664" lon="149.0724840"></trkpt>
    </trkseg>
  </trk>
</gpx>
