<?xml version="1.0" encoding="UTF-8"?>
<gpx version="1.1" creator="tkk2gpx (Aus_Kart.ztracks converter)"
     xmlns="http://www.topografix.com/GPX/1/1"
     xmlns:xsi="http://www.w3.org/2001/XMLSchema-instance"
     xsi:schemaLocation="http://www.topografix.com/GPX/1/1 http://www.topografix.com/GPX/1/1/gpx.xsd">
  <metadata>
    <name>MegaFastB</name>
    <desc>Kart track, WA AU. One lap starting and ending at the Start/Finish line. Declared length 1016 m.</desc>
  </metadata>
  <wpt lat="-31.6639862" lon="115.8002046">
    <name>Start/Finish</name>
    <desc>Start/Finish line location</desc>
    <sym>Flag, Checkered</sym>
  </wpt>
  <trk>
    <name>MegaFastB - 1 lap</name>
    <trkseg>
      <trkpt lat="-31.6640400" lon="115.8000109"></trkpt>
      <trkpt lat="-31.6639775" lon="115.7999649"></trkpt>
      <trkpt lat="-31.6639304" lon="115.7999351"></trkpt>
      <trkpt lat="-31.6638844" lon="115.7999119"></trkpt>
      <trkpt lat="-31.6638421" lon="115.7998995"></trkpt>
      <trkpt lat="-31.6637995" lon="115.7998947"></trkpt>
      <trkpt lat="-31.6637550" lon="115.7998981"></trkpt>
      <trkpt lat="-31.6637117" lon="115.7999094"></trkpt>
      <trkpt lat="-31.6636839" lon="115.7999217"></trkpt>
      <trkpt lat="-31.6636573" lon="115.7999375"></trkpt>
      <trkpt lat="-31.6636345" lon="115.7999556"></trkpt>
      <trkpt lat="-31.6636187" lon="115.7999731"></trkpt>
      <trkpt lat="-31.6636058" lon="115.7999924"></trkpt>
      <trkpt lat="-31.6635946" lon="115.8000133"></trkpt>
      <trkpt lat="-31.6635790" lon="115.8000516"></trkpt>
      <trkpt lat="-31.6635688" lon="115.8000935"></trkpt>
      <trkpt lat="-31.6635653" lon="115.8001419"></trkpt>
      <trkpt lat="-31.6635682" lon="115.8001931"></trkpt>
      <trkpt lat="-31.6635789" lon="115.8002558"></trkpt>
      <trkpt lat="-31.6635958" lon="115.8003174"></trkpt>
      <trkpt lat="-31.6636141" lon="115.8003664"></trkpt>
      <trkpt lat="-31.6636372" lon="115.8004114"></trkpt>
      <trkpt lat="-31.6636665" lon="115.8004531"></trkpt>
      <trkpt lat="-31.6637004" lon="115.8004894"></trkpt>
      <trkpt lat="-31.6637345" lon="115.8005161"></trkpt>
      <trkpt lat="-31.6637707" lon="115.8005357"></trkpt>
      <trkpt lat="-31.6638038" lon="115.8005456"></trkpt>
      <trkpt lat="-31.6638382" lon="115.8005495"></trkpt>
      <trkpt lat="-31.6638784" lon="115.8005484"></trkpt>
      <trkpt lat="-31.6639185" lon="115.8005405"></trkpt>
      <trkpt lat="-31.6639547" lon="115.8005253"></trkpt>
      <trkpt lat="-31.6639902" lon="115.8005026"></trkpt>
      <trkpt lat="-31.6640873" lon="115.8004060"></trkpt>
      <trkpt lat="-31.6642148" lon="115.8002657"></trkpt>
      <trkpt lat="-31.6642521" lon="115.8002395"></trkpt>
      <trkpt lat="-31.6642881" lon="115.8002230"></trkpt>
      <trkpt lat="-31.6643092" lon="115.8002175"></trkpt>
      <trkpt lat="-31.6643302" lon="115.8002151"></trkpt>
      <trkpt lat="-31.6643504" lon="115.8002158"></trkpt>
      <trkpt lat="-31.6643690" lon="115.8002194"></trkpt>
      <trkpt lat="-31.6643869" lon="115.8002259"></trkpt>
      <trkpt lat="-31.6644029" lon="115.8002351"></trkpt>
      <trkpt lat="-31.6644136" lon="115.8002441"></trkpt>
      <trkpt lat="-31.6644233" lon="115.8002549"></trkpt>
      <trkpt lat="-31.6644316" lon="115.8002669"></trkpt>
      <trkpt lat="-31.6644382" lon="115.8002795"></trkpt>
      <trkpt lat="-31.6644431" lon="115.8002934"></trkpt>
      <trkpt lat="-31.6644462" lon="115.8003084"></trkpt>
      <trkpt lat="-31.6644476" lon="115.8003239"></trkpt>
      <trkpt lat="-31.6644474" lon="115.8003394"></trkpt>
      <trkpt lat="-31.6644442" lon="115.8003617"></trkpt>
      <trkpt lat="-31.6644377" lon="115.8003843"></trkpt>
      <trkpt lat="-31.6644276" lon="115.8004066"></trkpt>
      <trkpt lat="-31.6644113" lon="115.8004323"></trkpt>
      <trkpt lat="-31.6643900" lon="115.8004574"></trkpt>
      <trkpt lat="-31.6643633" lon="115.8004824"></trkpt>
      <trkpt lat="-31.6642762" lon="115.8005394"></trkpt>
      <trkpt lat="-31.6641832" lon="115.8005903"></trkpt>
      <trkpt lat="-31.6641320" lon="115.8006153"></trkpt>
      <trkpt lat="-31.6640892" lon="115.8006393"></trkpt>
      <trkpt lat="-31.6640709" lon="115.8006547"></trkpt>
      <trkpt lat="-31.6640554" lon="115.8006711"></trkpt>
      <trkpt lat="-31.6640424" lon="115.8006890"></trkpt>
      <trkpt lat="-31.6640317" lon="115.8007085"></trkpt>
      <trkpt lat="-31.6640233" lon="115.8007294"></trkpt>
      <trkpt lat="-31.6640180" lon="115.8007509"></trkpt>
      <trkpt lat="-31.6640160" lon="115.8007735"></trkpt>
      <trkpt lat="-31.6640172" lon="115.8007966"></trkpt>
      <trkpt lat="-31.6640212" lon="115.8008189"></trkpt>
      <trkpt lat="-31.6640281" lon="115.8008401"></trkpt>
      <trkpt lat="-31.6640377" lon="115.8008604"></trkpt>
      <trkpt lat="-31.6640499" lon="115.8008783"></trkpt>
      <trkpt lat="-31.6640640" lon="115.8008929"></trkpt>
      <trkpt lat="-31.6640803" lon="115.8009053"></trkpt>
      <trkpt lat="-31.6640983" lon="115.8009147"></trkpt>
      <trkpt lat="-31.6641199" lon="115.8009214"></trkpt>
      <trkpt lat="-31.6641434" lon="115.8009246"></trkpt>
      <trkpt lat="-31.6641674" lon="115.8009246"></trkpt>
      <trkpt lat="-31.6642068" lon="115.8009170"></trkpt>
      <trkpt lat="-31.6642473" lon="115.8009011"></trkpt>
      <trkpt lat="-31.6642969" lon="115.8008718"></trkpt>
      <trkpt lat="-31.6643513" lon="115.8008315"></trkpt>
      <trkpt lat="-31.6645699" lon="115.8006454"></trkpt>
      <trkpt lat="-31.6646062" lon="115.8006022"></trkpt>
      <trkpt lat="-31.6646325" lon="115.8005605"></trkpt>
      <trkpt lat="-31.6646527" lon="115.8005167"></trkpt>
      <trkpt lat="-31.6646666" lon="115.8004713"></trkpt>
      <trkpt lat="-31.6646742" lon="115.8004246"></trkpt>
      <trkpt lat="-31.6646753" lon="115.8003788"></trkpt>
      <trkpt lat="-31.6646701" lon="115.8003431"></trkpt>
      <trkpt lat="-31.6646599" lon="115.8003059"></trkpt>
      <trkpt lat="-31.6646331" lon="115.8002378"></trkpt>
      <trkpt lat="-31.6646083" lon="115.8001688"></trkpt>
      <trkpt lat="-31.6646036" lon="115.8001405"></trkpt>
      <trkpt lat="-31.6646020" lon="115.8001142"></trkpt>
      <trkpt lat="-31.6646033" lon="115.8000884"></trkpt>
      <trkpt lat="-31.6646070" lon="115.8000634"></trkpt>
      <trkpt lat="-31.6646135" lon="115.8000390"></trkpt>
      <trkpt lat="-31.6646236" lon="115.8000138"></trkpt>
      <trkpt lat="-31.6646588" lon="115.7999613"></trkpt>
      <trkpt lat="-31.6646978" lon="115.7999088"></trkpt>
      <trkpt lat="-31.6647226" lon="115.7998681"></trkpt>
      <trkpt lat="-31.6647418" lon="115.7998276"></trkpt>
      <trkpt lat="-31.6647535" lon="115.7997864"></trkpt>
      <trkpt lat="-31.6647590" lon="115.7997445"></trkpt>
      <trkpt lat="-31.6647591" lon="115.7997163"></trkpt>
      <trkpt lat="-31.6647564" lon="115.7996879"></trkpt>
      <trkpt lat="-31.6647507" lon="115.7996605"></trkpt>
      <trkpt lat="-31.6647420" lon="115.7996343"></trkpt>
      <trkpt lat="-31.6647304" lon="115.7996090"></trkpt>
      <trkpt lat="-31.6647162" lon="115.7995859"></trkpt>
      <trkpt lat="-31.6647001" lon="115.7995658"></trkpt>
      <trkpt lat="-31.6646817" lon="115.7995477"></trkpt>
      <trkpt lat="-31.6646612" lon="115.7995319"></trkpt>
      <trkpt lat="-31.6646257" lon="115.7995119"></trkpt>
      <trkpt lat="-31.6645844" lon="115.7994975"></trkpt>
      <trkpt lat="-31.6645248" lon="115.7994893"></trkpt>
      <trkpt lat="-31.6644453" lon="115.7994865"></trkpt>
      <trkpt lat="-31.6639841" lon="115.7994854"></trkpt>
      <trkpt lat="-31.6636653" lon="115.7994846"></trkpt>
      <trkpt lat="-31.6635259" lon="115.7994937"></trkpt>
      <trkpt lat="-31.6634769" lon="115.7995063"></trkpt>
      <trkpt lat="-31.6634319" lon="115.7995246"></trkpt>
      <trkpt lat="-31.6633884" lon="115.7995495"></trkpt>
      <trkpt lat="-31.6633486" lon="115.7995802"></trkpt>
      <trkpt lat="-31.6633129" lon="115.7996184"></trkpt>
      <trkpt lat="-31.6632834" lon="115.7996594"></trkpt>
      <trkpt lat="-31.6632653" lon="115.7996933"></trkpt>
      <trkpt lat="-31.6632519" lon="115.7997262"></trkpt>
      <trkpt lat="-31.6632381" lon="115.7997765"></trkpt>
      <trkpt lat="-31.6632346" lon="115.7997913"></trkpt>
      <trkpt lat="-31.6632165" lon="115.7999420"></trkpt>
      <trkpt lat="-31.6632133" lon="115.8003203"></trkpt>
      <trkpt lat="-31.6632300" lon="115.8004961"></trkpt>
      <trkpt lat="-31.6632440" lon="115.8005561"></trkpt>
      <trkpt lat="-31.6632629" lon="115.8006095"></trkpt>
      <trkpt lat="-31.6632839" lon="115.8006513"></trkpt>
      <trkpt lat="-31.6633094" lon="115.8006874"></trkpt>
      <trkpt lat="-31.6633280" lon="115.8007070"></trkpt>
      <trkpt lat="-31.6633485" lon="115.8007242"></trkpt>
      <trkpt lat="-31.6633695" lon="115.8007373"></trkpt>
      <trkpt lat="-31.6633879" lon="115.8007449"></trkpt>
      <trkpt lat="-31.6634067" lon="115.8007495"></trkpt>
      <trkpt lat="-31.6634253" lon="115.8007510"></trkpt>
      <trkpt lat="-31.6634431" lon="115.8007496"></trkpt>
      <trkpt lat="-31.6634607" lon="115.8007455"></trkpt>
      <trkpt lat="-31.6634765" lon="115.8007385"></trkpt>
      <trkpt lat="-31.6634897" lon="115.8007286"></trkpt>
      <trkpt lat="-31.6635012" lon="115.8007159"></trkpt>
      <trkpt lat="-31.6635107" lon="115.8007015"></trkpt>
      <trkpt lat="-31.6635192" lon="115.8006829"></trkpt>
      <trkpt lat="-31.6635252" lon="115.8006620"></trkpt>
      <trkpt lat="-31.6635286" lon="115.8006409"></trkpt>
      <trkpt lat="-31.6635291" lon="115.8006197"></trkpt>
      <trkpt lat="-31.6635270" lon="115.8005982"></trkpt>
      <trkpt lat="-31.6635222" lon="115.8005775"></trkpt>
      <trkpt lat="-31.6635101" lon="115.8005491"></trkpt>
      <trkpt lat="-31.6634926" lon="115.8005210"></trkpt>
      <trkpt lat="-31.6634596" lon="115.8004836"></trkpt>
      <trkpt lat="-31.6634260" lon="115.8004430"></trkpt>
      <trkpt lat="-31.6634029" lon="115.8003971"></trkpt>
      <trkpt lat="-31.6633861" lon="115.8003458"></trkpt>
      <trkpt lat="-31.6633733" lon="115.8002732"></trkpt>
      <trkpt lat="-31.6633685" lon="115.8001951"></trkpt>
      <trkpt lat="-31.6633719" lon="115.8001125"></trkpt>
      <trkpt lat="-31.6633837" lon="115.8000312"></trkpt>
      <trkpt lat="-31.6634029" lon="115.7999589"></trkpt>
      <trkpt lat="-31.6634288" lon="115.7998931"></trkpt>
      <trkpt lat="-31.6634543" lon="115.7998461"></trkpt>
      <trkpt lat="-31.6634854" lon="115.7998049"></trkpt>
      <trkpt lat="-31.6635255" lon="115.7997667"></trkpt>
      <trkpt lat="-31.6635726" lon="115.7997348"></trkpt>
      <trkpt lat="-31.6636295" lon="115.7997094"></trkpt>
      <trkpt lat="-31.6636996" lon="115.7996918"></trkpt>
      <trkpt lat="-31.6640705" lon="115.7996808"></trkpt>
      <trkpt lat="-31.6642715" lon="115.7996747"></trkpt>
      <trkpt lat="-31.6643001" lon="115.7996811"></trkpt>
      <trkpt lat="-31.6643243" lon="115.7996903"></trkpt>
      <trkpt lat="-31.6643458" lon="115.7997021"></trkpt>
      <trkpt lat="-31.6643638" lon="115.7997155"></trkpt>
      <trkpt lat="-31.6643796" lon="115.7997312"></trkpt>
      <trkpt lat="-31.6643924" lon="115.7997485"></trkpt>
      <trkpt lat="-31.6644019" lon="115.7997670"></trkpt>
      <trkpt lat="-31.6644087" lon="115.7997870"></trkpt>
      <trkpt lat="-31.6644124" lon="115.7998071"></trkpt>
      <trkpt lat="-31.6644131" lon="115.7998218"></trkpt>
      <trkpt lat="-31.6644121" lon="115.7998368"></trkpt>
      <trkpt lat="-31.6644095" lon="115.7998515"></trkpt>
      <trkpt lat="-31.6644053" lon="115.7998652"></trkpt>
      <trkpt lat="-31.6643976" lon="115.7998811"></trkpt>
      <trkpt lat="-31.6643872" lon="115.7998957"></trkpt>
      <trkpt lat="-31.6643738" lon="115.7999100"></trkpt>
      <trkpt lat="-31.6643324" lon="115.7999380"></trkpt>
      <trkpt lat="-31.6642864" lon="115.7999671"></trkpt>
      <trkpt lat="-31.6642501" lon="115.8000037"></trkpt>
      <trkpt lat="-31.6642153" lon="115.8000360"></trkpt>
      <trkpt lat="-31.6641967" lon="115.8000461"></trkpt>
      <trkpt lat="-31.6641780" lon="115.8000529"></trkpt>
      <trkpt lat="-31.6641590" lon="115.8000566"></trkpt>
      <trkpt lat="-31.6641400" lon="115.8000574"></trkpt>
      <trkpt lat="-31.6641206" lon="115.8000551"></trkpt>
      <trkpt lat="-31.6640997" lon="115.8000488"></trkpt>
      <trkpt lat="-31.6640400" lon="115.8000109"></trkpt>
    </trkseg>
  </trk>
</gpx>
