<?xml version="1.0" encoding="UTF-8"?>
<gpx version="1.1" creator="tkk2gpx (Aus_Kart.ztracks converter)"
     xmlns="http://www.topografix.com/GPX/1/1"
     xmlns:xsi="http://www.w3.org/2001/XMLSchema-instance"
     xsi:schemaLocation="http://www.topografix.com/GPX/1/1 http://www.topografix.com/GPX/1/1/gpx.xsd">
  <metadata>
    <name>Oakleigh-Lon</name>
    <desc>Kart track, VIC AU. One lap starting and ending at the Start/Finish line. Declared length 996 m.</desc>
  </metadata>
  <wpt lat="-37.9534104" lon="145.1199974">
    <name>Start/Finish</name>
    <desc>Start/Finish line location</desc>
    <sym>Flag, Checkered</sym>
  </wpt>
  <trk>
    <name>Oakleigh-Lon - 1 lap</name>
    <trkseg>
      <trkpt lat="-37.9534276" lon="145.1200000"></trkpt>
      <trkpt lat="-37.9534295" lon="145.1200230"></trkpt>
      <trkpt lat="-37.9534377" lon="145.1200742"></trkpt>
      <trkpt lat="-37.9534612" lon="145.1201591"></trkpt>
      <trkpt lat="-37.9534735" lon="145.1202045"></trkpt>
      <trkpt lat="-37.9534824" lon="145.1202511"></trkpt>
      <trkpt lat="-37.9534840" lon="145.1202843"></trkpt>
      <trkpt lat="-37.9534829" lon="145.1203181"></trkpt>
      <trkpt lat="-37.9534788" lon="145.1203491"></trkpt>
      <trkpt lat="-37.9534731" lon="145.1203724"></trkpt>
      <trkpt lat="-37.9534654" lon="145.1203938"></trkpt>
      <trkpt lat="-37.9534555" lon="145.1204122"></trkpt>
      <trkpt lat="-37.9534444" lon="145.1204262"></trkpt>
      <trkpt lat="-37.9534315" lon="145.1204377"></trkpt>
      <trkpt lat="-37.9534170" lon="145.1204473"></trkpt>
      <trkpt lat="-37.9533880" lon="145.1204579"></trkpt>
      <trkpt lat="-37.9533531" lon="145.1204660"></trkpt>
      <trkpt lat="-37.9532765" lon="145.1204828"></trkpt>
      <trkpt lat="-37.9532032" lon="145.1205039"></trkpt>
      <trkpt lat="-37.9531843" lon="145.1205139"></trkpt>
      <trkpt lat="-37.9531689" lon="145.1205249"></trkpt>
      <trkpt lat="-37.9531563" lon="145.1205377"></trkpt>
      <trkpt lat="-37.9531478" lon="145.1205501"></trkpt>
      <trkpt lat="-37.9531413" lon="145.1205637"></trkpt>
      <trkpt lat="-37.9531369" lon="145.1205783"></trkpt>
      <trkpt lat="-37.9531347" lon="145.1205910"></trkpt>
      <trkpt lat="-37.9531337" lon="145.1206047"></trkpt>
      <trkpt lat="-37.9531342" lon="145.1206183"></trkpt>
      <trkpt lat="-37.9531366" lon="145.1206311"></trkpt>
      <trkpt lat="-37.9531421" lon="145.1206442"></trkpt>
      <trkpt lat="-37.9531501" lon="145.1206571"></trkpt>
      <trkpt lat="-37.9531589" lon="145.1206684"></trkpt>
      <trkpt lat="-37.9531666" lon="145.1206764"></trkpt>
      <trkpt lat="-37.9531753" lon="145.1206815"></trkpt>
      <trkpt lat="-37.9531799" lon="145.1206830"></trkpt>
      <trkpt lat="-37.9531905" lon="145.1206853"></trkpt>
      <trkpt lat="-37.9532023" lon="145.1206865"></trkpt>
      <trkpt lat="-37.9532337" lon="145.1206860"></trkpt>
      <trkpt lat="-37.9535455" lon="145.1206441"></trkpt>
      <trkpt lat="-37.9537549" lon="145.1206668"></trkpt>
      <trkpt lat="-37.9539117" lon="145.1206942"></trkpt>
      <trkpt lat="-37.9539961" lon="145.1206904"></trkpt>
      <trkpt lat="-37.9540776" lon="145.1206772"></trkpt>
      <trkpt lat="-37.9541408" lon="145.1206610"></trkpt>
      <trkpt lat="-37.9541989" lon="145.1206383"></trkpt>
      <trkpt lat="-37.9542495" lon="145.1206100"></trkpt>
      <trkpt lat="-37.9542946" lon="145.1205760"></trkpt>
      <trkpt lat="-37.9543277" lon="145.1205431"></trkpt>
      <trkpt lat="-37.9543557" lon="145.1205055"></trkpt>
      <trkpt lat="-37.9543791" lon="145.1204610"></trkpt>
      <trkpt lat="-37.9543969" lon="145.1204114"></trkpt>
      <trkpt lat="-37.9544083" lon="145.1203584"></trkpt>
      <trkpt lat="-37.9544137" lon="145.1202944"></trkpt>
      <trkpt lat="-37.9543910" lon="145.1199042"></trkpt>
      <trkpt lat="-37.9543592" lon="145.1196315"></trkpt>
      <trkpt lat="-37.9543444" lon="145.1195668"></trkpt>
      <trkpt lat="-37.9543253" lon="145.1195117"></trkpt>
      <trkpt lat="-37.9543002" lon="145.1194625"></trkpt>
      <trkpt lat="-37.9542705" lon="145.1194196"></trkpt>
      <trkpt lat="-37.9542405" lon="145.1193872"></trkpt>
      <trkpt lat="-37.9542066" lon="145.1193601"></trkpt>
      <trkpt lat="-37.9541607" lon="145.1193335"></trkpt>
      <trkpt lat="-37.9541104" lon="145.1193138"></trkpt>
      <trkpt lat="-37.9540587" lon="145.1193030"></trkpt>
      <trkpt lat="-37.9539996" lon="145.1193006"></trkpt>
      <trkpt lat="-37.9537234" lon="145.1193428"></trkpt>
      <trkpt lat="-37.9535494" lon="145.1193693"></trkpt>
      <trkpt lat="-37.9529978" lon="145.1194462"></trkpt>
      <trkpt lat="-37.9526999" lon="145.1194237"></trkpt>
      <trkpt lat="-37.9526331" lon="145.1194302"></trkpt>
      <trkpt lat="-37.9525762" lon="145.1194445"></trkpt>
      <trkpt lat="-37.9525408" lon="145.1194589"></trkpt>
      <trkpt lat="-37.9525076" lon="145.1194767"></trkpt>
      <trkpt lat="-37.9524867" lon="145.1194920"></trkpt>
      <trkpt lat="-37.9524685" lon="145.1195094"></trkpt>
      <trkpt lat="-37.9524514" lon="145.1195303"></trkpt>
      <trkpt lat="-37.9524373" lon="145.1195513"></trkpt>
      <trkpt lat="-37.9524309" lon="145.1195634"></trkpt>
      <trkpt lat="-37.9524257" lon="145.1195757"></trkpt>
      <trkpt lat="-37.9524197" lon="145.1195926"></trkpt>
      <trkpt lat="-37.9524145" lon="145.1196119"></trkpt>
      <trkpt lat="-37.9524092" lon="145.1196416"></trkpt>
      <trkpt lat="-37.9524070" lon="145.1196723"></trkpt>
      <trkpt lat="-37.9524094" lon="145.1196963"></trkpt>
      <trkpt lat="-37.9524146" lon="145.1197191"></trkpt>
      <trkpt lat="-37.9524225" lon="145.1197423"></trkpt>
      <trkpt lat="-37.9524327" lon="145.1197640"></trkpt>
      <trkpt lat="-37.9524447" lon="145.1197832"></trkpt>
      <trkpt lat="-37.9524587" lon="145.1198000"></trkpt>
      <trkpt lat="-37.9524749" lon="145.1198141"></trkpt>
      <trkpt lat="-37.9524927" lon="145.1198252"></trkpt>
      <trkpt lat="-37.9525127" lon="145.1198331"></trkpt>
      <trkpt lat="-37.9525337" lon="145.1198375"></trkpt>
      <trkpt lat="-37.9525573" lon="145.1198380"></trkpt>
      <trkpt lat="-37.9525793" lon="145.1198355"></trkpt>
      <trkpt lat="-37.9525913" lon="145.1198329"></trkpt>
      <trkpt lat="-37.9526032" lon="145.1198286"></trkpt>
      <trkpt lat="-37.9526527" lon="145.1198019"></trkpt>
      <trkpt lat="-37.9527559" lon="145.1197363"></trkpt>
      <trkpt lat="-37.9527903" lon="145.1197180"></trkpt>
      <trkpt lat="-37.9528244" lon="145.1197053"></trkpt>
      <trkpt lat="-37.9528672" lon="145.1196998"></trkpt>
      <trkpt lat="-37.9529075" lon="145.1197009"></trkpt>
      <trkpt lat="-37.9529289" lon="145.1197052"></trkpt>
      <trkpt lat="-37.9529483" lon="145.1197120"></trkpt>
      <trkpt lat="-37.9529898" lon="145.1197326"></trkpt>
      <trkpt lat="-37.9530571" lon="145.1197843"></trkpt>
      <trkpt lat="-37.9531233" lon="145.1198329"></trkpt>
      <trkpt lat="-37.9531421" lon="145.1198408"></trkpt>
      <trkpt lat="-37.9531586" lon="145.1198437"></trkpt>
      <trkpt lat="-37.9531758" lon="145.1198436"></trkpt>
      <trkpt lat="-37.9531930" lon="145.1198400"></trkpt>
      <trkpt lat="-37.9532106" lon="145.1198331"></trkpt>
      <trkpt lat="-37.9532306" lon="145.1198206"></trkpt>
      <trkpt lat="-37.9532988" lon="145.1197555"></trkpt>
      <trkpt lat="-37.9533672" lon="145.1196896"></trkpt>
      <trkpt lat="-37.9533865" lon="145.1196769"></trkpt>
      <trkpt lat="-37.9534064" lon="145.1196677"></trkpt>
      <trkpt lat="-37.9535347" lon="145.1196257"></trkpt>
      <trkpt lat="-37.9537526" lon="145.1195809"></trkpt>
      <trkpt lat="-37.9538743" lon="145.1195592"></trkpt>
      <trkpt lat="-37.9539761" lon="145.1195524"></trkpt>
      <trkpt lat="-37.9539966" lon="145.1195582"></trkpt>
      <trkpt lat="-37.9540128" lon="145.1195667"></trkpt>
      <trkpt lat="-37.9540255" lon="145.1195751"></trkpt>
      <trkpt lat="-37.9540331" lon="145.1195807"></trkpt>
      <trkpt lat="-37.9540395" lon="145.1195880"></trkpt>
      <trkpt lat="-37.9540494" lon="145.1196034"></trkpt>
      <trkpt lat="-37.9540598" lon="145.1196234"></trkpt>
      <trkpt lat="-37.9540675" lon="145.1196435"></trkpt>
      <trkpt lat="-37.9540708" lon="145.1196593"></trkpt>
      <trkpt lat="-37.9540722" lon="145.1196751"></trkpt>
      <trkpt lat="-37.9540721" lon="145.1196909"></trkpt>
      <trkpt lat="-37.9540691" lon="145.1197161"></trkpt>
      <trkpt lat="-37.9540637" lon="145.1197390"></trkpt>
      <trkpt lat="-37.9540593" lon="145.1197518"></trkpt>
      <trkpt lat="-37.9540541" lon="145.1197631"></trkpt>
      <trkpt lat="-37.9540487" lon="145.1197740"></trkpt>
      <trkpt lat="-37.9540403" lon="145.1197867"></trkpt>
      <trkpt lat="-37.9539586" lon="145.1198708"></trkpt>
      <trkpt lat="-37.9538741" lon="145.1199593"></trkpt>
      <trkpt lat="-37.9538616" lon="145.1199780"></trkpt>
      <trkpt lat="-37.9538535" lon="145.1199960"></trkpt>
      <trkpt lat="-37.9538474" lon="145.1200150"></trkpt>
      <trkpt lat="-37.9538426" lon="145.1200360"></trkpt>
      <trkpt lat="-37.9538402" lon="145.1200556"></trkpt>
      <trkpt lat="-37.9538402" lon="145.1200690"></trkpt>
      <trkpt lat="-37.9538417" lon="145.1200816"></trkpt>
      <trkpt lat="-37.9538448" lon="145.1200946"></trkpt>
      <trkpt lat="-37.9538511" lon="145.1201132"></trkpt>
      <trkpt lat="-37.9538599" lon="145.1201324"></trkpt>
      <trkpt lat="-37.9538710" lon="145.1201489"></trkpt>
      <trkpt lat="-37.9538870" lon="145.1201625"></trkpt>
      <trkpt lat="-37.9539055" lon="145.1201731"></trkpt>
      <trkpt lat="-37.9539203" lon="145.1201800"></trkpt>
      <trkpt lat="-37.9539259" lon="145.1201820"></trkpt>
      <trkpt lat="-37.9539319" lon="145.1201831"></trkpt>
      <trkpt lat="-37.9540074" lon="145.1201890"></trkpt>
      <trkpt lat="-37.9540502" lon="145.1201925"></trkpt>
      <trkpt lat="-37.9540909" lon="145.1202008"></trkpt>
      <trkpt lat="-37.9541117" lon="145.1202105"></trkpt>
      <trkpt lat="-37.9541307" lon="145.1202230"></trkpt>
      <trkpt lat="-37.9541471" lon="145.1202380"></trkpt>
      <trkpt lat="-37.9541596" lon="145.1202539"></trkpt>
      <trkpt lat="-37.9541699" lon="145.1202718"></trkpt>
      <trkpt lat="-37.9541771" lon="145.1202908"></trkpt>
      <trkpt lat="-37.9541801" lon="145.1203054"></trkpt>
      <trkpt lat="-37.9541814" lon="145.1203209"></trkpt>
      <trkpt lat="-37.9541811" lon="145.1203365"></trkpt>
      <trkpt lat="-37.9541793" lon="145.1203512"></trkpt>
      <trkpt lat="-37.9541741" lon="145.1203698"></trkpt>
      <trkpt lat="-37.9541661" lon="145.1203874"></trkpt>
      <trkpt lat="-37.9541568" lon="145.1204024"></trkpt>
      <trkpt lat="-37.9541475" lon="145.1204127"></trkpt>
      <trkpt lat="-37.9541372" lon="145.1204210"></trkpt>
      <trkpt lat="-37.9541275" lon="145.1204275"></trkpt>
      <trkpt lat="-37.9541189" lon="145.1204324"></trkpt>
      <trkpt lat="-37.9541098" lon="145.1204359"></trkpt>
      <trkpt lat="-37.9540938" lon="145.1204399"></trkpt>
      <trkpt lat="-37.9540758" lon="145.1204425"></trkpt>
      <trkpt lat="-37.9540337" lon="145.1204423"></trkpt>
      <trkpt lat="-37.9537865" lon="145.1204086"></trkpt>
      <trkpt lat="-37.9537728" lon="145.1204042"></trkpt>
      <trkpt lat="-37.9537617" lon="145.1203978"></trkpt>
      <trkpt lat="-37.9537339" lon="145.1203749"></trkpt>
      <trkpt lat="-37.9537086" lon="145.1203490"></trkpt>
      <trkpt lat="-37.9537011" lon="145.1203388"></trkpt>
      <trkpt lat="-37.9536953" lon="145.1203282"></trkpt>
      <trkpt lat="-37.9536874" lon="145.1203108"></trkpt>
      <trkpt lat="-37.9536802" lon="145.1202903"></trkpt>
      <trkpt lat="-37.9536724" lon="145.1202588"></trkpt>
      <trkpt lat="-37.9536673" lon="145.1202256"></trkpt>
      <trkpt lat="-37.9536667" lon="145.1201984"></trkpt>
      <trkpt lat="-37.9536684" lon="145.1201715"></trkpt>
      <trkpt lat="-37.9536756" lon="145.1201126"></trkpt>
      <trkpt lat="-37.9536948" lon="145.1200216"></trkpt>
      <trkpt lat="-37.9537090" lon="145.1199323"></trkpt>
      <trkpt lat="-37.9537078" lon="145.1199130"></trkpt>
      <trkpt lat="-37.9537046" lon="145.1198972"></trkpt>
      <trkpt lat="-37.9536998" lon="145.1198822"></trkpt>
      <trkpt lat="-37.9536935" lon="145.1198669"></trkpt>
      <trkpt lat="-37.9536858" lon="145.1198524"></trkpt>
      <trkpt lat="-37.9536772" lon="145.1198401"></trkpt>
      <trkpt lat="-37.9536650" lon="145.1198284"></trkpt>
      <trkpt lat="-37.9536512" lon="145.1198196"></trkpt>
      <trkpt lat="-37.9536326" lon="145.1198110"></trkpt>
      <trkpt lat="-37.9536124" lon="145.1198055"></trkpt>
      <trkpt lat="-37.9535906" lon="145.1198041"></trkpt>
      <trkpt lat="-37.9535684" lon="145.1198063"></trkpt>
      <trkpt lat="-37.9535461" lon="145.1198120"></trkpt>
      <trkpt lat="-37.9535245" lon="145.1198210"></trkpt>
      <trkpt lat="-37.9535047" lon="145.1198329"></trkpt>
      <trkpt lat="-37.9534865" lon="145.1198477"></trkpt>
      <trkpt lat="-37.9534704" lon="145.1198650"></trkpt>
      <trkpt lat="-37.9534565" lon="145.1198847"></trkpt>
      <trkpt lat="-37.9534452" lon="145.1199064"></trkpt>
      <trkpt lat="-37.9534365" lon="145.1199297"></trkpt>
      <trkpt lat="-37.9534307" lon="145.1199533"></trkpt>
      <trkpt lat="-37.9534276" lon="145.1199773"></trkpt>
      <trkpt lat="-37.9534276" lon="145.1200000"></trkpt>
    </trkseg>
  </trk>
</gpx>
