<?xml version="1.0" encoding="UTF-8"?>
<gpx version="1.1" creator="tkk2gpx (Aus_Kart.ztracks converter)"
     xmlns="http://www.topografix.com/GPX/1/1"
     xmlns:xsi="http://www.w3.org/2001/XMLSchema-instance"
     xsi:schemaLocation="http://www.topografix.com/GPX/1/1 http://www.topografix.com/GPX/1/1/gpx.xsd">
  <metadata>
    <name>OrangeK C</name>
    <desc>Kart track, NSW AU. One lap starting and ending at the Start/Finish line. Declared length 829 m.</desc>
  </metadata>
  <wpt lat="-33.3030165" lon="149.1278382">
    <name>Start/Finish</name>
    <desc>Start/Finish line location</desc>
    <sym>Flag, Checkered</sym>
  </wpt>
  <trk>
    <name>OrangeK C - 1 lap</name>
    <trkseg>
      <trkpt lat="-33.3031938" lon="149.1281368"></trkpt>
      <trkpt lat="-33.3031806" lon="149.1281527"></trkpt>
      <trkpt lat="-33.3031639" lon="149.1281862"></trkpt>
      <trkpt lat="-33.3031510" lon="149.1282248"></trkpt>
      <trkpt lat="-33.3031388" lon="149.1282748"></trkpt>
      <trkpt lat="-33.3031248" lon="149.1283224"></trkpt>
      <trkpt lat="-33.3031141" lon="149.1283423"></trkpt>
      <trkpt lat="-33.3031018" lon="149.1283597"></trkpt>
      <trkpt lat="-33.3030874" lon="149.1283747"></trkpt>
      <trkpt lat="-33.3030706" lon="149.1283873"></trkpt>
      <trkpt lat="-33.3030516" lon="149.1283974"></trkpt>
      <trkpt lat="-33.3030311" lon="149.1284055"></trkpt>
      <trkpt lat="-33.3029924" lon="149.1284150"></trkpt>
      <trkpt lat="-33.3029514" lon="149.1284177"></trkpt>
      <trkpt lat="-33.3029248" lon="149.1284153"></trkpt>
      <trkpt lat="-33.3028982" lon="149.1284094"></trkpt>
      <trkpt lat="-33.3028700" lon="149.1283982"></trkpt>
      <trkpt lat="-33.3028006" lon="149.1283516"></trkpt>
      <trkpt lat="-33.3027196" lon="149.1282796"></trkpt>
      <trkpt lat="-33.3024919" lon="149.1280485"></trkpt>
      <trkpt lat="-33.3022949" lon="149.1278224"></trkpt>
      <trkpt lat="-33.3022665" lon="149.1277783"></trkpt>
      <trkpt lat="-33.3022492" lon="149.1277399"></trkpt>
      <trkpt lat="-33.3022346" lon="149.1276957"></trkpt>
      <trkpt lat="-33.3022255" lon="149.1276501"></trkpt>
      <trkpt lat="-33.3022221" lon="149.1276061"></trkpt>
      <trkpt lat="-33.3022240" lon="149.1275576"></trkpt>
      <trkpt lat="-33.3022430" lon="149.1274577"></trkpt>
      <trkpt lat="-33.3022594" lon="149.1273605"></trkpt>
      <trkpt lat="-33.3022587" lon="149.1273327"></trkpt>
      <trkpt lat="-33.3022553" lon="149.1273089"></trkpt>
      <trkpt lat="-33.3022489" lon="149.1272866"></trkpt>
      <trkpt lat="-33.3022402" lon="149.1272664"></trkpt>
      <trkpt lat="-33.3022290" lon="149.1272476"></trkpt>
      <trkpt lat="-33.3022151" lon="149.1272303"></trkpt>
      <trkpt lat="-33.3021960" lon="149.1272124"></trkpt>
      <trkpt lat="-33.3021737" lon="149.1271963"></trkpt>
      <trkpt lat="-33.3021498" lon="149.1271830"></trkpt>
      <trkpt lat="-33.3021101" lon="149.1271689"></trkpt>
      <trkpt lat="-33.3020696" lon="149.1271616"></trkpt>
      <trkpt lat="-33.3020359" lon="149.1271608"></trkpt>
      <trkpt lat="-33.3020041" lon="149.1271663"></trkpt>
      <trkpt lat="-33.3019846" lon="149.1271742"></trkpt>
      <trkpt lat="-33.3019662" lon="149.1271850"></trkpt>
      <trkpt lat="-33.3019499" lon="149.1271982"></trkpt>
      <trkpt lat="-33.3019354" lon="149.1272142"></trkpt>
      <trkpt lat="-33.3019231" lon="149.1272325"></trkpt>
      <trkpt lat="-33.3019137" lon="149.1272523"></trkpt>
      <trkpt lat="-33.3019079" lon="149.1272734"></trkpt>
      <trkpt lat="-33.3019052" lon="149.1272961"></trkpt>
      <trkpt lat="-33.3019045" lon="149.1273211"></trkpt>
      <trkpt lat="-33.3019085" lon="149.1273802"></trkpt>
      <trkpt lat="-33.3019208" lon="149.1274516"></trkpt>
      <trkpt lat="-33.3020165" lon="149.1277850"></trkpt>
      <trkpt lat="-33.3021213" lon="149.1281115"></trkpt>
      <trkpt lat="-33.3021788" lon="149.1282908"></trkpt>
      <trkpt lat="-33.3022023" lon="149.1283433"></trkpt>
      <trkpt lat="-33.3022261" lon="149.1283838"></trkpt>
      <trkpt lat="-33.3022557" lon="149.1284238"></trkpt>
      <trkpt lat="-33.3022892" lon="149.1284592"></trkpt>
      <trkpt lat="-33.3023246" lon="149.1284880"></trkpt>
      <trkpt lat="-33.3023631" lon="149.1285114"></trkpt>
      <trkpt lat="-33.3024001" lon="149.1285271"></trkpt>
      <trkpt lat="-33.3024471" lon="149.1285393"></trkpt>
      <trkpt lat="-33.3028860" lon="149.1285840"></trkpt>
      <trkpt lat="-33.3029894" lon="149.1285877"></trkpt>
      <trkpt lat="-33.3030850" lon="149.1285816"></trkpt>
      <trkpt lat="-33.3031469" lon="149.1285686"></trkpt>
      <trkpt lat="-33.3032022" lon="149.1285489"></trkpt>
      <trkpt lat="-33.3032440" lon="149.1285264"></trkpt>
      <trkpt lat="-33.3032858" lon="149.1284966"></trkpt>
      <trkpt lat="-33.3033675" lon="149.1284193"></trkpt>
      <trkpt lat="-33.3034501" lon="149.1283480"></trkpt>
      <trkpt lat="-33.3034773" lon="149.1283346"></trkpt>
      <trkpt lat="-33.3035027" lon="149.1283271"></trkpt>
      <trkpt lat="-33.3035333" lon="149.1283225"></trkpt>
      <trkpt lat="-33.3036503" lon="149.1283280"></trkpt>
      <trkpt lat="-33.3037755" lon="149.1283371"></trkpt>
      <trkpt lat="-33.3039091" lon="149.1283413"></trkpt>
      <trkpt lat="-33.3039531" lon="149.1283321"></trkpt>
      <trkpt lat="-33.3039927" lon="149.1283170"></trkpt>
      <trkpt lat="-33.3040297" lon="149.1282956"></trkpt>
      <trkpt lat="-33.3040622" lon="149.1282686"></trkpt>
      <trkpt lat="-33.3040802" lon="149.1282479"></trkpt>
      <trkpt lat="-33.3040957" lon="149.1282249"></trkpt>
      <trkpt lat="-33.3041084" lon="149.1282007"></trkpt>
      <trkpt lat="-33.3041179" lon="149.1281755"></trkpt>
      <trkpt lat="-33.3041245" lon="149.1281491"></trkpt>
      <trkpt lat="-33.3041286" lon="149.1281213"></trkpt>
      <trkpt lat="-33.3041286" lon="149.1280719"></trkpt>
      <trkpt lat="-33.3041279" lon="149.1280100"></trkpt>
      <trkpt lat="-33.3041214" lon="149.1278023"></trkpt>
      <trkpt lat="-33.3041246" lon="149.1273871"></trkpt>
      <trkpt lat="-33.3041258" lon="149.1272685"></trkpt>
      <trkpt lat="-33.3041189" lon="149.1271771"></trkpt>
      <trkpt lat="-33.3041133" lon="149.1271551"></trkpt>
      <trkpt lat="-33.3041062" lon="149.1271375"></trkpt>
      <trkpt lat="-33.3040966" lon="149.1271224"></trkpt>
      <trkpt lat="-33.3040879" lon="149.1271128"></trkpt>
      <trkpt lat="-33.3040779" lon="149.1271043"></trkpt>
      <trkpt lat="-33.3040670" lon="149.1270973"></trkpt>
      <trkpt lat="-33.3040559" lon="149.1270924"></trkpt>
      <trkpt lat="-33.3040451" lon="149.1270897"></trkpt>
      <trkpt lat="-33.3040336" lon="149.1270886"></trkpt>
      <trkpt lat="-33.3040223" lon="149.1270892"></trkpt>
      <trkpt lat="-33.3040118" lon="149.1270917"></trkpt>
      <trkpt lat="-33.3040020" lon="149.1270964"></trkpt>
      <trkpt lat="-33.3039928" lon="149.1271031"></trkpt>
      <trkpt lat="-33.3039842" lon="149.1271116"></trkpt>
      <trkpt lat="-33.3039763" lon="149.1271214"></trkpt>
      <trkpt lat="-33.3039589" lon="149.1271561"></trkpt>
      <trkpt lat="-33.3039443" lon="149.1271991"></trkpt>
      <trkpt lat="-33.3039180" lon="149.1273295"></trkpt>
      <trkpt lat="-33.3038919" lon="149.1274802"></trkpt>
      <trkpt lat="-33.3038648" lon="149.1276271"></trkpt>
      <trkpt lat="-33.3038453" lon="149.1277063"></trkpt>
      <trkpt lat="-33.3038154" lon="149.1277724"></trkpt>
      <trkpt lat="-33.3037797" lon="149.1278345"></trkpt>
      <trkpt lat="-33.3037383" lon="149.1278904"></trkpt>
      <trkpt lat="-33.3036987" lon="149.1279337"></trkpt>
      <trkpt lat="-33.3036479" lon="149.1279718"></trkpt>
      <trkpt lat="-33.3035057" lon="149.1280279"></trkpt>
      <trkpt lat="-33.3033555" lon="149.1280731"></trkpt>
      <trkpt lat="-33.3032844" lon="149.1280919"></trkpt>
      <trkpt lat="-33.3032282" lon="149.1281112"></trkpt>
      <trkpt lat="-33.3032092" lon="149.1281233"></trkpt>
      <trkpt lat="-33.3031938" lon="149.1281368"></trkpt>
    </trkseg>
  </trk>
</gpx>
