<?xml version="1.0" encoding="UTF-8"?>
<gpx version="1.1" creator="tkk2gpx (Aus_Kart.ztracks converter)"
     xmlns="http://www.topografix.com/GPX/1/1"
     xmlns:xsi="http://www.w3.org/2001/XMLSchema-instance"
     xsi:schemaLocation="http://www.topografix.com/GPX/1/1 http://www.topografix.com/GPX/1/1/gpx.xsd">
  <metadata>
    <name>PMKRC Var1</name>
    <desc>Kart track, NSW AU. One lap starting and ending at the Start/Finish line. Declared length 1010 m.</desc>
  </metadata>
  <wpt lat="-31.5241096" lon="152.7903523">
    <name>Start/Finish</name>
    <desc>Start/Finish line location</desc>
    <sym>Flag, Checkered</sym>
  </wpt>
  <trk>
    <name>PMKRC Var1 - 1 lap</name>
    <trkseg>
      <trkpt lat="-31.5240994" lon="152.7900780"></trkpt>
      <trkpt lat="-31.5241347" lon="152.7900685"></trkpt>
      <trkpt lat="-31.5241551" lon="152.7900586"></trkpt>
      <trkpt lat="-31.5241740" lon="152.7900459"></trkpt>
      <trkpt lat="-31.5241905" lon="152.7900310"></trkpt>
      <trkpt lat="-31.5242045" lon="152.7900137"></trkpt>
      <trkpt lat="-31.5242162" lon="152.7899943"></trkpt>
      <trkpt lat="-31.5242252" lon="152.7899736"></trkpt>
      <trkpt lat="-31.5242310" lon="152.7899525"></trkpt>
      <trkpt lat="-31.5242340" lon="152.7899302"></trkpt>
      <trkpt lat="-31.5242354" lon="152.7899033"></trkpt>
      <trkpt lat="-31.5242267" lon="152.7897920"></trkpt>
      <trkpt lat="-31.5242184" lon="152.7896762"></trkpt>
      <trkpt lat="-31.5242234" lon="152.7896232"></trkpt>
      <trkpt lat="-31.5242342" lon="152.7895774"></trkpt>
      <trkpt lat="-31.5242503" lon="152.7895369"></trkpt>
      <trkpt lat="-31.5242714" lon="152.7895011"></trkpt>
      <trkpt lat="-31.5242862" lon="152.7894828"></trkpt>
      <trkpt lat="-31.5243027" lon="152.7894667"></trkpt>
      <trkpt lat="-31.5243211" lon="152.7894527"></trkpt>
      <trkpt lat="-31.5243425" lon="152.7894401"></trkpt>
      <trkpt lat="-31.5243660" lon="152.7894299"></trkpt>
      <trkpt lat="-31.5243911" lon="152.7894230"></trkpt>
      <trkpt lat="-31.5244217" lon="152.7894196"></trkpt>
      <trkpt lat="-31.5244545" lon="152.7894204"></trkpt>
      <trkpt lat="-31.5244876" lon="152.7894255"></trkpt>
      <trkpt lat="-31.5245455" lon="152.7894451"></trkpt>
      <trkpt lat="-31.5246021" lon="152.7894750"></trkpt>
      <trkpt lat="-31.5246548" lon="152.7895129"></trkpt>
      <trkpt lat="-31.5247040" lon="152.7895615"></trkpt>
      <trkpt lat="-31.5247623" lon="152.7896408"></trkpt>
      <trkpt lat="-31.5248176" lon="152.7897407"></trkpt>
      <trkpt lat="-31.5249125" lon="152.7899998"></trkpt>
      <trkpt lat="-31.5249664" lon="152.7901470"></trkpt>
      <trkpt lat="-31.5250033" lon="152.7902631"></trkpt>
      <trkpt lat="-31.5252258" lon="152.7909737"></trkpt>
      <trkpt lat="-31.5252411" lon="152.7910492"></trkpt>
      <trkpt lat="-31.5252461" lon="152.7911114"></trkpt>
      <trkpt lat="-31.5252433" lon="152.7911730"></trkpt>
      <trkpt lat="-31.5252329" lon="152.7912325"></trkpt>
      <trkpt lat="-31.5252149" lon="152.7912909"></trkpt>
      <trkpt lat="-31.5251900" lon="152.7913437"></trkpt>
      <trkpt lat="-31.5251730" lon="152.7913691"></trkpt>
      <trkpt lat="-31.5251540" lon="152.7913915"></trkpt>
      <trkpt lat="-31.5251328" lon="152.7914108"></trkpt>
      <trkpt lat="-31.5250980" lon="152.7914331"></trkpt>
      <trkpt lat="-31.5250592" lon="152.7914490"></trkpt>
      <trkpt lat="-31.5250131" lon="152.7914601"></trkpt>
      <trkpt lat="-31.5249653" lon="152.7914627"></trkpt>
      <trkpt lat="-31.5249189" lon="152.7914543"></trkpt>
      <trkpt lat="-31.5248738" lon="152.7914370"></trkpt>
      <trkpt lat="-31.5248285" lon="152.7914113"></trkpt>
      <trkpt lat="-31.5247834" lon="152.7913740"></trkpt>
      <trkpt lat="-31.5247097" lon="152.7912838"></trkpt>
      <trkpt lat="-31.5246348" lon="152.7911720"></trkpt>
      <trkpt lat="-31.5245480" lon="152.7910185"></trkpt>
      <trkpt lat="-31.5244714" lon="152.7908871"></trkpt>
      <trkpt lat="-31.5244454" lon="152.7908554"></trkpt>
      <trkpt lat="-31.5244201" lon="152.7908337"></trkpt>
      <trkpt lat="-31.5244018" lon="152.7908225"></trkpt>
      <trkpt lat="-31.5243824" lon="152.7908139"></trkpt>
      <trkpt lat="-31.5243630" lon="152.7908087"></trkpt>
      <trkpt lat="-31.5243450" lon="152.7908072"></trkpt>
      <trkpt lat="-31.5243269" lon="152.7908086"></trkpt>
      <trkpt lat="-31.5243101" lon="152.7908133"></trkpt>
      <trkpt lat="-31.5242985" lon="152.7908192"></trkpt>
      <trkpt lat="-31.5242875" lon="152.7908269"></trkpt>
      <trkpt lat="-31.5242775" lon="152.7908363"></trkpt>
      <trkpt lat="-31.5242687" lon="152.7908468"></trkpt>
      <trkpt lat="-31.5242580" lon="152.7908652"></trkpt>
      <trkpt lat="-31.5242499" lon="152.7908865"></trkpt>
      <trkpt lat="-31.5242442" lon="152.7909091"></trkpt>
      <trkpt lat="-31.5242413" lon="152.7909482"></trkpt>
      <trkpt lat="-31.5242432" lon="152.7909938"></trkpt>
      <trkpt lat="-31.5242551" lon="152.7910982"></trkpt>
      <trkpt lat="-31.5242638" lon="152.7912023"></trkpt>
      <trkpt lat="-31.5242598" lon="152.7912471"></trkpt>
      <trkpt lat="-31.5242499" lon="152.7912860"></trkpt>
      <trkpt lat="-31.5242391" lon="152.7913129"></trkpt>
      <trkpt lat="-31.5242253" lon="152.7913389"></trkpt>
      <trkpt lat="-31.5242094" lon="152.7913614"></trkpt>
      <trkpt lat="-31.5241942" lon="152.7913776"></trkpt>
      <trkpt lat="-31.5241775" lon="152.7913912"></trkpt>
      <trkpt lat="-31.5241596" lon="152.7914014"></trkpt>
      <trkpt lat="-31.5241407" lon="152.7914079"></trkpt>
      <trkpt lat="-31.5241207" lon="152.7914114"></trkpt>
      <trkpt lat="-31.5241015" lon="152.7914115"></trkpt>
      <trkpt lat="-31.5240853" lon="152.7914086"></trkpt>
      <trkpt lat="-31.5240699" lon="152.7914030"></trkpt>
      <trkpt lat="-31.5240552" lon="152.7913949"></trkpt>
      <trkpt lat="-31.5240391" lon="152.7913821"></trkpt>
      <trkpt lat="-31.5240241" lon="152.7913660"></trkpt>
      <trkpt lat="-31.5240112" lon="152.7913480"></trkpt>
      <trkpt lat="-31.5240003" lon="152.7913275"></trkpt>
      <trkpt lat="-31.5239919" lon="152.7913050"></trkpt>
      <trkpt lat="-31.5239859" lon="152.7912803"></trkpt>
      <trkpt lat="-31.5239828" lon="152.7912267"></trkpt>
      <trkpt lat="-31.5239854" lon="152.7911674"></trkpt>
      <trkpt lat="-31.5239935" lon="152.7910922"></trkpt>
      <trkpt lat="-31.5239993" lon="152.7910200"></trkpt>
      <trkpt lat="-31.5239959" lon="152.7909764"></trkpt>
      <trkpt lat="-31.5239873" lon="152.7909373"></trkpt>
      <trkpt lat="-31.5239787" lon="152.7909137"></trkpt>
      <trkpt lat="-31.5239679" lon="152.7908913"></trkpt>
      <trkpt lat="-31.5239552" lon="152.7908710"></trkpt>
      <trkpt lat="-31.5239419" lon="152.7908541"></trkpt>
      <trkpt lat="-31.5239269" lon="152.7908391"></trkpt>
      <trkpt lat="-31.5239107" lon="152.7908271"></trkpt>
      <trkpt lat="-31.5238943" lon="152.7908189"></trkpt>
      <trkpt lat="-31.5238767" lon="152.7908133"></trkpt>
      <trkpt lat="-31.5238593" lon="152.7908111"></trkpt>
      <trkpt lat="-31.5238424" lon="152.7908127"></trkpt>
      <trkpt lat="-31.5238255" lon="152.7908176"></trkpt>
      <trkpt lat="-31.5238102" lon="152.7908253"></trkpt>
      <trkpt lat="-31.5237970" lon="152.7908359"></trkpt>
      <trkpt lat="-31.5237855" lon="152.7908495"></trkpt>
      <trkpt lat="-31.5237736" lon="152.7908668"></trkpt>
      <trkpt lat="-31.5237405" lon="152.7909387"></trkpt>
      <trkpt lat="-31.5237043" lon="152.7910146"></trkpt>
      <trkpt lat="-31.5236747" lon="152.7910532"></trkpt>
      <trkpt lat="-31.5236406" lon="152.7910839"></trkpt>
      <trkpt lat="-31.5235942" lon="152.7911104"></trkpt>
      <trkpt lat="-31.5235432" lon="152.7911284"></trkpt>
      <trkpt lat="-31.5234967" lon="152.7911363"></trkpt>
      <trkpt lat="-31.5234421" lon="152.7911351"></trkpt>
      <trkpt lat="-31.5232632" lon="152.7910999"></trkpt>
      <trkpt lat="-31.5230918" lon="152.7910456"></trkpt>
      <trkpt lat="-31.5230477" lon="152.7910201"></trkpt>
      <trkpt lat="-31.5230169" lon="152.7909934"></trkpt>
      <trkpt lat="-31.5230044" lon="152.7909799"></trkpt>
      <trkpt lat="-31.5229943" lon="152.7909661"></trkpt>
      <trkpt lat="-31.5229863" lon="152.7909506"></trkpt>
      <trkpt lat="-31.5229792" lon="152.7909291"></trkpt>
      <trkpt lat="-31.5229747" lon="152.7909053"></trkpt>
      <trkpt lat="-31.5229731" lon="152.7908823"></trkpt>
      <trkpt lat="-31.5229742" lon="152.7908631"></trkpt>
      <trkpt lat="-31.5229776" lon="152.7908445"></trkpt>
      <trkpt lat="-31.5229838" lon="152.7908263"></trkpt>
      <trkpt lat="-31.5229942" lon="152.7908059"></trkpt>
      <trkpt lat="-31.5230079" lon="152.7907860"></trkpt>
      <trkpt lat="-31.5230240" lon="152.7907687"></trkpt>
      <trkpt lat="-31.5230512" lon="152.7907498"></trkpt>
      <trkpt lat="-31.5230864" lon="152.7907341"></trkpt>
      <trkpt lat="-31.5231906" lon="152.7907072"></trkpt>
      <trkpt lat="-31.5232964" lon="152.7906779"></trkpt>
      <trkpt lat="-31.5233376" lon="152.7906551"></trkpt>
      <trkpt lat="-31.5233701" lon="152.7906288"></trkpt>
      <trkpt lat="-31.5233968" lon="152.7905991"></trkpt>
      <trkpt lat="-31.5234185" lon="152.7905655"></trkpt>
      <trkpt lat="-31.5234366" lon="152.7905256"></trkpt>
      <trkpt lat="-31.5234487" lon="152.7904822"></trkpt>
      <trkpt lat="-31.5234540" lon="152.7904333"></trkpt>
      <trkpt lat="-31.5234524" lon="152.7903809"></trkpt>
      <trkpt lat="-31.5234222" lon="152.7902382"></trkpt>
      <trkpt lat="-31.5232833" lon="152.7897003"></trkpt>
      <trkpt lat="-31.5232730" lon="152.7896161"></trkpt>
      <trkpt lat="-31.5232722" lon="152.7895439"></trkpt>
      <trkpt lat="-31.5232788" lon="152.7894674"></trkpt>
      <trkpt lat="-31.5232929" lon="152.7893975"></trkpt>
      <trkpt lat="-31.5233084" lon="152.7893537"></trkpt>
      <trkpt lat="-31.5233286" lon="152.7893162"></trkpt>
      <trkpt lat="-31.5233435" lon="152.7892956"></trkpt>
      <trkpt lat="-31.5233602" lon="152.7892772"></trkpt>
      <trkpt lat="-31.5233783" lon="152.7892624"></trkpt>
      <trkpt lat="-31.5233961" lon="152.7892524"></trkpt>
      <trkpt lat="-31.5234150" lon="152.7892453"></trkpt>
      <trkpt lat="-31.5234335" lon="152.7892418"></trkpt>
      <trkpt lat="-31.5234495" lon="152.7892419"></trkpt>
      <trkpt lat="-31.5234651" lon="152.7892450"></trkpt>
      <trkpt lat="-31.5234800" lon="152.7892506"></trkpt>
      <trkpt lat="-31.5234950" lon="152.7892589"></trkpt>
      <trkpt lat="-31.5235092" lon="152.7892704"></trkpt>
      <trkpt lat="-31.5235237" lon="152.7892878"></trkpt>
      <trkpt lat="-31.5235805" lon="152.7894216"></trkpt>
      <trkpt lat="-31.5236398" lon="152.7895897"></trkpt>
      <trkpt lat="-31.5237497" lon="152.7898477"></trkpt>
      <trkpt lat="-31.5237822" lon="152.7899019"></trkpt>
      <trkpt lat="-31.5238160" lon="152.7899464"></trkpt>
      <trkpt lat="-31.5238520" lon="152.7899850"></trkpt>
      <trkpt lat="-31.5238916" lon="152.7900181"></trkpt>
      <trkpt lat="-31.5239354" lon="152.7900455"></trkpt>
      <trkpt lat="-31.5239810" lon="152.7900659"></trkpt>
      <trkpt lat="-31.5240216" lon="152.7900768"></trkpt>
      <trkpt lat="-31.5240617" lon="152.7900808"></trkpt>
      <trkpt lat="-31.5240994" lon="152.7900780"></trkpt>
    </trkseg>
  </trk>
</gpx>
