<?xml version="1.0" encoding="UTF-8"?>
<gpx version="1.1" creator="tkk2gpx (Aus_Kart.ztracks converter)"
     xmlns="http://www.topografix.com/GPX/1/1"
     xmlns:xsi="http://www.w3.org/2001/XMLSchema-instance"
     xsi:schemaLocation="http://www.topografix.com/GPX/1/1 http://www.topografix.com/GPX/1/1/gpx.xsd">
  <metadata>
    <name>STKC</name>
    <desc>Kart track, TAS AU. One lap starting and ending at the Start/Finish line. Declared length 746 m.</desc>
  </metadata>
  <wpt lat="-42.7046549" lon="147.4947838">
    <name>Start/Finish</name>
    <desc>Start/Finish line location</desc>
    <sym>Flag, Checkered</sym>
  </wpt>
  <trk>
    <name>STKC - 1 lap</name>
    <trkseg>
      <trkpt lat="-42.7047363" lon="147.4945924"></trkpt>
      <trkpt lat="-42.7047796" lon="147.4946356"></trkpt>
      <trkpt lat="-42.7047983" lon="147.4946594"></trkpt>
      <trkpt lat="-42.7048143" lon="147.4946851"></trkpt>
      <trkpt lat="-42.7048269" lon="147.4947137"></trkpt>
      <trkpt lat="-42.7048360" lon="147.4947438"></trkpt>
      <trkpt lat="-42.7048415" lon="147.4947752"></trkpt>
      <trkpt lat="-42.7048434" lon="147.4948071"></trkpt>
      <trkpt lat="-42.7048416" lon="147.4948392"></trkpt>
      <trkpt lat="-42.7048366" lon="147.4948710"></trkpt>
      <trkpt lat="-42.7048287" lon="147.4949017"></trkpt>
      <trkpt lat="-42.7048183" lon="147.4949317"></trkpt>
      <trkpt lat="-42.7047909" lon="147.4949890"></trkpt>
      <trkpt lat="-42.7047786" lon="147.4950202"></trkpt>
      <trkpt lat="-42.7047687" lon="147.4950528"></trkpt>
      <trkpt lat="-42.7047628" lon="147.4950888"></trkpt>
      <trkpt lat="-42.7047600" lon="147.4951261"></trkpt>
      <trkpt lat="-42.7047613" lon="147.4952059"></trkpt>
      <trkpt lat="-42.7047672" lon="147.4952686"></trkpt>
      <trkpt lat="-42.7047793" lon="147.4953321"></trkpt>
      <trkpt lat="-42.7047991" lon="147.4953929"></trkpt>
      <trkpt lat="-42.7048260" lon="147.4954492"></trkpt>
      <trkpt lat="-42.7049538" lon="147.4956583"></trkpt>
      <trkpt lat="-42.7049937" lon="147.4957236"></trkpt>
      <trkpt lat="-42.7051314" lon="147.4959682"></trkpt>
      <trkpt lat="-42.7051820" lon="147.4960979"></trkpt>
      <trkpt lat="-42.7052005" lon="147.4961663"></trkpt>
      <trkpt lat="-42.7052110" lon="147.4962346"></trkpt>
      <trkpt lat="-42.7052170" lon="147.4963025"></trkpt>
      <trkpt lat="-42.7052168" lon="147.4963356"></trkpt>
      <trkpt lat="-42.7052136" lon="147.4963663"></trkpt>
      <trkpt lat="-42.7052072" lon="147.4964049"></trkpt>
      <trkpt lat="-42.7051965" lon="147.4964429"></trkpt>
      <trkpt lat="-42.7051803" lon="147.4964766"></trkpt>
      <trkpt lat="-42.7051608" lon="147.4965065"></trkpt>
      <trkpt lat="-42.7051434" lon="147.4965270"></trkpt>
      <trkpt lat="-42.7051244" lon="147.4965444"></trkpt>
      <trkpt lat="-42.7051036" lon="147.4965592"></trkpt>
      <trkpt lat="-42.7050815" lon="147.4965713"></trkpt>
      <trkpt lat="-42.7050601" lon="147.4965804"></trkpt>
      <trkpt lat="-42.7050367" lon="147.4965861"></trkpt>
      <trkpt lat="-42.7050001" lon="147.4965874"></trkpt>
      <trkpt lat="-42.7049631" lon="147.4965825"></trkpt>
      <trkpt lat="-42.7049363" lon="147.4965728"></trkpt>
      <trkpt lat="-42.7049123" lon="147.4965587"></trkpt>
      <trkpt lat="-42.7048975" lon="147.4965472"></trkpt>
      <trkpt lat="-42.7048839" lon="147.4965338"></trkpt>
      <trkpt lat="-42.7048719" lon="147.4965181"></trkpt>
      <trkpt lat="-42.7048598" lon="147.4964959"></trkpt>
      <trkpt lat="-42.7048499" lon="147.4964703"></trkpt>
      <trkpt lat="-42.7048421" lon="147.4964417"></trkpt>
      <trkpt lat="-42.7048351" lon="147.4963956"></trkpt>
      <trkpt lat="-42.7048318" lon="147.4963443"></trkpt>
      <trkpt lat="-42.7048324" lon="147.4962997"></trkpt>
      <trkpt lat="-42.7048375" lon="147.4962676"></trkpt>
      <trkpt lat="-42.7048454" lon="147.4962393"></trkpt>
      <trkpt lat="-42.7048554" lon="147.4962115"></trkpt>
      <trkpt lat="-42.7048649" lon="147.4961834"></trkpt>
      <trkpt lat="-42.7048718" lon="147.4961516"></trkpt>
      <trkpt lat="-42.7048748" lon="147.4961189"></trkpt>
      <trkpt lat="-42.7048735" lon="147.4960957"></trkpt>
      <trkpt lat="-42.7048697" lon="147.4960723"></trkpt>
      <trkpt lat="-42.7048630" lon="147.4960507"></trkpt>
      <trkpt lat="-42.7048564" lon="147.4960369"></trkpt>
      <trkpt lat="-42.7048484" lon="147.4960236"></trkpt>
      <trkpt lat="-42.7048391" lon="147.4960119"></trkpt>
      <trkpt lat="-42.7048286" lon="147.4960024"></trkpt>
      <trkpt lat="-42.7048173" lon="147.4959955"></trkpt>
      <trkpt lat="-42.7048046" lon="147.4959901"></trkpt>
      <trkpt lat="-42.7047916" lon="147.4959869"></trkpt>
      <trkpt lat="-42.7047794" lon="147.4959867"></trkpt>
      <trkpt lat="-42.7047652" lon="147.4959921"></trkpt>
      <trkpt lat="-42.7047518" lon="147.4960021"></trkpt>
      <trkpt lat="-42.7047384" lon="147.4960127"></trkpt>
      <trkpt lat="-42.7047170" lon="147.4960308"></trkpt>
      <trkpt lat="-42.7046949" lon="147.4960473"></trkpt>
      <trkpt lat="-42.7046727" lon="147.4960570"></trkpt>
      <trkpt lat="-42.7046493" lon="147.4960621"></trkpt>
      <trkpt lat="-42.7046317" lon="147.4960629"></trkpt>
      <trkpt lat="-42.7046136" lon="147.4960612"></trkpt>
      <trkpt lat="-42.7045965" lon="147.4960564"></trkpt>
      <trkpt lat="-42.7045799" lon="147.4960469"></trkpt>
      <trkpt lat="-42.7045644" lon="147.4960339"></trkpt>
      <trkpt lat="-42.7045507" lon="147.4960191"></trkpt>
      <trkpt lat="-42.7045338" lon="147.4959937"></trkpt>
      <trkpt lat="-42.7045205" lon="147.4959650"></trkpt>
      <trkpt lat="-42.7045096" lon="147.4959312"></trkpt>
      <trkpt lat="-42.7045021" lon="147.4958965"></trkpt>
      <trkpt lat="-42.7044950" lon="147.4958565"></trkpt>
      <trkpt lat="-42.7044795" lon="147.4957582"></trkpt>
      <trkpt lat="-42.7044498" lon="147.4955586"></trkpt>
      <trkpt lat="-42.7044320" lon="147.4954137"></trkpt>
      <trkpt lat="-42.7044168" lon="147.4953482"></trkpt>
      <trkpt lat="-42.7044064" lon="147.4953180"></trkpt>
      <trkpt lat="-42.7043934" lon="147.4952893"></trkpt>
      <trkpt lat="-42.7043778" lon="147.4952633"></trkpt>
      <trkpt lat="-42.7043595" lon="147.4952396"></trkpt>
      <trkpt lat="-42.7043402" lon="147.4952193"></trkpt>
      <trkpt lat="-42.7043166" lon="147.4952008"></trkpt>
      <trkpt lat="-42.7042667" lon="147.4951763"></trkpt>
      <trkpt lat="-42.7042164" lon="147.4951534"></trkpt>
      <trkpt lat="-42.7041935" lon="147.4951393"></trkpt>
      <trkpt lat="-42.7041737" lon="147.4951237"></trkpt>
      <trkpt lat="-42.7041512" lon="147.4951007"></trkpt>
      <trkpt lat="-42.7041312" lon="147.4950743"></trkpt>
      <trkpt lat="-42.7041148" lon="147.4950456"></trkpt>
      <trkpt lat="-42.7041028" lon="147.4950149"></trkpt>
      <trkpt lat="-42.7040978" lon="147.4949935"></trkpt>
      <trkpt lat="-42.7040950" lon="147.4949715"></trkpt>
      <trkpt lat="-42.7040947" lon="147.4949496"></trkpt>
      <trkpt lat="-42.7040972" lon="147.4949276"></trkpt>
      <trkpt lat="-42.7041023" lon="147.4949058"></trkpt>
      <trkpt lat="-42.7041092" lon="147.4948845"></trkpt>
      <trkpt lat="-42.7041227" lon="147.4948545"></trkpt>
      <trkpt lat="-42.7041411" lon="147.4948246"></trkpt>
      <trkpt lat="-42.7041772" lon="147.4947821"></trkpt>
      <trkpt lat="-42.7042133" lon="147.4947402"></trkpt>
      <trkpt lat="-42.7042306" lon="147.4947133"></trkpt>
      <trkpt lat="-42.7042441" lon="147.4946865"></trkpt>
      <trkpt lat="-42.7042560" lon="147.4946558"></trkpt>
      <trkpt lat="-42.7042653" lon="147.4946234"></trkpt>
      <trkpt lat="-42.7042721" lon="147.4945879"></trkpt>
      <trkpt lat="-42.7042764" lon="147.4945512"></trkpt>
      <trkpt lat="-42.7042794" lon="147.4944716"></trkpt>
      <trkpt lat="-42.7042708" lon="147.4943421"></trkpt>
      <trkpt lat="-42.7042590" lon="147.4942754"></trkpt>
      <trkpt lat="-42.7041972" lon="147.4940025"></trkpt>
      <trkpt lat="-42.7041159" lon="147.4937368"></trkpt>
      <trkpt lat="-42.7041029" lon="147.4936663"></trkpt>
      <trkpt lat="-42.7040958" lon="147.4935987"></trkpt>
      <trkpt lat="-42.7040928" lon="147.4935215"></trkpt>
      <trkpt lat="-42.7040993" lon="147.4934143"></trkpt>
      <trkpt lat="-42.7041108" lon="147.4933175"></trkpt>
      <trkpt lat="-42.7041243" lon="147.4932548"></trkpt>
      <trkpt lat="-42.7041420" lon="147.4931955"></trkpt>
      <trkpt lat="-42.7041708" lon="147.4931253"></trkpt>
      <trkpt lat="-42.7042038" lon="147.4930652"></trkpt>
      <trkpt lat="-42.7042223" lon="147.4930404"></trkpt>
      <trkpt lat="-42.7042426" lon="147.4930186"></trkpt>
      <trkpt lat="-42.7042622" lon="147.4930018"></trkpt>
      <trkpt lat="-42.7042835" lon="147.4929891"></trkpt>
      <trkpt lat="-42.7042998" lon="147.4929835"></trkpt>
      <trkpt lat="-42.7043172" lon="147.4929802"></trkpt>
      <trkpt lat="-42.7043339" lon="147.4929805"></trkpt>
      <trkpt lat="-42.7043497" lon="147.4929852"></trkpt>
      <trkpt lat="-42.7043648" lon="147.4929933"></trkpt>
      <trkpt lat="-42.7043781" lon="147.4930040"></trkpt>
      <trkpt lat="-42.7043900" lon="147.4930184"></trkpt>
      <trkpt lat="-42.7043998" lon="147.4930357"></trkpt>
      <trkpt lat="-42.7044075" lon="147.4930543"></trkpt>
      <trkpt lat="-42.7044134" lon="147.4930759"></trkpt>
      <trkpt lat="-42.7044167" lon="147.4930991"></trkpt>
      <trkpt lat="-42.7044178" lon="147.4931226"></trkpt>
      <trkpt lat="-42.7044162" lon="147.4931474"></trkpt>
      <trkpt lat="-42.7044122" lon="147.4931726"></trkpt>
      <trkpt lat="-42.7044065" lon="147.4931965"></trkpt>
      <trkpt lat="-42.7043964" lon="147.4932247"></trkpt>
      <trkpt lat="-42.7043833" lon="147.4932545"></trkpt>
      <trkpt lat="-42.7043260" lon="147.4933801"></trkpt>
      <trkpt lat="-42.7043099" lon="147.4934372"></trkpt>
      <trkpt lat="-42.7042993" lon="147.4934989"></trkpt>
      <trkpt lat="-42.7042935" lon="147.4935639"></trkpt>
      <trkpt lat="-42.7042962" lon="147.4937000"></trkpt>
      <trkpt lat="-42.7043032" lon="147.4937688"></trkpt>
      <trkpt lat="-42.7043172" lon="147.4938350"></trkpt>
      <trkpt lat="-42.7044132" lon="147.4941648"></trkpt>
      <trkpt lat="-42.7044369" lon="147.4942305"></trkpt>
      <trkpt lat="-42.7044642" lon="147.4942928"></trkpt>
      <trkpt lat="-42.7044959" lon="147.4943497"></trkpt>
      <trkpt lat="-42.7045302" lon="147.4944017"></trkpt>
      <trkpt lat="-42.7045665" lon="147.4944486"></trkpt>
      <trkpt lat="-42.7046059" lon="147.4944901"></trkpt>
      <trkpt lat="-42.7047363" lon="147.4945924"></trkpt>
    </trkseg>
  </trk>
</gpx>
