<?xml version="1.0" encoding="UTF-8"?>
<gpx version="1.1" creator="tkk2gpx (Aus_Kart.ztracks converter)"
     xmlns="http://www.topografix.com/GPX/1/1"
     xmlns:xsi="http://www.w3.org/2001/XMLSchema-instance"
     xsi:schemaLocation="http://www.topografix.com/GPX/1/1 http://www.topografix.com/GPX/1/1/gpx.xsd">
  <metadata>
    <name>Toowoomba CW</name>
    <desc>Kart track, QLD AU. One lap starting and ending at the Start/Finish line. Declared length 807 m.</desc>
  </metadata>
  <wpt lat="-27.5340065" lon="152.0905031">
    <name>Start/Finish</name>
    <desc>Start/Finish line location</desc>
    <sym>Flag, Checkered</sym>
  </wpt>
  <trk>
    <name>Toowoomba CW - 1 lap</name>
    <trkseg>
      <trkpt lat="-27.5339975" lon="152.0905368"></trkpt>
      <trkpt lat="-27.5339822" lon="152.0905260"></trkpt>
      <trkpt lat="-27.5339726" lon="152.0905162"></trkpt>
      <trkpt lat="-27.5339641" lon="152.0905048"></trkpt>
      <trkpt lat="-27.5339569" lon="152.0904924"></trkpt>
      <trkpt lat="-27.5339515" lon="152.0904797"></trkpt>
      <trkpt lat="-27.5339475" lon="152.0904624"></trkpt>
      <trkpt lat="-27.5339462" lon="152.0904443"></trkpt>
      <trkpt lat="-27.5339471" lon="152.0904277"></trkpt>
      <trkpt lat="-27.5339497" lon="152.0904159"></trkpt>
      <trkpt lat="-27.5339537" lon="152.0904050"></trkpt>
      <trkpt lat="-27.5339580" lon="152.0903956"></trkpt>
      <trkpt lat="-27.5339620" lon="152.0903877"></trkpt>
      <trkpt lat="-27.5339678" lon="152.0903798"></trkpt>
      <trkpt lat="-27.5339985" lon="152.0903484"></trkpt>
      <trkpt lat="-27.5340362" lon="152.0903168"></trkpt>
      <trkpt lat="-27.5340600" lon="152.0903029"></trkpt>
      <trkpt lat="-27.5340838" lon="152.0902928"></trkpt>
      <trkpt lat="-27.5341379" lon="152.0902782"></trkpt>
      <trkpt lat="-27.5342850" lon="152.0902600"></trkpt>
      <trkpt lat="-27.5347451" lon="152.0902219"></trkpt>
      <trkpt lat="-27.5347704" lon="152.0902163"></trkpt>
      <trkpt lat="-27.5347901" lon="152.0902090"></trkpt>
      <trkpt lat="-27.5348197" lon="152.0901950"></trkpt>
      <trkpt lat="-27.5348483" lon="152.0901776"></trkpt>
      <trkpt lat="-27.5348704" lon="152.0901606"></trkpt>
      <trkpt lat="-27.5348893" lon="152.0901414"></trkpt>
      <trkpt lat="-27.5349029" lon="152.0901219"></trkpt>
      <trkpt lat="-27.5349140" lon="152.0900996"></trkpt>
      <trkpt lat="-27.5349258" lon="152.0900640"></trkpt>
      <trkpt lat="-27.5349335" lon="152.0900302"></trkpt>
      <trkpt lat="-27.5349349" lon="152.0900178"></trkpt>
      <trkpt lat="-27.5349350" lon="152.0900062"></trkpt>
      <trkpt lat="-27.5349341" lon="152.0899888"></trkpt>
      <trkpt lat="-27.5349317" lon="152.0899705"></trkpt>
      <trkpt lat="-27.5349218" lon="152.0899321"></trkpt>
      <trkpt lat="-27.5348940" lon="152.0898647"></trkpt>
      <trkpt lat="-27.5348556" lon="152.0897900"></trkpt>
      <trkpt lat="-27.5347973" lon="152.0896866"></trkpt>
      <trkpt lat="-27.5347370" lon="152.0895976"></trkpt>
      <trkpt lat="-27.5347186" lon="152.0895775"></trkpt>
      <trkpt lat="-27.5347004" lon="152.0895621"></trkpt>
      <trkpt lat="-27.5346832" lon="152.0895510"></trkpt>
      <trkpt lat="-27.5346648" lon="152.0895432"></trkpt>
      <trkpt lat="-27.5346496" lon="152.0895394"></trkpt>
      <trkpt lat="-27.5346334" lon="152.0895376"></trkpt>
      <trkpt lat="-27.5346176" lon="152.0895386"></trkpt>
      <trkpt lat="-27.5346020" lon="152.0895432"></trkpt>
      <trkpt lat="-27.5345869" lon="152.0895508"></trkpt>
      <trkpt lat="-27.5345741" lon="152.0895602"></trkpt>
      <trkpt lat="-27.5345656" lon="152.0895700"></trkpt>
      <trkpt lat="-27.5345587" lon="152.0895811"></trkpt>
      <trkpt lat="-27.5345538" lon="152.0895915"></trkpt>
      <trkpt lat="-27.5345510" lon="152.0896002"></trkpt>
      <trkpt lat="-27.5345497" lon="152.0896095"></trkpt>
      <trkpt lat="-27.5345488" lon="152.0896273"></trkpt>
      <trkpt lat="-27.5345507" lon="152.0896507"></trkpt>
      <trkpt lat="-27.5345764" lon="152.0897380"></trkpt>
      <trkpt lat="-27.5346009" lon="152.0898282"></trkpt>
      <trkpt lat="-27.5346020" lon="152.0898489"></trkpt>
      <trkpt lat="-27.5346007" lon="152.0898663"></trkpt>
      <trkpt lat="-27.5345968" lon="152.0898828"></trkpt>
      <trkpt lat="-27.5345918" lon="152.0898958"></trkpt>
      <trkpt lat="-27.5345852" lon="152.0899086"></trkpt>
      <trkpt lat="-27.5345773" lon="152.0899203"></trkpt>
      <trkpt lat="-27.5345685" lon="152.0899302"></trkpt>
      <trkpt lat="-27.5345591" lon="152.0899378"></trkpt>
      <trkpt lat="-27.5345486" lon="152.0899439"></trkpt>
      <trkpt lat="-27.5345374" lon="152.0899485"></trkpt>
      <trkpt lat="-27.5345258" lon="152.0899516"></trkpt>
      <trkpt lat="-27.5345073" lon="152.0899529"></trkpt>
      <trkpt lat="-27.5344878" lon="152.0899509"></trkpt>
      <trkpt lat="-27.5344701" lon="152.0899467"></trkpt>
      <trkpt lat="-27.5344533" lon="152.0899389"></trkpt>
      <trkpt lat="-27.5344364" lon="152.0899282"></trkpt>
      <trkpt lat="-27.5344014" lon="152.0899045"></trkpt>
      <trkpt lat="-27.5343648" lon="152.0898829"></trkpt>
      <trkpt lat="-27.5343407" lon="152.0898764"></trkpt>
      <trkpt lat="-27.5343195" lon="152.0898740"></trkpt>
      <trkpt lat="-27.5342969" lon="152.0898746"></trkpt>
      <trkpt lat="-27.5342579" lon="152.0898824"></trkpt>
      <trkpt lat="-27.5342179" lon="152.0898981"></trkpt>
      <trkpt lat="-27.5341726" lon="152.0899246"></trkpt>
      <trkpt lat="-27.5341161" lon="152.0899671"></trkpt>
      <trkpt lat="-27.5337994" lon="152.0902454"></trkpt>
      <trkpt lat="-27.5337474" lon="152.0902922"></trkpt>
      <trkpt lat="-27.5332102" lon="152.0907757"></trkpt>
      <trkpt lat="-27.5331650" lon="152.0908324"></trkpt>
      <trkpt lat="-27.5331301" lon="152.0908876"></trkpt>
      <trkpt lat="-27.5331071" lon="152.0909361"></trkpt>
      <trkpt lat="-27.5330909" lon="152.0909854"></trkpt>
      <trkpt lat="-27.5330815" lon="152.0910343"></trkpt>
      <trkpt lat="-27.5330780" lon="152.0910884"></trkpt>
      <trkpt lat="-27.5330818" lon="152.0911931"></trkpt>
      <trkpt lat="-27.5330949" lon="152.0912956"></trkpt>
      <trkpt lat="-27.5331005" lon="152.0913209"></trkpt>
      <trkpt lat="-27.5331078" lon="152.0913443"></trkpt>
      <trkpt lat="-27.5331212" lon="152.0913761"></trkpt>
      <trkpt lat="-27.5331373" lon="152.0914058"></trkpt>
      <trkpt lat="-27.5331514" lon="152.0914250"></trkpt>
      <trkpt lat="-27.5331668" lon="152.0914407"></trkpt>
      <trkpt lat="-27.5331824" lon="152.0914529"></trkpt>
      <trkpt lat="-27.5331994" lon="152.0914619"></trkpt>
      <trkpt lat="-27.5332129" lon="152.0914661"></trkpt>
      <trkpt lat="-27.5332272" lon="152.0914685"></trkpt>
      <trkpt lat="-27.5332409" lon="152.0914686"></trkpt>
      <trkpt lat="-27.5332524" lon="152.0914668"></trkpt>
      <trkpt lat="-27.5332633" lon="152.0914632"></trkpt>
      <trkpt lat="-27.5332735" lon="152.0914574"></trkpt>
      <trkpt lat="-27.5332816" lon="152.0914506"></trkpt>
      <trkpt lat="-27.5332894" lon="152.0914420"></trkpt>
      <trkpt lat="-27.5332961" lon="152.0914325"></trkpt>
      <trkpt lat="-27.5333011" lon="152.0914230"></trkpt>
      <trkpt lat="-27.5333042" lon="152.0914120"></trkpt>
      <trkpt lat="-27.5333053" lon="152.0914005"></trkpt>
      <trkpt lat="-27.5333051" lon="152.0913885"></trkpt>
      <trkpt lat="-27.5333013" lon="152.0913658"></trkpt>
      <trkpt lat="-27.5332948" lon="152.0913417"></trkpt>
      <trkpt lat="-27.5332764" lon="152.0912843"></trkpt>
      <trkpt lat="-27.5332675" lon="152.0912453"></trkpt>
      <trkpt lat="-27.5332634" lon="152.0912051"></trkpt>
      <trkpt lat="-27.5332655" lon="152.0911805"></trkpt>
      <trkpt lat="-27.5332706" lon="152.0911564"></trkpt>
      <trkpt lat="-27.5332782" lon="152.0911338"></trkpt>
      <trkpt lat="-27.5332880" lon="152.0911134"></trkpt>
      <trkpt lat="-27.5333001" lon="152.0910945"></trkpt>
      <trkpt lat="-27.5333140" lon="152.0910781"></trkpt>
      <trkpt lat="-27.5333296" lon="152.0910650"></trkpt>
      <trkpt lat="-27.5333468" lon="152.0910543"></trkpt>
      <trkpt lat="-27.5333641" lon="152.0910463"></trkpt>
      <trkpt lat="-27.5333857" lon="152.0910404"></trkpt>
      <trkpt lat="-27.5334085" lon="152.0910384"></trkpt>
      <trkpt lat="-27.5334417" lon="152.0910405"></trkpt>
      <trkpt lat="-27.5334778" lon="152.0910465"></trkpt>
      <trkpt lat="-27.5335684" lon="152.0910696"></trkpt>
      <trkpt lat="-27.5341711" lon="152.0912821"></trkpt>
      <trkpt lat="-27.5342394" lon="152.0912976"></trkpt>
      <trkpt lat="-27.5342932" lon="152.0913027"></trkpt>
      <trkpt lat="-27.5343332" lon="152.0913006"></trkpt>
      <trkpt lat="-27.5343616" lon="152.0912940"></trkpt>
      <trkpt lat="-27.5343891" lon="152.0912838"></trkpt>
      <trkpt lat="-27.5344080" lon="152.0912729"></trkpt>
      <trkpt lat="-27.5344245" lon="152.0912595"></trkpt>
      <trkpt lat="-27.5344397" lon="152.0912426"></trkpt>
      <trkpt lat="-27.5344521" lon="152.0912254"></trkpt>
      <trkpt lat="-27.5344579" lon="152.0912156"></trkpt>
      <trkpt lat="-27.5344627" lon="152.0912054"></trkpt>
      <trkpt lat="-27.5344752" lon="152.0911692"></trkpt>
      <trkpt lat="-27.5344825" lon="152.0911272"></trkpt>
      <trkpt lat="-27.5344848" lon="152.0910573"></trkpt>
      <trkpt lat="-27.5344811" lon="152.0909747"></trkpt>
      <trkpt lat="-27.5344548" lon="152.0906819"></trkpt>
      <trkpt lat="-27.5344418" lon="152.0906260"></trkpt>
      <trkpt lat="-27.5344289" lon="152.0905914"></trkpt>
      <trkpt lat="-27.5344132" lon="152.0905593"></trkpt>
      <trkpt lat="-27.5343998" lon="152.0905396"></trkpt>
      <trkpt lat="-27.5343850" lon="152.0905231"></trkpt>
      <trkpt lat="-27.5343690" lon="152.0905089"></trkpt>
      <trkpt lat="-27.5343517" lon="152.0904972"></trkpt>
      <trkpt lat="-27.5343340" lon="152.0904886"></trkpt>
      <trkpt lat="-27.5343155" lon="152.0904829"></trkpt>
      <trkpt lat="-27.5342965" lon="152.0904802"></trkpt>
      <trkpt lat="-27.5342772" lon="152.0904806"></trkpt>
      <trkpt lat="-27.5342594" lon="152.0904842"></trkpt>
      <trkpt lat="-27.5342387" lon="152.0904911"></trkpt>
      <trkpt lat="-27.5341702" lon="152.0905210"></trkpt>
      <trkpt lat="-27.5340973" lon="152.0905486"></trkpt>
      <trkpt lat="-27.5340739" lon="152.0905523"></trkpt>
      <trkpt lat="-27.5340530" lon="152.0905528"></trkpt>
      <trkpt lat="-27.5340332" lon="152.0905502"></trkpt>
      <trkpt lat="-27.5340149" lon="152.0905449"></trkpt>
      <trkpt lat="-27.5339975" lon="152.0905368"></trkpt>
    </trkseg>
  </trk>
</gpx>
