<?xml version="1.0" encoding="UTF-8"?>
<gpx version="1.1" creator="tkk2gpx (Aus_Kart.ztracks converter)"
     xmlns="http://www.topografix.com/GPX/1/1"
     xmlns:xsi="http://www.w3.org/2001/XMLSchema-instance"
     xsi:schemaLocation="http://www.topografix.com/GPX/1/1 http://www.topografix.com/GPX/1/1/gpx.xsd">
  <metadata>
    <name>TownsvilleK</name>
    <desc>Kart track, QLD AU. One lap starting and ending at the Start/Finish line. Declared length 976 m.</desc>
  </metadata>
  <wpt lat="-19.2809291" lon="146.6978541">
    <name>Start/Finish</name>
    <desc>Start/Finish line location</desc>
    <sym>Flag, Checkered</sym>
  </wpt>
  <trk>
    <name>TownsvilleK - 1 lap</name>
    <trkseg>
      <trkpt lat="-19.2809233" lon="146.6976796"></trkpt>
      <trkpt lat="-19.2808779" lon="146.6976571"></trkpt>
      <trkpt lat="-19.2808330" lon="146.6976257"></trkpt>
      <trkpt lat="-19.2807936" lon="146.6975890"></trkpt>
      <trkpt lat="-19.2807657" lon="146.6975541"></trkpt>
      <trkpt lat="-19.2807432" lon="146.6975150"></trkpt>
      <trkpt lat="-19.2807236" lon="146.6974618"></trkpt>
      <trkpt lat="-19.2806838" lon="146.6972868"></trkpt>
      <trkpt lat="-19.2806652" lon="146.6972406"></trkpt>
      <trkpt lat="-19.2806427" lon="146.6971999"></trkpt>
      <trkpt lat="-19.2806215" lon="146.6971714"></trkpt>
      <trkpt lat="-19.2805965" lon="146.6971465"></trkpt>
      <trkpt lat="-19.2805605" lon="146.6971194"></trkpt>
      <trkpt lat="-19.2805199" lon="146.6970969"></trkpt>
      <trkpt lat="-19.2804786" lon="146.6970818"></trkpt>
      <trkpt lat="-19.2804333" lon="146.6970727"></trkpt>
      <trkpt lat="-19.2803719" lon="146.6970698"></trkpt>
      <trkpt lat="-19.2802967" lon="146.6970735"></trkpt>
      <trkpt lat="-19.2798589" lon="146.6971223"></trkpt>
      <trkpt lat="-19.2798191" lon="146.6971328"></trkpt>
      <trkpt lat="-19.2798040" lon="146.6971388"></trkpt>
      <trkpt lat="-19.2797894" lon="146.6971464"></trkpt>
      <trkpt lat="-19.2797710" lon="146.6971588"></trkpt>
      <trkpt lat="-19.2797533" lon="146.6971744"></trkpt>
      <trkpt lat="-19.2797360" lon="146.6971954"></trkpt>
      <trkpt lat="-19.2797222" lon="146.6972190"></trkpt>
      <trkpt lat="-19.2797165" lon="146.6972344"></trkpt>
      <trkpt lat="-19.2797128" lon="146.6972503"></trkpt>
      <trkpt lat="-19.2797108" lon="146.6972658"></trkpt>
      <trkpt lat="-19.2797111" lon="146.6972848"></trkpt>
      <trkpt lat="-19.2797143" lon="146.6973036"></trkpt>
      <trkpt lat="-19.2797208" lon="146.6973257"></trkpt>
      <trkpt lat="-19.2797297" lon="146.6973473"></trkpt>
      <trkpt lat="-19.2797400" lon="146.6973661"></trkpt>
      <trkpt lat="-19.2797520" lon="146.6973838"></trkpt>
      <trkpt lat="-19.2797813" lon="146.6974188"></trkpt>
      <trkpt lat="-19.2798214" lon="146.6974547"></trkpt>
      <trkpt lat="-19.2798681" lon="146.6974874"></trkpt>
      <trkpt lat="-19.2799901" lon="146.6975472"></trkpt>
      <trkpt lat="-19.2801970" lon="146.6976201"></trkpt>
      <trkpt lat="-19.2803965" lon="146.6976970"></trkpt>
      <trkpt lat="-19.2804264" lon="146.6977142"></trkpt>
      <trkpt lat="-19.2804500" lon="146.6977312"></trkpt>
      <trkpt lat="-19.2804880" lon="146.6977651"></trkpt>
      <trkpt lat="-19.2805112" lon="146.6977921"></trkpt>
      <trkpt lat="-19.2805204" lon="146.6978050"></trkpt>
      <trkpt lat="-19.2805289" lon="146.6978206"></trkpt>
      <trkpt lat="-19.2805442" lon="146.6978602"></trkpt>
      <trkpt lat="-19.2805559" lon="146.6979069"></trkpt>
      <trkpt lat="-19.2805587" lon="146.6979557"></trkpt>
      <trkpt lat="-19.2805553" lon="146.6980025"></trkpt>
      <trkpt lat="-19.2805485" lon="146.6980349"></trkpt>
      <trkpt lat="-19.2805395" lon="146.6980626"></trkpt>
      <trkpt lat="-19.2805338" lon="146.6980775"></trkpt>
      <trkpt lat="-19.2805257" lon="146.6980930"></trkpt>
      <trkpt lat="-19.2804473" lon="146.6982029"></trkpt>
      <trkpt lat="-19.2803461" lon="146.6983274"></trkpt>
      <trkpt lat="-19.2802653" lon="146.6984707"></trkpt>
      <trkpt lat="-19.2802393" lon="146.6985322"></trkpt>
      <trkpt lat="-19.2802220" lon="146.6985873"></trkpt>
      <trkpt lat="-19.2802189" lon="146.6986010"></trkpt>
      <trkpt lat="-19.2802176" lon="146.6986148"></trkpt>
      <trkpt lat="-19.2802189" lon="146.6986426"></trkpt>
      <trkpt lat="-19.2802241" lon="146.6986705"></trkpt>
      <trkpt lat="-19.2802314" lon="146.6986874"></trkpt>
      <trkpt lat="-19.2802412" lon="146.6987023"></trkpt>
      <trkpt lat="-19.2802546" lon="146.6987183"></trkpt>
      <trkpt lat="-19.2802703" lon="146.6987323"></trkpt>
      <trkpt lat="-19.2802876" lon="146.6987429"></trkpt>
      <trkpt lat="-19.2803062" lon="146.6987504"></trkpt>
      <trkpt lat="-19.2803252" lon="146.6987547"></trkpt>
      <trkpt lat="-19.2803445" lon="146.6987559"></trkpt>
      <trkpt lat="-19.2803657" lon="146.6987518"></trkpt>
      <trkpt lat="-19.2803852" lon="146.6987352"></trkpt>
      <trkpt lat="-19.2803983" lon="146.6987130"></trkpt>
      <trkpt lat="-19.2804100" lon="146.6986895"></trkpt>
      <trkpt lat="-19.2804178" lon="146.6986743"></trkpt>
      <trkpt lat="-19.2804257" lon="146.6986535"></trkpt>
      <trkpt lat="-19.2804387" lon="146.6986216"></trkpt>
      <trkpt lat="-19.2804806" lon="146.6985855"></trkpt>
      <trkpt lat="-19.2807032" lon="146.6984384"></trkpt>
      <trkpt lat="-19.2809643" lon="146.6982479"></trkpt>
      <trkpt lat="-19.2814423" lon="146.6979590"></trkpt>
      <trkpt lat="-19.2814580" lon="146.6979497"></trkpt>
      <trkpt lat="-19.2819694" lon="146.6976461"></trkpt>
      <trkpt lat="-19.2820152" lon="146.6976142"></trkpt>
      <trkpt lat="-19.2820487" lon="146.6975708"></trkpt>
      <trkpt lat="-19.2820776" lon="146.6975242"></trkpt>
      <trkpt lat="-19.2821013" lon="146.6974754"></trkpt>
      <trkpt lat="-19.2821201" lon="146.6974230"></trkpt>
      <trkpt lat="-19.2821359" lon="146.6973571"></trkpt>
      <trkpt lat="-19.2821452" lon="146.6972909"></trkpt>
      <trkpt lat="-19.2821474" lon="146.6972405"></trkpt>
      <trkpt lat="-19.2821439" lon="146.6971928"></trkpt>
      <trkpt lat="-19.2821343" lon="146.6971481"></trkpt>
      <trkpt lat="-19.2821198" lon="146.6971076"></trkpt>
      <trkpt lat="-19.2821132" lon="146.6970938"></trkpt>
      <trkpt lat="-19.2821049" lon="146.6970804"></trkpt>
      <trkpt lat="-19.2820871" lon="146.6970578"></trkpt>
      <trkpt lat="-19.2820676" lon="146.6970372"></trkpt>
      <trkpt lat="-19.2820566" lon="146.6970281"></trkpt>
      <trkpt lat="-19.2820448" lon="146.6970207"></trkpt>
      <trkpt lat="-19.2820244" lon="146.6970105"></trkpt>
      <trkpt lat="-19.2820016" lon="146.6970023"></trkpt>
      <trkpt lat="-19.2819787" lon="146.6969977"></trkpt>
      <trkpt lat="-19.2819554" lon="146.6969962"></trkpt>
      <trkpt lat="-19.2819321" lon="146.6969981"></trkpt>
      <trkpt lat="-19.2819091" lon="146.6970033"></trkpt>
      <trkpt lat="-19.2818860" lon="146.6970124"></trkpt>
      <trkpt lat="-19.2818656" lon="146.6970230"></trkpt>
      <trkpt lat="-19.2818457" lon="146.6970366"></trkpt>
      <trkpt lat="-19.2818199" lon="146.6970609"></trkpt>
      <trkpt lat="-19.2817952" lon="146.6970914"></trkpt>
      <trkpt lat="-19.2817566" lon="146.6971543"></trkpt>
      <trkpt lat="-19.2817134" lon="146.6972175"></trkpt>
      <trkpt lat="-19.2816972" lon="146.6972334"></trkpt>
      <trkpt lat="-19.2816814" lon="146.6972454"></trkpt>
      <trkpt lat="-19.2816648" lon="146.6972537"></trkpt>
      <trkpt lat="-19.2816523" lon="146.6972574"></trkpt>
      <trkpt lat="-19.2816392" lon="146.6972594"></trkpt>
      <trkpt lat="-19.2816262" lon="146.6972595"></trkpt>
      <trkpt lat="-19.2816139" lon="146.6972579"></trkpt>
      <trkpt lat="-19.2816028" lon="146.6972544"></trkpt>
      <trkpt lat="-19.2815919" lon="146.6972491"></trkpt>
      <trkpt lat="-19.2815820" lon="146.6972425"></trkpt>
      <trkpt lat="-19.2815738" lon="146.6972353"></trkpt>
      <trkpt lat="-19.2815667" lon="146.6972256"></trkpt>
      <trkpt lat="-19.2815615" lon="146.6972148"></trkpt>
      <trkpt lat="-19.2815579" lon="146.6972053"></trkpt>
      <trkpt lat="-19.2815562" lon="146.6971992"></trkpt>
      <trkpt lat="-19.2815556" lon="146.6971931"></trkpt>
      <trkpt lat="-19.2815559" lon="146.6971814"></trkpt>
      <trkpt lat="-19.2815576" lon="146.6971665"></trkpt>
      <trkpt lat="-19.2815735" lon="146.6970808"></trkpt>
      <trkpt lat="-19.2815740" lon="146.6970672"></trkpt>
      <trkpt lat="-19.2815725" lon="146.6970550"></trkpt>
      <trkpt lat="-19.2815674" lon="146.6970375"></trkpt>
      <trkpt lat="-19.2815595" lon="146.6970203"></trkpt>
      <trkpt lat="-19.2815493" lon="146.6970049"></trkpt>
      <trkpt lat="-19.2815368" lon="146.6969913"></trkpt>
      <trkpt lat="-19.2815220" lon="146.6969795"></trkpt>
      <trkpt lat="-19.2815051" lon="146.6969697"></trkpt>
      <trkpt lat="-19.2814830" lon="146.6969613"></trkpt>
      <trkpt lat="-19.2814609" lon="146.6969556"></trkpt>
      <trkpt lat="-19.2814333" lon="146.6969523"></trkpt>
      <trkpt lat="-19.2813334" lon="146.6969567"></trkpt>
      <trkpt lat="-19.2811811" lon="146.6969818"></trkpt>
      <trkpt lat="-19.2811585" lon="146.6969886"></trkpt>
      <trkpt lat="-19.2811408" lon="146.6969960"></trkpt>
      <trkpt lat="-19.2811282" lon="146.6970027"></trkpt>
      <trkpt lat="-19.2811170" lon="146.6970102"></trkpt>
      <trkpt lat="-19.2810975" lon="146.6970272"></trkpt>
      <trkpt lat="-19.2810810" lon="146.6970474"></trkpt>
      <trkpt lat="-19.2810680" lon="146.6970700"></trkpt>
      <trkpt lat="-19.2810629" lon="146.6970813"></trkpt>
      <trkpt lat="-19.2810588" lon="146.6970944"></trkpt>
      <trkpt lat="-19.2810541" lon="146.6971232"></trkpt>
      <trkpt lat="-19.2810530" lon="146.6971536"></trkpt>
      <trkpt lat="-19.2810562" lon="146.6971731"></trkpt>
      <trkpt lat="-19.2810621" lon="146.6971915"></trkpt>
      <trkpt lat="-19.2810715" lon="146.6972125"></trkpt>
      <trkpt lat="-19.2810835" lon="146.6972324"></trkpt>
      <trkpt lat="-19.2810969" lon="146.6972488"></trkpt>
      <trkpt lat="-19.2811119" lon="146.6972637"></trkpt>
      <trkpt lat="-19.2811467" lon="146.6972926"></trkpt>
      <trkpt lat="-19.2812785" lon="146.6973785"></trkpt>
      <trkpt lat="-19.2812957" lon="146.6973928"></trkpt>
      <trkpt lat="-19.2813093" lon="146.6974073"></trkpt>
      <trkpt lat="-19.2813271" lon="146.6974319"></trkpt>
      <trkpt lat="-19.2813416" lon="146.6974572"></trkpt>
      <trkpt lat="-19.2813475" lon="146.6974709"></trkpt>
      <trkpt lat="-19.2813515" lon="146.6974853"></trkpt>
      <trkpt lat="-19.2813562" lon="146.6975142"></trkpt>
      <trkpt lat="-19.2813583" lon="146.6975434"></trkpt>
      <trkpt lat="-19.2813578" lon="146.6975579"></trkpt>
      <trkpt lat="-19.2813554" lon="146.6975721"></trkpt>
      <trkpt lat="-19.2813490" lon="146.6975974"></trkpt>
      <trkpt lat="-19.2813382" lon="146.6976240"></trkpt>
      <trkpt lat="-19.2813257" lon="146.6976434"></trkpt>
      <trkpt lat="-19.2813104" lon="146.6976623"></trkpt>
      <trkpt lat="-19.2812946" lon="146.6976780"></trkpt>
      <trkpt lat="-19.2812750" lon="146.6976916"></trkpt>
      <trkpt lat="-19.2812562" lon="146.6977011"></trkpt>
      <trkpt lat="-19.2812452" lon="146.6977057"></trkpt>
      <trkpt lat="-19.2812336" lon="146.6977091"></trkpt>
      <trkpt lat="-19.2811834" lon="146.6977181"></trkpt>
      <trkpt lat="-19.2811267" lon="146.6977197"></trkpt>
      <trkpt lat="-19.2810494" lon="146.6977122"></trkpt>
      <trkpt lat="-19.2809233" lon="146.6976796"></trkpt>
    </trkseg>
  </trk>
</gpx>
